<?xml version="1.0" encoding="UTF-8"?>
<kml xmlns="http://www.opengis.net/kml/2.2" xmlns:gx="http://www.google.com/kml/ext/2.2" xmlns:kml="http://www.opengis.net/kml/2.2" xmlns:atom="http://www.w3.org/2005/Atom">
<Document>
	<name>ทล.295</name>
	<gx:CascadingStyle kml:id="__managed_style_1C523D81792A40C1EAB6">
		<Style>
			<IconStyle>
				<scale>1.2</scale>
				<Icon>
					<href>https://earth.google.com/earth/rpc/cc/icon?color=1976d2&amp;id=2000&amp;scale=4</href>
				</Icon>
				<hotSpot x="64" y="128" xunits="pixels" yunits="insetPixels"/>
			</IconStyle>
			<LabelStyle>
			</LabelStyle>
			<LineStyle>
				<color>ff2dc0fb</color>
				<width>4.8</width>
			</LineStyle>
			<PolyStyle>
				<color>40ffffff</color>
			</PolyStyle>
			<BalloonStyle>
				<displayMode>hide</displayMode>
			</BalloonStyle>
		</Style>
	</gx:CascadingStyle>
	<gx:CascadingStyle kml:id="__managed_style_0ED4D830B12A40C1EAB6">
		<Style>
			<IconStyle>
				<Icon>
					<href>https://earth.google.com/earth/rpc/cc/icon?color=1976d2&amp;id=2000&amp;scale=4</href>
				</Icon>
				<hotSpot x="64" y="128" xunits="pixels" yunits="insetPixels"/>
			</IconStyle>
			<LabelStyle>
			</LabelStyle>
			<LineStyle>
				<color>ff2dc0fb</color>
				<width>3.2</width>
			</LineStyle>
			<PolyStyle>
				<color>40ffffff</color>
			</PolyStyle>
			<BalloonStyle>
				<displayMode>hide</displayMode>
			</BalloonStyle>
		</Style>
	</gx:CascadingStyle>
	<StyleMap id="__managed_style_03F4AA09572A40C1EAB5">
		<Pair>
			<key>normal</key>
			<styleUrl>#__managed_style_0ED4D830B12A40C1EAB6</styleUrl>
		</Pair>
		<Pair>
			<key>highlight</key>
			<styleUrl>#__managed_style_1C523D81792A40C1EAB6</styleUrl>
		</Pair>
	</StyleMap>
	<Placemark id="0CE82D383A29F7C8E8DF">
		<name>LT1-SG-295-0100-0+050</name>
		<LookAt>
			<longitude>104.7239545618353</longitude>
			<latitude>17.48020846512051</latitude>
			<altitude>152.5797646872278</altitude>
			<heading>184.8074921674874</heading>
			<tilt>0</tilt>
			<gx:fovy>35</gx:fovy>
			<range>88.11578602999361</range>
			<altitudeMode>absolute</altitudeMode>
		</LookAt>
		<styleUrl>#__managed_style_03F4AA09572A40C1EAB5</styleUrl>
		<Point>
			<coordinates>104.7239741397579,17.48017735416092,152.6702398388508</coordinates>
		</Point>
	</Placemark>
	<Placemark id="0DFA11CD0829F7CD3636">
		<name>LT2-SG-295-0100-0+080</name>
		<LookAt>
			<longitude>104.7236046079692</longitude>
			<latitude>17.4801024843605</latitude>
			<altitude>153.984345803983</altitude>
			<heading>164.2647882423481</heading>
			<tilt>0</tilt>
			<gx:fovy>35.00000008349322</gx:fovy>
			<range>208.8983355512392</range>
			<altitudeMode>absolute</altitudeMode>
		</LookAt>
		<styleUrl>#__managed_style_03F4AA09572A40C1EAB5</styleUrl>
		<Point>
			<coordinates>104.7236918242201,17.48008084387271,153.9217745218702</coordinates>
		</Point>
	</Placemark>
	<Placemark id="0D45DCAEB329F7CF748C">
		<name>LT3-SG-295-0100-0+120</name>
		<Camera>
			<gx:ViewerOptions>
				<gx:option name="streetview"></gx:option>
				<gx:streetViewPanoId>1_X-Bo1Pwhd0eoyGXkrRUQ</gx:streetViewPanoId>
			</gx:ViewerOptions>
			<longitude>104.7233307864125</longitude>
			<latitude>17.47995491630284</latitude>
			<altitude>152.8431073474932</altitude>
			<heading>154.9301955404942</heading>
			<tilt>85</tilt>
			<roll>0</roll>
			<gx:fovy>60</gx:fovy>
			<altitudeMode>absolute</altitudeMode>
		</Camera>
		<styleUrl>#__managed_style_03F4AA09572A40C1EAB5</styleUrl>
		<Point>
			<altitudeMode>relativeToGround</altitudeMode>
			<coordinates>104.7233307864125,17.47995491630284,0</coordinates>
		</Point>
	</Placemark>
	<Placemark id="0DAF111A5129F7D2ACCE">
		<name>LT4-SG-295-0100-0+150</name>
		<LookAt>
			<longitude>104.722993740519</longitude>
			<latitude>17.47991201010269</latitude>
			<altitude>155.736227476644</altitude>
			<heading>146.4946673397711</heading>
			<tilt>0</tilt>
			<gx:fovy>35.00000133256165</gx:fovy>
			<range>68.71039891002511</range>
			<altitudeMode>absolute</altitudeMode>
		</LookAt>
		<styleUrl>#__managed_style_03F4AA09572A40C1EAB5</styleUrl>
		<Point>
			<coordinates>104.7230611397469,17.47984515803414,155.1902299111856</coordinates>
		</Point>
	</Placemark>
	<Placemark id="098472A56E29F7D91C4F">
		<name>LT5-SG-295-0100-0+180</name>
		<LookAt>
			<longitude>104.7225996438652</longitude>
			<latitude>17.47988283409293</latitude>
			<altitude>160.8415857998589</altitude>
			<heading>154.8413956694897</heading>
			<tilt>0</tilt>
			<gx:fovy>35</gx:fovy>
			<range>130.8531353214676</range>
			<altitudeMode>absolute</altitudeMode>
		</LookAt>
		<styleUrl>#__managed_style_03F4AA09572A40C1EAB5</styleUrl>
		<Point>
			<coordinates>104.7227601339235,17.47973215155675,158.6675238477257</coordinates>
		</Point>
	</Placemark>
	<Placemark id="0F0C17EC8429F7DDA314">
		<name>LT6-SG-295-0100-0+210</name>
		<LookAt>
			<longitude>104.7225656588037</longitude>
			<latitude>17.47970939901863</latitude>
			<altitude>161.5600772080641</altitude>
			<heading>359.966888525533</heading>
			<tilt>0</tilt>
			<gx:fovy>35</gx:fovy>
			<range>89.44489387647991</range>
			<altitudeMode>absolute</altitudeMode>
		</LookAt>
		<styleUrl>#__managed_style_03F4AA09572A40C1EAB5</styleUrl>
		<Point>
			<coordinates>104.7224585296414,17.47962601138764,162.6475660001633</coordinates>
		</Point>
	</Placemark>
	<Placemark id="0BEB7235AD29F7DF65DE">
		<name>LT7-SG-295-0100-0+240</name>
		<LookAt>
			<longitude>104.7222000067311</longitude>
			<latitude>17.47952695790365</latitude>
			<altitude>164.4329828773768</altitude>
			<heading>169.6203984203453</heading>
			<tilt>0</tilt>
			<gx:fovy>35</gx:fovy>
			<range>90.32163292746191</range>
			<altitudeMode>absolute</altitudeMode>
		</LookAt>
		<styleUrl>#__managed_style_03F4AA09572A40C1EAB5</styleUrl>
		<Point>
			<coordinates>104.7221588902844,17.47952499649293,165.0301512733841</coordinates>
		</Point>
	</Placemark>
	<Placemark id="0CA9C4109729F7E08BA4">
		<name>LT8-SG-295-0100-0+270</name>
		<LookAt>
			<longitude>104.7218455812441</longitude>
			<latitude>17.47956246243733</latitude>
			<altitude>167.4395617889124</altitude>
			<heading>169.6202919628518</heading>
			<tilt>0</tilt>
			<gx:fovy>35</gx:fovy>
			<range>87.31504053291246</range>
			<altitudeMode>absolute</altitudeMode>
		</LookAt>
		<styleUrl>#__managed_style_03F4AA09572A40C1EAB5</styleUrl>
		<Point>
			<coordinates>104.721858103053,17.479419703214,168.8879634276133</coordinates>
		</Point>
	</Placemark>
	<Placemark id="00915C093C29F7E1BD23">
		<name>LT9-SG-295-0100-0+300</name>
		<LookAt>
			<longitude>104.7215433704201</longitude>
			<latitude>17.4794454262608</latitude>
			<altitude>169.5369002354891</altitude>
			<heading>169.6202011894258</heading>
			<tilt>0</tilt>
			<gx:fovy>35</gx:fovy>
			<range>85.21770536124677</range>
			<altitudeMode>absolute</altitudeMode>
		</LookAt>
		<styleUrl>#__managed_style_03F4AA09572A40C1EAB5</styleUrl>
		<Point>
			<coordinates>104.7215551928281,17.47931076426619,170.7124242984889</coordinates>
		</Point>
	</Placemark>
	<Placemark id="09C13A2EC529F7E3800D">
		<name>LT10-SG-295-0100-0+330</name>
		<LookAt>
			<longitude>104.7211740540649</longitude>
			<latitude>17.4791653052794</latitude>
			<altitude>170.6724644099451</altitude>
			<heading>169.6201252812983</heading>
			<tilt>0</tilt>
			<gx:fovy>35</gx:fovy>
			<range>168.8626599515374</range>
			<altitudeMode>absolute</altitudeMode>
		</LookAt>
		<styleUrl>#__managed_style_03F4AA09572A40C1EAB5</styleUrl>
		<Point>
			<coordinates>104.7212468993131,17.47919197610522,170.7835713958434</coordinates>
		</Point>
	</Placemark>
	<Placemark id="077DC7631529F7E53763">
		<name>LT11-SG-295-0100-0+360</name>
		<LookAt>
			<longitude>104.7209984209786</longitude>
			<latitude>17.47913020038737</latitude>
			<altitude>170.4834726718714</altitude>
			<heading>166.1732793938774</heading>
			<tilt>0</tilt>
			<gx:fovy>35.00001173268442</gx:fovy>
			<range>75.67771275436826</range>
			<altitudeMode>absolute</altitudeMode>
		</LookAt>
		<styleUrl>#__managed_style_03F4AA09572A40C1EAB5</styleUrl>
		<Point>
			<coordinates>104.7210761714985,17.47912717595265,170.846710198832</coordinates>
		</Point>
	</Placemark>
	<Placemark id="0CE06103F729F7E7536B">
		<name>LT12-SG-295-0100-0+390</name>
		<LookAt>
			<longitude>104.7208304812612</longitude>
			<latitude>17.47927265437046</latitude>
			<altitude>169.5122928255294</altitude>
			<heading>359.9995515639366</heading>
			<tilt>0</tilt>
			<gx:fovy>35.00000000026742</gx:fovy>
			<range>84.18311526982507</range>
			<altitudeMode>absolute</altitudeMode>
		</LookAt>
		<styleUrl>#__managed_style_03F4AA09572A40C1EAB5</styleUrl>
		<Point>
			<coordinates>104.7209369666933,17.4790751227062,170.5843325205427</coordinates>
		</Point>
	</Placemark>
	<Placemark id="0EB0F3EB9A29F7E9D5B7">
		<name>LT13-SG-295-0100-0+420</name>
		<LookAt>
			<longitude>104.7208212951948</longitude>
			<latitude>17.47901381903593</latitude>
			<altitude>169.8652461098966</altitude>
			<heading>149.336522295997</heading>
			<tilt>0</tilt>
			<gx:fovy>35</gx:fovy>
			<range>86.40870948194789</range>
			<altitudeMode>absolute</altitudeMode>
		</LookAt>
		<styleUrl>#__managed_style_03F4AA09572A40C1EAB5</styleUrl>
		<Point>
			<coordinates>104.7207881861893,17.47901026018429,169.7729982577534</coordinates>
		</Point>
	</Placemark>
	<Placemark id="0020CCB4D629F7F3CB62">
		<name>LT14-SG-295-0100-0+450</name>
		<LookAt>
			<longitude>104.7206858805817</longitude>
			<latitude>17.47916899509463</latitude>
			<altitude>168.8611176480968</altitude>
			<heading>266.9970710338459</heading>
			<tilt>0</tilt>
			<gx:fovy>35</gx:fovy>
			<range>154.4187624609185</range>
			<altitudeMode>absolute</altitudeMode>
		</LookAt>
		<styleUrl>#__managed_style_03F4AA09572A40C1EAB5</styleUrl>
		<Point>
			<coordinates>104.7206227853233,17.47895706531603,168.6989334641596</coordinates>
		</Point>
	</Placemark>
	<Placemark id="0F3A2AF17429F7F49104">
		<name>LT15-SG-295-0100-0+480</name>
		<LookAt>
			<longitude>104.720618059168</longitude>
			<latitude>17.47910688463365</latitude>
			<altitude>168.4437936685834</altitude>
			<heading>266.997070689645</heading>
			<tilt>0</tilt>
			<gx:fovy>35</gx:fovy>
			<range>104.5763432633067</range>
			<altitudeMode>absolute</altitudeMode>
		</LookAt>
		<styleUrl>#__managed_style_03F4AA09572A40C1EAB5</styleUrl>
		<Point>
			<coordinates>104.7204773773734,17.4788914076541,167.3190646138574</coordinates>
		</Point>
	</Placemark>
	<Placemark id="083D3F9F4629F7F84779">
		<name>LT16-SG-295-0100-0+510</name>
		<LookAt>
			<longitude>104.7204399992906</longitude>
			<latitude>17.47893934345783</latitude>
			<altitude>166.835138466293</altitude>
			<heading>0</heading>
			<tilt>0</tilt>
			<gx:fovy>35</gx:fovy>
			<range>141.8073786860805</range>
			<altitudeMode>absolute</altitudeMode>
		</LookAt>
		<styleUrl>#__managed_style_03F4AA09572A40C1EAB5</styleUrl>
		<Point>
			<coordinates>104.7203083715843,17.47882721407765,164.8455680597217</coordinates>
		</Point>
	</Placemark>
	<Placemark id="0E7B3BB35829F7F8EF7E">
		<name>LT17-SG-295-0100-0+540</name>
		<LookAt>
			<longitude>104.7199566620857</longitude>
			<latitude>17.47878918198331</latitude>
			<altitude>162.6615617132282</altitude>
			<heading>0</heading>
			<tilt>0</tilt>
			<gx:fovy>35</gx:fovy>
			<range>145.9809458251948</range>
			<altitudeMode>absolute</altitudeMode>
		</LookAt>
		<styleUrl>#__managed_style_03F4AA09572A40C1EAB5</styleUrl>
		<Point>
			<coordinates>104.7200027603922,17.47870168192647,162.59255459656</coordinates>
		</Point>
	</Placemark>
	<Placemark id="0F29FFE25D29F7FD6670">
		<name>LT18-SG-295-0100-0+580</name>
		<LookAt>
			<longitude>104.7199566620857</longitude>
			<latitude>17.47878918198331</latitude>
			<altitude>162.6615711461037</altitude>
			<heading>0</heading>
			<tilt>0</tilt>
			<gx:fovy>35</gx:fovy>
			<range>145.9809110587958</range>
			<altitudeMode>absolute</altitudeMode>
		</LookAt>
		<styleUrl>#__managed_style_03F4AA09572A40C1EAB5</styleUrl>
		<Point>
			<coordinates>104.719689799917,17.4785898798003,161.8559783653362</coordinates>
		</Point>
	</Placemark>
	<Placemark id="08FB9E25CA29F800A703">
		<name>LT19-SG-295-0100-0+610</name>
		<LookAt>
			<longitude>104.7194452596986</longitude>
			<latitude>17.47849314565705</latitude>
			<altitude>160.489484763346</altitude>
			<heading>171.7016489365835</heading>
			<tilt>1.216638973873006</tilt>
			<gx:fovy>35</gx:fovy>
			<range>70.33207179882993</range>
			<altitudeMode>absolute</altitudeMode>
		</LookAt>
		<styleUrl>#__managed_style_03F4AA09572A40C1EAB5</styleUrl>
		<Point>
			<coordinates>104.7193772913672,17.47846575586296,160.2621970132061</coordinates>
		</Point>
	</Placemark>
	<Placemark id="0C6A833F7129F804574B">
		<name>LT20-SG-295-0100-0+640</name>
		<LookAt>
			<longitude>104.7191814397964</longitude>
			<latitude>17.47834609626639</latitude>
			<altitude>158.9444404018636</altitude>
			<heading>359.8777694966683</heading>
			<tilt>0</tilt>
			<gx:fovy>35</gx:fovy>
			<range>55.68520227621775</range>
			<altitudeMode>absolute</altitudeMode>
		</LookAt>
		<styleUrl>#__managed_style_03F4AA09572A40C1EAB5</styleUrl>
		<Point>
			<coordinates>104.7190846002489,17.47835655452628,158.5582873361691</coordinates>
		</Point>
	</Placemark>
	<Placemark id="04FF119B5629F812BCE1">
		<name>LT21-SG-295-0100-0+790</name>
		<LookAt>
			<longitude>104.7178513087931</longitude>
			<latitude>17.47791639959365</latitude>
			<altitude>153.3034636580924</altitude>
			<heading>106.0206961910935</heading>
			<tilt>0</tilt>
			<gx:fovy>35</gx:fovy>
			<range>229.412759211773</range>
			<altitudeMode>absolute</altitudeMode>
		</LookAt>
		<styleUrl>#__managed_style_03F4AA09572A40C1EAB5</styleUrl>
		<Point>
			<coordinates>104.7178203992475,17.4778861435115,153.673503744066</coordinates>
		</Point>
	</Placemark>
	<Placemark id="0DB286B22E29F813D090">
		<name>LT22-SG-295-0100-0+830</name>
		<LookAt>
			<longitude>104.7175950134282</longitude>
			<latitude>17.47782336844724</latitude>
			<altitude>153.8121045893966</altitude>
			<heading>135.6608977414677</heading>
			<tilt>0</tilt>
			<gx:fovy>35</gx:fovy>
			<range>65.48699745666454</range>
			<altitudeMode>absolute</altitudeMode>
		</LookAt>
		<styleUrl>#__managed_style_03F4AA09572A40C1EAB5</styleUrl>
		<Point>
			<coordinates>104.7175260704114,17.47776379172036,153.9388708138906</coordinates>
		</Point>
	</Placemark>
	<Placemark id="038D76387F29F814E42D">
		<name>LT23-SG-295-0100-0+860</name>
		<LookAt>
			<longitude>104.7171652014964</longitude>
			<latitude>17.47772429025454</latitude>
			<altitude>152.7339811748067</altitude>
			<heading>135.6607615789671</heading>
			<tilt>0</tilt>
			<gx:fovy>35</gx:fovy>
			<range>107.9431213463068</range>
			<altitudeMode>absolute</altitudeMode>
		</LookAt>
		<styleUrl>#__managed_style_03F4AA09572A40C1EAB5</styleUrl>
		<Point>
			<coordinates>104.7172181918744,17.47765145204111,152.7854884658888</coordinates>
		</Point>
	</Placemark>
	<Placemark id="01C875B54929F816494A">
		<name>LT24-SG-295-0100-0+890</name>
		<LookAt>
			<longitude>104.7169303791979</longitude>
			<latitude>17.47754281179563</latitude>
			<altitude>152.1565861287316</altitude>
			<heading>135.6606910539193</heading>
			<tilt>0</tilt>
			<gx:fovy>35</gx:fovy>
			<range>108.5205101127576</range>
			<altitudeMode>absolute</altitudeMode>
		</LookAt>
		<styleUrl>#__managed_style_03F4AA09572A40C1EAB5</styleUrl>
		<Point>
			<coordinates>104.7169080964755,17.47752249909061,152.214983479143</coordinates>
		</Point>
	</Placemark>
	<Placemark id="008DCF7C3229F8175481">
		<name>LT25-SG-295-0100-0+920</name>
		<LookAt>
			<longitude>104.7164914851757</longitude>
			<latitude>17.4774079922559</latitude>
			<altitude>152.2038134581888</altitude>
			<heading>135.6605592408939</heading>
			<tilt>0</tilt>
			<gx:fovy>35</gx:fovy>
			<range>108.4732857540621</range>
			<altitudeMode>absolute</altitudeMode>
		</LookAt>
		<styleUrl>#__managed_style_03F4AA09572A40C1EAB5</styleUrl>
		<Point>
			<coordinates>104.7166012058493,17.4774079458761,151.7128719057753</coordinates>
		</Point>
	</Placemark>
	<Placemark id="05651D093A29F818E144">
		<name>LT26-SG-295-0100-0+950</name>
		<LookAt>
			<longitude>104.716442556725</longitude>
			<latitude>17.47736310577762</latitude>
			<altitude>152.156046559198</altitude>
			<heading>2.941737814613167</heading>
			<tilt>0</tilt>
			<gx:fovy>35</gx:fovy>
			<range>79.38989501182733</range>
			<altitudeMode>absolute</altitudeMode>
		</LookAt>
		<styleUrl>#__managed_style_03F4AA09572A40C1EAB5</styleUrl>
		<Point>
			<coordinates>104.7163520329276,17.47730766441005,152.4826912812539</coordinates>
		</Point>
	</Placemark>
	<Placemark id="0D5B1C1C7229F81E8BEE">
		<name>LT27-SG-295-0100-0+980</name>
		<LookAt>
			<longitude>104.7158454204803</longitude>
			<latitude>17.47739249130389</latitude>
			<altitude>154.2022535296676</altitude>
			<heading>359.7343075533639</heading>
			<tilt>0</tilt>
			<gx:fovy>35</gx:fovy>
			<range>181.1401240523992</range>
			<altitudeMode>absolute</altitudeMode>
		</LookAt>
		<styleUrl>#__managed_style_03F4AA09572A40C1EAB5</styleUrl>
		<Point>
			<coordinates>104.715984444485,17.47718957372387,153.0648423738069</coordinates>
		</Point>
	</Placemark>
	<Placemark id="0811114F3329F837E1BF">
		<name>LT28-SG-295-0100-1+010</name>
		<LookAt>
			<longitude>104.7156588632618</longitude>
			<latitude>17.47712296068816</latitude>
			<altitude>152.6476002948426</altitude>
			<heading>153.7999508651606</heading>
			<tilt>0</tilt>
			<gx:fovy>35</gx:fovy>
			<range>124.6496740304247</range>
			<altitudeMode>absolute</altitudeMode>
		</LookAt>
		<styleUrl>#__managed_style_03F4AA09572A40C1EAB5</styleUrl>
		<Point>
			<coordinates>104.7157256053349,17.47708700470711,152.7668474200029</coordinates>
		</Point>
	</Placemark>
	<Placemark id="0C27BB2DF229F83B4579">
		<name>LT29-SG-295-0100-1+040</name>
		<LookAt>
			<longitude>104.715516225199</longitude>
			<latitude>17.47707747716285</latitude>
			<altitude>152.5515472996793</altitude>
			<heading>187.848790996362</heading>
			<tilt>0</tilt>
			<gx:fovy>35</gx:fovy>
			<range>86.45799664698643</range>
			<altitudeMode>absolute</altitudeMode>
		</LookAt>
		<styleUrl>#__managed_style_03F4AA09572A40C1EAB5</styleUrl>
		<Point>
			<coordinates>104.7154928894132,17.47704189455086,152.5555252257534</coordinates>
		</Point>
	</Placemark>
	<Placemark id="0F413A286729F843065E">
		<name>LT30-SG-295-0100-1+070</name>
		<LookAt>
			<longitude>104.7151838613359</longitude>
			<latitude>17.47717027368118</latitude>
			<altitude>152.539818855812</altitude>
			<heading>277.3983811101954</heading>
			<tilt>0</tilt>
			<gx:fovy>35</gx:fovy>
			<range>94.54967901387137</range>
			<altitudeMode>absolute</altitudeMode>
		</LookAt>
		<styleUrl>#__managed_style_03F4AA09572A40C1EAB5</styleUrl>
		<Point>
			<coordinates>104.7151297204876,17.47705387792796,152.4018777153996</coordinates>
		</Point>
	</Placemark>
	<Placemark id="0C32A8A69729F846000E">
		<name>LT31-SG-295-0100-1+100</name>
		<LookAt>
			<longitude>104.7152723771361</longitude>
			<latitude>17.47736057117879</latitude>
			<altitude>154.2303007081355</altitude>
			<heading>277.3983808416184</heading>
			<tilt>0</tilt>
			<gx:fovy>35</gx:fovy>
			<range>247.9440147606874</range>
			<altitudeMode>absolute</altitudeMode>
		</LookAt>
		<styleUrl>#__managed_style_03F4AA09572A40C1EAB5</styleUrl>
		<Point>
			<coordinates>104.7148353448627,17.47714109943169,151.6940476675887</coordinates>
		</Point>
	</Placemark>
	<Placemark id="0281A8ACEB29F84A53B8">
		<name>LT32-SG-295-0100-1+130</name>
		<LookAt>
			<longitude>104.7148021914573</longitude>
			<latitude>17.47735105673533</latitude>
			<altitude>151.8910276056649</altitude>
			<heading>359.6440233728358</heading>
			<tilt>0</tilt>
			<gx:fovy>35</gx:fovy>
			<range>148.5640545074421</range>
			<altitudeMode>absolute</altitudeMode>
		</LookAt>
		<styleUrl>#__managed_style_03F4AA09572A40C1EAB5</styleUrl>
		<Point>
			<coordinates>104.7145247746652,17.47731383004982,150.8327939390544</coordinates>
		</Point>
	</Placemark>
	<Placemark id="03EFB0C89A29F8553B38">
		<name>LT33-SG-295-0100-1+160</name>
		<LookAt>
			<longitude>104.714381754322</longitude>
			<latitude>17.47746560997794</latitude>
			<altitude>151.0919097591769</altitude>
			<heading>288.813420910407</heading>
			<tilt>0</tilt>
			<gx:fovy>35</gx:fovy>
			<range>107.1040806606834</range>
			<altitudeMode>absolute</altitudeMode>
		</LookAt>
		<styleUrl>#__managed_style_03F4AA09572A40C1EAB5</styleUrl>
		<Point>
			<coordinates>104.7143181974065,17.47751744027294,151.6854637645804</coordinates>
		</Point>
	</Placemark>
	<Placemark id="0435EFF9AE29F85B8913">
		<name>LT34-SG-295-0100-1+190</name>
		<LookAt>
			<longitude>104.7142394683125</longitude>
			<latitude>17.47767786987425</latitude>
			<altitude>151.983358298742</altitude>
			<heading>114.3600341090281</heading>
			<tilt>0</tilt>
			<gx:fovy>35</gx:fovy>
			<range>136.4181232829469</range>
			<altitudeMode>absolute</altitudeMode>
		</LookAt>
		<styleUrl>#__managed_style_03F4AA09572A40C1EAB5</styleUrl>
		<Point>
			<coordinates>104.7141850091751,17.47770138947664,152.1417031471579</coordinates>
		</Point>
	</Placemark>
	<Placemark id="044411127F29F85CB923">
		<name>LT35-SG-295-0100-1+220</name>
		<LookAt>
			<longitude>104.7142989111572</longitude>
			<latitude>17.4780393069373</latitude>
			<altitude>149.6923387824093</altitude>
			<heading>264.2970656846542</heading>
			<tilt>0</tilt>
			<gx:fovy>35</gx:fovy>
			<range>97.81904164676234</range>
			<altitudeMode>absolute</altitudeMode>
		</LookAt>
		<styleUrl>#__managed_style_03F4AA09572A40C1EAB5</styleUrl>
		<Point>
			<coordinates>104.7140929393014,17.47789594146555,151.2711209591226</coordinates>
		</Point>
	</Placemark>
	<Placemark id="0455E96E6129F85FF046">
		<name>LT36-SG-295-0100-1+250</name>
		<LookAt>
			<longitude>104.7141336319924</longitude>
			<latitude>17.47813966143754</latitude>
			<altitude>148.981944944711</altitude>
			<heading>114.3599134615918</heading>
			<tilt>0</tilt>
			<gx:fovy>35.00000033397213</gx:fovy>
			<range>62.27671452454162</range>
			<altitudeMode>absolute</altitudeMode>
		</LookAt>
		<styleUrl>#__managed_style_03F4AA09572A40C1EAB5</styleUrl>
		<Point>
			<coordinates>104.7140347101639,17.47810230163092,149.8480398390228</coordinates>
		</Point>
	</Placemark>
	<Placemark id="0426B2E04F29F868542B">
		<name>LT37-SG-295-0100-1+280</name>
		<LookAt>
			<longitude>104.7141493670622</longitude>
			<latitude>17.47838736922791</latitude>
			<altitude>147.7884268410239</altitude>
			<heading>114.3599046067335</heading>
			<tilt>0</tilt>
			<gx:fovy>35.00000033397213</gx:fovy>
			<range>193.6507895692193</range>
			<altitudeMode>absolute</altitudeMode>
		</LookAt>
		<styleUrl>#__managed_style_03F4AA09572A40C1EAB5</styleUrl>
		<Point>
			<coordinates>104.7140150920658,17.47839677266322,147.9226502625504</coordinates>
		</Point>
	</Placemark>
	<Placemark id="02F7B13B1129FD6AE491">
		<name>LT38-SG-295-0100-1+310</name>
		<LookAt>
			<longitude>104.7141389705095</longitude>
			<latitude>17.47868952992803</latitude>
			<altitude>146.2386688640047</altitude>
			<heading>8.800112663045368</heading>
			<tilt>0</tilt>
			<gx:fovy>35</gx:fovy>
			<range>190.7339929889895</range>
			<altitudeMode>absolute</altitudeMode>
		</LookAt>
		<styleUrl>#__managed_style_03F4AA09572A40C1EAB5</styleUrl>
		<Point>
			<coordinates>104.7141042726468,17.47875329882583,146.3028619427688</coordinates>
		</Point>
	</Placemark>
	<Placemark id="09A2CF8EBE29FD6F3FCA">
		<name>LT39-SG-295-0100-1+340</name>
		<LookAt>
			<longitude>104.7144390296838</longitude>
			<latitude>17.4788051085642</latitude>
			<altitude>147.2934671342361</altitude>
			<heading>114.3579887321791</heading>
			<tilt>0</tilt>
			<gx:fovy>35.0000003340831</gx:fovy>
			<range>186.1061449024237</range>
			<altitudeMode>absolute</altitudeMode>
		</LookAt>
		<styleUrl>#__managed_style_03F4AA09572A40C1EAB5</styleUrl>
		<Point>
			<coordinates>104.714257789021,17.47900491094617,147.595820851661</coordinates>
		</Point>
	</Placemark>
	<Placemark id="01FFA7A07129FD717409">
		<name>LT40-SG-295-0100-1+390</name>
		<LookAt>
			<longitude>104.715078792727</longitude>
			<latitude>17.47939359841501</latitude>
			<altitude>150.2207084101804</altitude>
			<heading>0.7557129754029791</heading>
			<tilt>0</tilt>
			<gx:fovy>35</gx:fovy>
			<range>280.7966625988047</range>
			<altitudeMode>absolute</altitudeMode>
		</LookAt>
		<styleUrl>#__managed_style_03F4AA09572A40C1EAB5</styleUrl>
		<Point>
			<coordinates>104.7144828525134,17.479256481763,149.9560533969502</coordinates>
		</Point>
	</Placemark>
	<Placemark id="08E1D1675029FD71FA95">
		<name>LT41-SG-295-0100-1+420</name>
		<LookAt>
			<longitude>104.715078792727</longitude>
			<latitude>17.47939359844672</latitude>
			<altitude>150.2207084101804</altitude>
			<heading>0.7557129754029791</heading>
			<tilt>0</tilt>
			<gx:fovy>35</gx:fovy>
			<range>280.7966625988047</range>
			<altitudeMode>absolute</altitudeMode>
		</LookAt>
		<styleUrl>#__managed_style_03F4AA09572A40C1EAB5</styleUrl>
		<Point>
			<coordinates>104.7147818019374,17.47942063259553,150.9633515662067</coordinates>
		</Point>
	</Placemark>
	<Placemark id="049BCCF79129F7CB7B0C">
		<name>RT1-SG-295-0100-0+050</name>
		<LookAt>
			<longitude>104.7239545618353</longitude>
			<latitude>17.48020846512051</latitude>
			<altitude>152.5797646872278</altitude>
			<heading>184.8074921674874</heading>
			<tilt>0</tilt>
			<gx:fovy>35</gx:fovy>
			<range>88.11578602999361</range>
			<altitudeMode>absolute</altitudeMode>
		</LookAt>
		<styleUrl>#__managed_style_03F4AA09572A40C1EAB5</styleUrl>
		<Point>
			<coordinates>104.7238507647407,17.48042232171881,152.7511303315356</coordinates>
		</Point>
	</Placemark>
	<Placemark id="0EAD4EBA3429F7CE2B3D">
		<name>RT2-SG-295-0100-0+080</name>
		<LookAt>
			<longitude>104.723604607947</longitude>
			<latitude>17.4801024843605</latitude>
			<altitude>153.984345803983</altitude>
			<heading>164.2647882423481</heading>
			<tilt>0</tilt>
			<gx:fovy>35.00000008349322</gx:fovy>
			<range>208.8983587288386</range>
			<altitudeMode>absolute</altitudeMode>
		</LookAt>
		<styleUrl>#__managed_style_03F4AA09572A40C1EAB5</styleUrl>
		<Point>
			<coordinates>104.7235816999684,17.48030976952283,154.1115588109774</coordinates>
		</Point>
	</Placemark>
	<Placemark id="0B9406309E29F7D0BEFD">
		<name>RT3-SG-295-0100-0+120</name>
		<LookAt>
			<longitude>104.7232422319993</longitude>
			<latitude>17.48011825840482</latitude>
			<altitude>155.1608625896561</altitude>
			<heading>354.2056057387308</heading>
			<tilt>0</tilt>
			<gx:fovy>35</gx:fovy>
			<range>500</range>
			<altitudeMode>absolute</altitudeMode>
		</LookAt>
		<styleUrl>#__managed_style_03F4AA09572A40C1EAB5</styleUrl>
		<Point>
			<coordinates>104.7232491225174,17.48019293383294,155.4273517057243</coordinates>
		</Point>
	</Placemark>
	<Placemark id="02823AA77329F7D86DDA">
		<name>RT4-SG-295-0100-0+150</name>
		<LookAt>
			<longitude>104.7229061689458</longitude>
			<latitude>17.48011777256554</latitude>
			<altitude>156.6570059992593</altitude>
			<heading>154.8414746915829</heading>
			<tilt>0</tilt>
			<gx:fovy>35</gx:fovy>
			<range>198.4285967236428</range>
			<altitudeMode>absolute</altitudeMode>
		</LookAt>
		<styleUrl>#__managed_style_03F4AA09572A40C1EAB5</styleUrl>
		<Point>
			<coordinates>104.7229550464914,17.48008881730995,156.460628713454</coordinates>
		</Point>
	</Placemark>
	<Placemark id="0F5AED51F929F7DCD3BF">
		<name>RT5-SG-295-0100-0+080</name>
		<LookAt>
			<longitude>104.7225209473286</longitude>
			<latitude>17.48002758323726</latitude>
			<altitude>161.3658432682502</altitude>
			<heading>359.9668888000759</heading>
			<tilt>0</tilt>
			<gx:fovy>35</gx:fovy>
			<range>89.63912795351462</range>
			<altitudeMode>absolute</altitudeMode>
		</LookAt>
		<styleUrl>#__managed_style_03F4AA09572A40C1EAB5</styleUrl>
		<Point>
			<coordinates>104.7226651657255,17.47998832738494,159.7021674814619</coordinates>
		</Point>
	</Placemark>
	<Placemark id="065A8F870829F7DE4635">
		<name>RT6-SG-295-0100-0+210</name>
		<LookAt>
			<longitude>104.7222000067311</longitude>
			<latitude>17.47952695790365</latitude>
			<altitude>164.4329828773768</altitude>
			<heading>169.6203984203453</heading>
			<tilt>0</tilt>
			<gx:fovy>35</gx:fovy>
			<range>90.32163292746191</range>
			<altitudeMode>absolute</altitudeMode>
		</LookAt>
		<styleUrl>#__managed_style_03F4AA09572A40C1EAB5</styleUrl>
		<Point>
			<coordinates>104.7223704055906,17.47988622439523,163.7540514392511</coordinates>
		</Point>
	</Placemark>
	<Placemark id="092FEE362929F7E000FD">
		<name>RT7-SG-295-0100-0+240</name>
		<LookAt>
			<longitude>104.7220657408222</longitude>
			<latitude>17.47973684479689</latitude>
			<altitude>165.169601877333</altitude>
			<heading>169.6203580914525</heading>
			<tilt>0</tilt>
			<gx:fovy>35</gx:fovy>
			<range>89.58500825900956</range>
			<altitudeMode>absolute</altitudeMode>
		</LookAt>
		<styleUrl>#__managed_style_03F4AA09572A40C1EAB5</styleUrl>
		<Point>
			<coordinates>104.7220568074072,17.47976841575412,165.3660527408331</coordinates>
		</Point>
	</Placemark>
	<Placemark id="070924C0C929F7E11777">
		<name>RT8-SG-295-0100-0+270</name>
		<LookAt>
			<longitude>104.721845581233</longitude>
			<latitude>17.47956246243733</latitude>
			<altitude>167.4395617889124</altitude>
			<heading>169.6202919628518</heading>
			<tilt>0</tilt>
			<gx:fovy>35</gx:fovy>
			<range>87.31504053291246</range>
			<altitudeMode>absolute</altitudeMode>
		</LookAt>
		<styleUrl>#__managed_style_03F4AA09572A40C1EAB5</styleUrl>
		<Point>
			<coordinates>104.7217509588302,17.47966114709314,167.4923958247855</coordinates>
		</Point>
	</Placemark>
	<Placemark id="0C201719E229F7E276EB">
		<name>RT9-SG-295-0100-0+300</name>
		<LookAt>
			<longitude>104.7215433704201</longitude>
			<latitude>17.4794454262608</latitude>
			<altitude>169.5369002354891</altitude>
			<heading>169.6202011894258</heading>
			<tilt>0</tilt>
			<gx:fovy>35</gx:fovy>
			<range>85.21770536124677</range>
			<altitudeMode>absolute</altitudeMode>
		</LookAt>
		<styleUrl>#__managed_style_03F4AA09572A40C1EAB5</styleUrl>
		<Point>
			<coordinates>104.7214538297115,17.47955302902175,168.9782369599222</coordinates>
		</Point>
	</Placemark>
	<Placemark id="0AB06EB8E829F7E40C98">
		<name>RT10-SG-295-0100-0+330</name>
		<LookAt>
			<longitude>104.7211740540649</longitude>
			<latitude>17.4791653052794</latitude>
			<altitude>170.6724832742815</altitude>
			<heading>169.6201252812983</heading>
			<tilt>0</tilt>
			<gx:fovy>35</gx:fovy>
			<range>168.862636773938</range>
			<altitudeMode>absolute</altitudeMode>
		</LookAt>
		<styleUrl>#__managed_style_03F4AA09572A40C1EAB5</styleUrl>
		<Point>
			<coordinates>104.7211408119104,17.47943511798593,169.2824246751251</coordinates>
		</Point>
	</Placemark>
	<Placemark id="050A83980429F7E62402">
		<name>RT11-SG-295-0100-0+360</name>
		<LookAt>
			<longitude>104.7209598144194</longitude>
			<latitude>17.47928200631235</latitude>
			<altitude>169.8478473082196</altitude>
			<heading>285.7136130540037</heading>
			<tilt>0</tilt>
			<gx:fovy>35</gx:fovy>
			<range>118.8824499257316</range>
			<altitudeMode>absolute</altitudeMode>
		</LookAt>
		<styleUrl>#__managed_style_03F4AA09572A40C1EAB5</styleUrl>
		<Point>
			<coordinates>104.7209876794798,17.47938045287041,169.5149492580844</coordinates>
		</Point>
	</Placemark>
	<Placemark id="08AF4E4C4C29F7E8BF3D">
		<name>RT12-SG-295-0100-0+390</name>
		<LookAt>
			<longitude>104.720830481239</longitude>
			<latitude>17.47927265436781</latitude>
			<altitude>169.5122928255294</altitude>
			<heading>359.9995515639366</heading>
			<tilt>0</tilt>
			<gx:fovy>35.00000000026742</gx:fovy>
			<range>84.18311526982507</range>
			<altitudeMode>absolute</altitudeMode>
		</LookAt>
		<styleUrl>#__managed_style_03F4AA09572A40C1EAB5</styleUrl>
		<Point>
			<coordinates>104.7208320754826,17.47931752375568,169.5779541309483</coordinates>
		</Point>
	</Placemark>
	<Placemark id="0EFA66EED529F7EAFFA9">
		<name>RT13-SG-295-0100-0+450</name>
		<LookAt>
			<longitude>104.7206666558896</longitude>
			<latitude>17.47927978862326</latitude>
			<altitude>168.6898546459021</altitude>
			<heading>266.9971512958539</heading>
			<tilt>0</tilt>
			<gx:fovy>35</gx:fovy>
			<range>79.14541189938065</range>
			<altitudeMode>absolute</altitudeMode>
		</LookAt>
		<styleUrl>#__managed_style_03F4AA09572A40C1EAB5</styleUrl>
		<Point>
			<coordinates>104.7205274067033,17.47920530172727,167.9362020071515</coordinates>
		</Point>
	</Placemark>
	<Placemark id="023860994229F7F64517">
		<name>RT14-SG-295-0100-0+510</name>
		<LookAt>
			<longitude>104.7201960873483</longitude>
			<latitude>17.47903632289239</latitude>
			<altitude>165.2280657434577</altitude>
			<heading>13.90090340253382</heading>
			<tilt>0</tilt>
			<gx:fovy>35</gx:fovy>
			<range>74.17267533994165</range>
			<altitudeMode>absolute</altitudeMode>
		</LookAt>
		<styleUrl>#__managed_style_03F4AA09572A40C1EAB5</styleUrl>
		<Point>
			<coordinates>104.7201984289456,17.47907313120538,165.5896710583043</coordinates>
		</Point>
	</Placemark>
	<Placemark id="0021FD0CD329F7F9A54E">
		<name>RT15-SG-295-0100-0+540</name>
		<LookAt>
			<longitude>104.7199566620857</longitude>
			<latitude>17.47878918198331</latitude>
			<altitude>162.6615711461037</altitude>
			<heading>0</heading>
			<tilt>0</tilt>
			<gx:fovy>35</gx:fovy>
			<range>145.9809110587958</range>
			<altitudeMode>absolute</altitudeMode>
		</LookAt>
		<styleUrl>#__managed_style_03F4AA09572A40C1EAB5</styleUrl>
		<Point>
			<coordinates>104.7198998488482,17.47895481120851,163.4855801810459</coordinates>
		</Point>
	</Placemark>
	<Placemark id="0740B0EC8629F7FDFA03">
		<name>RT16-SG-295-0100-0+580</name>
		<LookAt>
			<longitude>104.7199566620857</longitude>
			<latitude>17.47878918198331</latitude>
			<altitude>162.6615711461037</altitude>
			<heading>0</heading>
			<tilt>0</tilt>
			<gx:fovy>35</gx:fovy>
			<range>145.9809110587958</range>
			<altitudeMode>absolute</altitudeMode>
		</LookAt>
		<styleUrl>#__managed_style_03F4AA09572A40C1EAB5</styleUrl>
		<Point>
			<coordinates>104.7196093096875,17.47884586542247,162.6890883637571</coordinates>
		</Point>
	</Placemark>
	<Placemark id="07B635B91929F80223E3">
		<name>RT17-SG-295-0100-0+610</name>
		<LookAt>
			<longitude>104.7191640629059</longitude>
			<latitude>17.47871450913745</latitude>
			<altitude>159.7561270117579</altitude>
			<heading>171.7015858567425</heading>
			<tilt>1.21602564386964</tilt>
			<gx:fovy>35</gx:fovy>
			<range>106.9317320318442</range>
			<altitudeMode>absolute</altitudeMode>
		</LookAt>
		<styleUrl>#__managed_style_03F4AA09572A40C1EAB5</styleUrl>
		<Point>
			<coordinates>104.7192522833841,17.47871034449221,160.3469176641497</coordinates>
		</Point>
	</Placemark>
	<Placemark id="075494473529F8054C0D">
		<name>RT18-SG-295-0100-0+640</name>
		<LookAt>
			<longitude>104.7187752243695</longitude>
			<latitude>17.47860433468469</latitude>
			<altitude>156.6903834285983</altitude>
			<heading>359.9999948009681</heading>
			<tilt>0</tilt>
			<gx:fovy>35</gx:fovy>
			<range>143.229301229203</range>
			<altitudeMode>absolute</altitudeMode>
		</LookAt>
		<styleUrl>#__managed_style_03F4AA09572A40C1EAB5</styleUrl>
		<Point>
			<coordinates>104.7189628171665,17.47861754147463,158.4119356923027</coordinates>
		</Point>
	</Placemark>
	<Placemark id="0F69A3B07029F80A0B41">
		<name>RT19-SG-295-0100-0+670</name>
		<LookAt>
			<longitude>104.7187765028504</longitude>
			<latitude>17.47856146636561</latitude>
			<altitude>156.7169244790144</altitude>
			<heading>321.6077747205447</heading>
			<tilt>0</tilt>
			<gx:fovy>35</gx:fovy>
			<range>76.03333825014488</range>
			<altitudeMode>absolute</altitudeMode>
		</LookAt>
		<styleUrl>#__managed_style_03F4AA09572A40C1EAB5</styleUrl>
		<Point>
			<coordinates>104.7187669491282,17.47855453785662,156.7987521749735</coordinates>
		</Point>
	</Placemark>
	<Placemark id="0E1958985E29F80B8F7D">
		<name>RT20-SG-295-0100-0+700</name>
		<LookAt>
			<longitude>104.7185482201186</longitude>
			<latitude>17.47843111600513</latitude>
			<altitude>154.4420376314076</altitude>
			<heading>278.3642659915682</heading>
			<tilt>0</tilt>
			<gx:fovy>35</gx:fovy>
			<range>99.42650087275982</range>
			<altitudeMode>absolute</altitudeMode>
		</LookAt>
		<styleUrl>#__managed_style_03F4AA09572A40C1EAB5</styleUrl>
		<Point>
			<coordinates>104.7184951379929,17.47846041455137,154.1687345807994</coordinates>
		</Point>
	</Placemark>
	<Placemark id="03781620EA29F80CDCB7">
		<name>RT21-SG-295-0100-0+730</name>
		<LookAt>
			<longitude>104.7183229441007</longitude>
			<latitude>17.47838290483557</latitude>
			<altitude>153.0031796914719</altitude>
			<heading>339.8113521185543</heading>
			<tilt>0</tilt>
			<gx:fovy>35</gx:fovy>
			<range>89.41106617021433</range>
			<altitudeMode>absolute</altitudeMode>
		</LookAt>
		<styleUrl>#__managed_style_03F4AA09572A40C1EAB5</styleUrl>
		<Point>
			<coordinates>104.7182219691892,17.47836276013187,152.6538959478261</coordinates>
		</Point>
	</Placemark>
	<Placemark id="008E260B7829F80DFD38">
		<name>RT22-SG-295-0100-0+760</name>
		<LookAt>
			<longitude>104.7178878693098</longitude>
			<latitude>17.47827073008001</latitude>
			<altitude>152.1443991407325</altitude>
			<heading>133.8145784633689</heading>
			<tilt>60.00000000019061</tilt>
			<gx:fovy>35</gx:fovy>
			<range>163.6833008882058</range>
			<altitudeMode>absolute</altitudeMode>
		</LookAt>
		<styleUrl>#__managed_style_03F4AA09572A40C1EAB5</styleUrl>
		<Point>
			<coordinates>104.7178973419348,17.47826041682339,152.3293424256744</coordinates>
		</Point>
	</Placemark>
	<Placemark id="05F88D1C0529F811BC67">
		<name>RT23-SG-295-0100-0+790</name>
		<LookAt>
			<longitude>104.7176764007432</longitude>
			<latitude>17.47818404625173</latitude>
			<altitude>152.5415248425602</altitude>
			<heading>278.3645626191172</heading>
			<tilt>0</tilt>
			<gx:fovy>35</gx:fovy>
			<range>171.6141423043337</range>
			<altitudeMode>absolute</altitudeMode>
		</LookAt>
		<styleUrl>#__managed_style_03F4AA09572A40C1EAB5</styleUrl>
		<Point>
			<coordinates>104.7175944699526,17.47818823416755,152.6970737394822</coordinates>
		</Point>
	</Placemark>
	<Placemark id="09831C4DF829F81B2865">
		<name>RT24-SG-295-0100-0+980</name>
		<LookAt>
			<longitude>104.7163222504284</longitude>
			<latitude>17.47749369163886</latitude>
			<altitude>154.1143379443395</altitude>
			<heading>341.6041857683171</heading>
			<tilt>0</tilt>
			<gx:fovy>35</gx:fovy>
			<range>193.4814656170965</range>
			<altitudeMode>absolute</altitudeMode>
		</LookAt>
		<styleUrl>#__managed_style_03F4AA09572A40C1EAB5</styleUrl>
		<Point>
			<coordinates>104.716250728264,17.4776915132472,156.067967567657</coordinates>
		</Point>
	</Placemark>
	<Placemark id="048E71706E29F81FF74A">
		<name>RT25-SG-295-0100-1+010</name>
		<LookAt>
			<longitude>104.7158537674776</longitude>
			<latitude>17.47740505872124</latitude>
			<altitude>154.2937063980473</altitude>
			<heading>354.9468692509554</heading>
			<tilt>0</tilt>
			<gx:fovy>35</gx:fovy>
			<range>200.3446425075163</range>
			<altitudeMode>absolute</altitudeMode>
		</LookAt>
		<styleUrl>#__managed_style_03F4AA09572A40C1EAB5</styleUrl>
		<Point>
			<coordinates>104.7159168854218,17.47755414864228,155.5365321571965</coordinates>
		</Point>
	</Placemark>
	<Placemark id="03CB071D5729F8399FC9">
		<name>RT26-SG-295-0100-1+040</name>
		<LookAt>
			<longitude>104.7156594473013</longitude>
			<latitude>17.47739724457384</latitude>
			<altitude>154.2713290766037</altitude>
			<heading>358.0465319547077</heading>
			<tilt>0</tilt>
			<gx:fovy>35</gx:fovy>
			<range>185.2360346448586</range>
			<altitudeMode>absolute</altitudeMode>
		</LookAt>
		<styleUrl>#__managed_style_03F4AA09572A40C1EAB5</styleUrl>
		<Point>
			<coordinates>104.7156780027119,17.47746511670486,154.8985640295894</coordinates>
		</Point>
	</Placemark>
	<Placemark id="0A9299E94D29F840C07B">
		<name>RT27-SG-295-0100-1+070</name>
		<LookAt>
			<longitude>104.7155121935674</longitude>
			<latitude>17.47738159470269</latitude>
			<altitude>154.2743876016124</altitude>
			<heading>324.4165595325478</heading>
			<tilt>0</tilt>
			<gx:fovy>35</gx:fovy>
			<range>149.9032909648486</range>
			<altitudeMode>absolute</altitudeMode>
		</LookAt>
		<styleUrl>#__managed_style_03F4AA09572A40C1EAB5</styleUrl>
		<Point>
			<coordinates>104.7155056299587,17.47741031264414,154.684401398723</coordinates>
		</Point>
	</Placemark>
	<Placemark id="04D4D4588C29F841EA9E">
		<name>RT28-SG-295-0100-1+100</name>
		<LookAt>
			<longitude>104.7155121935674</longitude>
			<latitude>17.47738159472382</latitude>
			<altitude>154.2743876016124</altitude>
			<heading>324.4165595325478</heading>
			<tilt>0</tilt>
			<gx:fovy>35</gx:fovy>
			<range>149.9032909648486</range>
			<altitudeMode>absolute</altitudeMode>
		</LookAt>
		<styleUrl>#__managed_style_03F4AA09572A40C1EAB5</styleUrl>
		<Point>
			<coordinates>104.715248966369,17.47739490563536,154.637724029676</coordinates>
		</Point>
	</Placemark>
	<Placemark id="05D3117EB429F84A17A4">
		<name>RT29-SG-295-0100-1+150</name>
		<LookAt>
			<longitude>104.7144363506398</longitude>
			<latitude>17.47773705027251</latitude>
			<altitude>151.7673922784242</altitude>
			<heading>343.0600554152397</heading>
			<tilt>0</tilt>
			<gx:fovy>35</gx:fovy>
			<range>500</range>
			<altitudeMode>absolute</altitudeMode>
		</LookAt>
		<styleUrl>#__managed_style_03F4AA09572A40C1EAB5</styleUrl>
		<Point>
			<coordinates>104.7146512234765,17.47757256355073,152.4028866028943</coordinates>
		</Point>
	</Placemark>
	<Placemark id="017352E60F29F85708B0">
		<name>RT30-SG-295-0100-1+180</name>
		<LookAt>
			<longitude>104.7146479691405</longitude>
			<latitude>17.47766286965503</latitude>
			<altitude>152.7886391175637</altitude>
			<heading>359.6438204257026</heading>
			<tilt>0</tilt>
			<gx:fovy>35</gx:fovy>
			<range>147.6664440282366</range>
			<altitudeMode>absolute</altitudeMode>
		</LookAt>
		<styleUrl>#__managed_style_03F4AA09572A40C1EAB5</styleUrl>
		<Point>
			<coordinates>104.7145119539052,17.47772317499239,152.2769853036322</coordinates>
		</Point>
	</Placemark>
	<Placemark id="0077B946F829F858B3AD">
		<name>RT31-SG-295-0100-1+210</name>
		<LookAt>
			<longitude>104.7144584141577</longitude>
			<latitude>17.47760656779076</latitude>
			<altitude>151.464459819804</altitude>
			<heading>114.36003411232</heading>
			<tilt>0</tilt>
			<gx:fovy>35</gx:fovy>
			<range>499.5439713339874</range>
			<altitudeMode>absolute</altitudeMode>
		</LookAt>
		<styleUrl>#__managed_style_03F4AA09572A40C1EAB5</styleUrl>
		<Point>
			<altitudeMode>relativeToGround</altitudeMode>
			<coordinates>104.7143874970809,17.47790967607617,0</coordinates>
		</Point>
	</Placemark>
	<Placemark id="019F419CA329F85E4A42">
		<name>RT32-SG-295-0100-1+240</name>
		<LookAt>
			<longitude>104.7143201508384</longitude>
			<latitude>17.47807652349217</latitude>
			<altitude>149.5135532798427</altitude>
			<heading>114.3600026362296</heading>
			<tilt>0</tilt>
			<gx:fovy>35.00000008308668</gx:fovy>
			<range>79.14034759392052</range>
			<altitudeMode>absolute</altitudeMode>
		</LookAt>
		<styleUrl>#__managed_style_03F4AA09572A40C1EAB5</styleUrl>
		<Point>
			<coordinates>104.7143424788717,17.47806427442574,149.8646351563535</coordinates>
		</Point>
	</Placemark>
	<Placemark id="03838B8BDD29F85F2271">
		<name>RT33-SG-295-0100-1+270</name>
		<LookAt>
			<longitude>104.7142956477817</longitude>
			<latitude>17.47822367579196</latitude>
			<altitude>148.5229547176201</altitude>
			<heading>114.359913462507</heading>
			<tilt>0</tilt>
			<gx:fovy>35.00000033397213</gx:fovy>
			<range>184.8604880024322</range>
			<altitudeMode>absolute</altitudeMode>
		</LookAt>
		<styleUrl>#__managed_style_03F4AA09572A40C1EAB5</styleUrl>
		<Point>
			<coordinates>104.7143066228421,17.47827490716686,148.7019189204377</coordinates>
		</Point>
	</Placemark>
	<Placemark id="054A9D053329F869FDC4">
		<name>RT34-SG-295-0100-300</name>
		<LookAt>
			<longitude>104.7140671739454</longitude>
			<latitude>17.47867083219997</latitude>
			<altitude>146.3787836468798</altitude>
			<heading>8.799902700850321</heading>
			<tilt>0</tilt>
			<gx:fovy>35</gx:fovy>
			<range>229.1845757460761</range>
			<altitudeMode>absolute</altitudeMode>
		</LookAt>
		<styleUrl>#__managed_style_03F4AA09572A40C1EAB5</styleUrl>
		<Point>
			<coordinates>104.7143227160762,17.47848654403658,147.4520688837405</coordinates>
		</Point>
	</Placemark>
	<Placemark id="0D53D37F6B29FD6C1E32">
		<name>RT35-SG-295-0100-1+350</name>
		<LookAt>
			<longitude>104.714481984265</longitude>
			<latitude>17.47882020629257</latitude>
			<altitude>147.4491804103581</altitude>
			<heading>61.23993530868656</heading>
			<tilt>0</tilt>
			<gx:fovy>35.00000133256385</gx:fovy>
			<range>264.537738891122</range>
			<altitudeMode>absolute</altitudeMode>
		</LookAt>
		<styleUrl>#__managed_style_03F4AA09572A40C1EAB5</styleUrl>
		<Point>
			<coordinates>104.7144858019387,17.4787623399987,147.7068647656027</coordinates>
		</Point>
	</Placemark>
	<Placemark id="076F7EB28E29FD704FD3">
		<name>RT36-SG-295-0100-1+380</name>
		<LookAt>
			<longitude>104.7146023986365</longitude>
			<latitude>17.47902005110752</latitude>
			<altitude>149.1630927460037</altitude>
			<heading>41.21354987725661</heading>
			<tilt>0</tilt>
			<gx:fovy>35.0000020830991</gx:fovy>
			<range>256.1864094674093</range>
			<altitudeMode>absolute</altitudeMode>
		</LookAt>
		<styleUrl>#__managed_style_03F4AA09572A40C1EAB5</styleUrl>
		<Point>
			<coordinates>104.7146563266922,17.47900873913273,149.7259269744406</coordinates>
		</Point>
	</Placemark>
</Document>
</kml>
