<?xml version="1.0" encoding="UTF-8"?>
<kml xmlns="http://www.opengis.net/kml/2.2">
  <Document>
    <name>2104</name>
    <Style id="icon-1899-0288D1-normal">
      <IconStyle>
        <color>ffd18802</color>
        <scale>1</scale>
        <Icon>
          <href>https://www.gstatic.com/mapspro/images/stock/503-wht-blank_maps.png</href>
        </Icon>
        <hotSpot x="32" xunits="pixels" y="64" yunits="insetPixels"/>
      </IconStyle>
      <LabelStyle>
        <scale>0</scale>
      </LabelStyle>
    </Style>
    <Style id="icon-1899-0288D1-highlight">
      <IconStyle>
        <color>ffd18802</color>
        <scale>1</scale>
        <Icon>
          <href>https://www.gstatic.com/mapspro/images/stock/503-wht-blank_maps.png</href>
        </Icon>
        <hotSpot x="32" xunits="pixels" y="64" yunits="insetPixels"/>
      </IconStyle>
      <LabelStyle>
        <scale>1</scale>
      </LabelStyle>
    </Style>
    <StyleMap id="icon-1899-0288D1">
      <Pair>
        <key>normal</key>
        <styleUrl>#icon-1899-0288D1-normal</styleUrl>
      </Pair>
      <Pair>
        <key>highlight</key>
        <styleUrl>#icon-1899-0288D1-highlight</styleUrl>
      </Pair>
    </StyleMap>
    <Placemark>
      <name>LT1-SG-2104-0101-0+000</name>
      <description><![CDATA[Lat: 16.9376<br>Long: 104.5416]]></description>
      <styleUrl>#icon-1899-0288D1</styleUrl>
      <ExtendedData>
        <Data name="Lat">
          <value>16.9376</value>
        </Data>
        <Data name="Long">
          <value>104.5416</value>
        </Data>
      </ExtendedData>
      <Point>
        <coordinates>
          104.5416,16.9376,0
        </coordinates>
      </Point>
    </Placemark>
    <Placemark>
      <name>LT2-SG-2104-0101-0+045</name>
      <description><![CDATA[Lat:  16.9372<br>Long: 104.5416]]></description>
      <styleUrl>#icon-1899-0288D1</styleUrl>
      <ExtendedData>
        <Data name="Lat">
          <value> 16.9372</value>
        </Data>
        <Data name="Long">
          <value>104.5416</value>
        </Data>
      </ExtendedData>
      <Point>
        <coordinates>
          104.5416,16.9372,0
        </coordinates>
      </Point>
    </Placemark>
    <Placemark>
      <name>LT3-SG-2104-0101-0+090</name>
      <description><![CDATA[Lat:  16.9368<br>Long: 104.5416]]></description>
      <styleUrl>#icon-1899-0288D1</styleUrl>
      <ExtendedData>
        <Data name="Lat">
          <value> 16.9368</value>
        </Data>
        <Data name="Long">
          <value>104.5416</value>
        </Data>
      </ExtendedData>
      <Point>
        <coordinates>
          104.5416,16.9368,0
        </coordinates>
      </Point>
    </Placemark>
    <Placemark>
      <name>LT4-SG-2104-0101-0+135</name>
      <description><![CDATA[Lat:  16.9364<br>Long: 104.5416]]></description>
      <styleUrl>#icon-1899-0288D1</styleUrl>
      <ExtendedData>
        <Data name="Lat">
          <value> 16.9364</value>
        </Data>
        <Data name="Long">
          <value>104.5416</value>
        </Data>
      </ExtendedData>
      <Point>
        <coordinates>
          104.5416,16.9364,0
        </coordinates>
      </Point>
    </Placemark>
    <Placemark>
      <name>LT5-SG-2104-0101-0+180</name>
      <description><![CDATA[Lat:  16.9360<br>Long: 104.5416]]></description>
      <styleUrl>#icon-1899-0288D1</styleUrl>
      <ExtendedData>
        <Data name="Lat">
          <value> 16.9360</value>
        </Data>
        <Data name="Long">
          <value>104.5416</value>
        </Data>
      </ExtendedData>
      <Point>
        <coordinates>
          104.5416,16.936,0
        </coordinates>
      </Point>
    </Placemark>
    <Placemark>
      <name>LT6-SG-2104-0101-0+225</name>
      <description><![CDATA[Lat:  16.9356<br>Long: 104.5416]]></description>
      <styleUrl>#icon-1899-0288D1</styleUrl>
      <ExtendedData>
        <Data name="Lat">
          <value> 16.9356</value>
        </Data>
        <Data name="Long">
          <value>104.5416</value>
        </Data>
      </ExtendedData>
      <Point>
        <coordinates>
          104.5416,16.9356,0
        </coordinates>
      </Point>
    </Placemark>
    <Placemark>
      <name>LT7-SG-2104-0101-0+270</name>
      <description><![CDATA[Lat:  16.9352<br>Long: 104.5416]]></description>
      <styleUrl>#icon-1899-0288D1</styleUrl>
      <ExtendedData>
        <Data name="Lat">
          <value> 16.9352</value>
        </Data>
        <Data name="Long">
          <value>104.5416</value>
        </Data>
      </ExtendedData>
      <Point>
        <coordinates>
          104.5416,16.9352,0
        </coordinates>
      </Point>
    </Placemark>
    <Placemark>
      <name>LT8-SG-2104-0101-0+315</name>
      <description><![CDATA[Lat:  16.9348<br>Long: 104.5415]]></description>
      <styleUrl>#icon-1899-0288D1</styleUrl>
      <ExtendedData>
        <Data name="Lat">
          <value> 16.9348</value>
        </Data>
        <Data name="Long">
          <value>104.5415</value>
        </Data>
      </ExtendedData>
      <Point>
        <coordinates>
          104.5415,16.9348,0
        </coordinates>
      </Point>
    </Placemark>
    <Placemark>
      <name>LT9-SG-2104-0101-0+360</name>
      <description><![CDATA[Lat:  16.9344<br>Long: 104.5413]]></description>
      <styleUrl>#icon-1899-0288D1</styleUrl>
      <ExtendedData>
        <Data name="Lat">
          <value> 16.9344</value>
        </Data>
        <Data name="Long">
          <value>104.5413</value>
        </Data>
      </ExtendedData>
      <Point>
        <coordinates>
          104.5413,16.9344,0
        </coordinates>
      </Point>
    </Placemark>
    <Placemark>
      <name>LT10-SG-2104-0101-0+405</name>
      <description><![CDATA[Lat:  16.9341<br>Long: 104.5411]]></description>
      <styleUrl>#icon-1899-0288D1</styleUrl>
      <ExtendedData>
        <Data name="Lat">
          <value> 16.9341</value>
        </Data>
        <Data name="Long">
          <value>104.5411</value>
        </Data>
      </ExtendedData>
      <Point>
        <coordinates>
          104.5411,16.9341,0
        </coordinates>
      </Point>
    </Placemark>
    <Placemark>
      <name>LT11-SG-2104-0101-0+450</name>
      <description><![CDATA[Lat:  16.9337<br>Long: 104.5409]]></description>
      <styleUrl>#icon-1899-0288D1</styleUrl>
      <ExtendedData>
        <Data name="Lat">
          <value> 16.9337</value>
        </Data>
        <Data name="Long">
          <value>104.5409</value>
        </Data>
      </ExtendedData>
      <Point>
        <coordinates>
          104.5409,16.9337,0
        </coordinates>
      </Point>
    </Placemark>
    <Placemark>
      <name>LT12-SG-2104-0101-0+495</name>
      <description><![CDATA[Lat:  16.9333<br>Long: 104.5408]]></description>
      <styleUrl>#icon-1899-0288D1</styleUrl>
      <ExtendedData>
        <Data name="Lat">
          <value> 16.9333</value>
        </Data>
        <Data name="Long">
          <value>104.5408</value>
        </Data>
      </ExtendedData>
      <Point>
        <coordinates>
          104.5408,16.9333,0
        </coordinates>
      </Point>
    </Placemark>
    <Placemark>
      <name>LT13-SG-2104-0101-0+540</name>
      <description><![CDATA[Lat:  16.9329<br>Long: 104.5407]]></description>
      <styleUrl>#icon-1899-0288D1</styleUrl>
      <ExtendedData>
        <Data name="Lat">
          <value> 16.9329</value>
        </Data>
        <Data name="Long">
          <value>104.5407</value>
        </Data>
      </ExtendedData>
      <Point>
        <coordinates>
          104.5407,16.9329,0
        </coordinates>
      </Point>
    </Placemark>
    <Placemark>
      <name>RT1-SG-2104-0101-4+170</name>
      <description><![CDATA[Lat:  16.9011<br>Long: 104.5385]]></description>
      <styleUrl>#icon-1899-0288D1</styleUrl>
      <ExtendedData>
        <Data name="Lat">
          <value> 16.9011</value>
        </Data>
        <Data name="Long">
          <value>104.5385</value>
        </Data>
      </ExtendedData>
      <Point>
        <coordinates>
          104.5385,16.9011,0
        </coordinates>
      </Point>
    </Placemark>
    <Placemark>
      <name>RT2-SG-2104-0101-4+215</name>
      <description><![CDATA[Lat:  16.9008<br>Long: 104.5386]]></description>
      <styleUrl>#icon-1899-0288D1</styleUrl>
      <ExtendedData>
        <Data name="Lat">
          <value> 16.9008</value>
        </Data>
        <Data name="Long">
          <value>104.5386</value>
        </Data>
      </ExtendedData>
      <Point>
        <coordinates>
          104.5386,16.9008,0
        </coordinates>
      </Point>
    </Placemark>
    <Placemark>
      <name>RT3-SG-2104-0101-4+260</name>
      <description><![CDATA[Lat:  16.9004<br>Long: 104.5386]]></description>
      <styleUrl>#icon-1899-0288D1</styleUrl>
      <ExtendedData>
        <Data name="Lat">
          <value> 16.9004</value>
        </Data>
        <Data name="Long">
          <value>104.5386</value>
        </Data>
      </ExtendedData>
      <Point>
        <coordinates>
          104.5386,16.9004,0
        </coordinates>
      </Point>
    </Placemark>
    <Placemark>
      <name>RT4-SG-2104-0101-4+305</name>
      <description><![CDATA[Lat: 16.9001<br>Long: 104.5386]]></description>
      <styleUrl>#icon-1899-0288D1</styleUrl>
      <ExtendedData>
        <Data name="Lat">
          <value>16.9001</value>
        </Data>
        <Data name="Long">
          <value>104.5386</value>
        </Data>
      </ExtendedData>
      <Point>
        <coordinates>
          104.5386,16.9001,0
        </coordinates>
      </Point>
    </Placemark>
    <Placemark>
      <name>RT5-SG-2104-0101-4+350</name>
      <description><![CDATA[Lat: 16.8998<br>Long: 104.5389]]></description>
      <styleUrl>#icon-1899-0288D1</styleUrl>
      <ExtendedData>
        <Data name="Lat">
          <value>16.8998</value>
        </Data>
        <Data name="Long">
          <value>104.5389</value>
        </Data>
      </ExtendedData>
      <Point>
        <coordinates>
          104.5389,16.8998,0
        </coordinates>
      </Point>
    </Placemark>
    <Placemark>
      <name>RT6-SG-2104-0101-4+395</name>
      <description><![CDATA[Lat:  16.8997<br>Long: 104.5392]]></description>
      <styleUrl>#icon-1899-0288D1</styleUrl>
      <ExtendedData>
        <Data name="Lat">
          <value> 16.8997</value>
        </Data>
        <Data name="Long">
          <value>104.5392</value>
        </Data>
      </ExtendedData>
      <Point>
        <coordinates>
          104.5392,16.8997,0
        </coordinates>
      </Point>
    </Placemark>
    <Placemark>
      <name>RT7-SG-2104-0101-4+440</name>
      <description><![CDATA[Lat:  16.8996<br>Long: 104.5395]]></description>
      <styleUrl>#icon-1899-0288D1</styleUrl>
      <ExtendedData>
        <Data name="Lat">
          <value> 16.8996</value>
        </Data>
        <Data name="Long">
          <value>104.5395</value>
        </Data>
      </ExtendedData>
      <Point>
        <coordinates>
          104.5395,16.8996,0
        </coordinates>
      </Point>
    </Placemark>
    <Placemark>
      <name>RT8-SG-2104-0101-4+485</name>
      <description><![CDATA[Lat:  16.8996<br>Long: 104.5398]]></description>
      <styleUrl>#icon-1899-0288D1</styleUrl>
      <ExtendedData>
        <Data name="Lat">
          <value> 16.8996</value>
        </Data>
        <Data name="Long">
          <value>104.5398</value>
        </Data>
      </ExtendedData>
      <Point>
        <coordinates>
          104.5398,16.8996,0
        </coordinates>
      </Point>
    </Placemark>
    <Placemark>
      <name>RT9-SG-2104-0101-4+530</name>
      <description><![CDATA[Lat:  16.8996<br>Long: 104.5402]]></description>
      <styleUrl>#icon-1899-0288D1</styleUrl>
      <ExtendedData>
        <Data name="Lat">
          <value> 16.8996</value>
        </Data>
        <Data name="Long">
          <value>104.5402</value>
        </Data>
      </ExtendedData>
      <Point>
        <coordinates>
          104.5402,16.8996,0
        </coordinates>
      </Point>
    </Placemark>
    <Placemark>
      <name>RT10-SG-2104-0101-4+575</name>
      <description><![CDATA[Lat:  16.8996<br>Long: 104.5407]]></description>
      <styleUrl>#icon-1899-0288D1</styleUrl>
      <ExtendedData>
        <Data name="Lat">
          <value> 16.8996</value>
        </Data>
        <Data name="Long">
          <value>104.5407</value>
        </Data>
      </ExtendedData>
      <Point>
        <coordinates>
          104.5407,16.8996,0
        </coordinates>
      </Point>
    </Placemark>
    <Placemark>
      <name>LT14-SG-2104-0101-4+620</name>
      <description><![CDATA[Lat:  16.8997<br>Long: 104.5411]]></description>
      <styleUrl>#icon-1899-0288D1</styleUrl>
      <ExtendedData>
        <Data name="Lat">
          <value> 16.8997</value>
        </Data>
        <Data name="Long">
          <value>104.5411</value>
        </Data>
      </ExtendedData>
      <Point>
        <coordinates>
          104.5411,16.8997,0
        </coordinates>
      </Point>
    </Placemark>
    <Placemark>
      <name>LT15-SG-2104-0101-4+665</name>
      <description><![CDATA[Lat:  16.8997<br>Long: 104.5415]]></description>
      <styleUrl>#icon-1899-0288D1</styleUrl>
      <ExtendedData>
        <Data name="Lat">
          <value> 16.8997</value>
        </Data>
        <Data name="Long">
          <value>104.5415</value>
        </Data>
      </ExtendedData>
      <Point>
        <coordinates>
          104.5415,16.8997,0
        </coordinates>
      </Point>
    </Placemark>
    <Placemark>
      <name>LT16-SG-2104-0101-4+710</name>
      <description><![CDATA[Lat:  16.8997<br>Long: 104.5418]]></description>
      <styleUrl>#icon-1899-0288D1</styleUrl>
      <ExtendedData>
        <Data name="Lat">
          <value> 16.8997</value>
        </Data>
        <Data name="Long">
          <value>104.5418</value>
        </Data>
      </ExtendedData>
      <Point>
        <coordinates>
          104.5418,16.8997,0
        </coordinates>
      </Point>
    </Placemark>
    <Placemark>
      <name>LT17-SG-2104-0101-4+755</name>
      <description><![CDATA[Lat:  16.8996<br>Long: 104.5421]]></description>
      <styleUrl>#icon-1899-0288D1</styleUrl>
      <ExtendedData>
        <Data name="Lat">
          <value> 16.8996</value>
        </Data>
        <Data name="Long">
          <value>104.5421</value>
        </Data>
      </ExtendedData>
      <Point>
        <coordinates>
          104.5421,16.8996,0
        </coordinates>
      </Point>
    </Placemark>
    <Placemark>
      <name>LT18-SG-2104-0101-4+800</name>
      <description><![CDATA[Lat:  16.8996<br>Long: 104.5425]]></description>
      <styleUrl>#icon-1899-0288D1</styleUrl>
      <ExtendedData>
        <Data name="Lat">
          <value> 16.8996</value>
        </Data>
        <Data name="Long">
          <value>104.5425</value>
        </Data>
      </ExtendedData>
      <Point>
        <coordinates>
          104.5425,16.8996,0
        </coordinates>
      </Point>
    </Placemark>
    <Placemark>
      <name>RT11-SG-2104-0101-4+845</name>
      <description><![CDATA[Lat:  16.8989<br>Long: 104.5425]]></description>
      <styleUrl>#icon-1899-0288D1</styleUrl>
      <ExtendedData>
        <Data name="Lat">
          <value> 16.8989</value>
        </Data>
        <Data name="Long">
          <value>104.5425</value>
        </Data>
      </ExtendedData>
      <Point>
        <coordinates>
          104.5425,16.8989,0
        </coordinates>
      </Point>
    </Placemark>
    <Placemark>
      <name>RT12-SG-2104-0101-4+890</name>
      <description><![CDATA[Lat:  16.8986<br>Long: 104.5426]]></description>
      <styleUrl>#icon-1899-0288D1</styleUrl>
      <ExtendedData>
        <Data name="Lat">
          <value> 16.8986</value>
        </Data>
        <Data name="Long">
          <value>104.5426</value>
        </Data>
      </ExtendedData>
      <Point>
        <coordinates>
          104.5426,16.8986,0
        </coordinates>
      </Point>
    </Placemark>
    <Placemark>
      <name>RT13-SG-2104-0101-4+935</name>
      <description><![CDATA[Lat:  16.8983<br>Long: 104.5429]]></description>
      <styleUrl>#icon-1899-0288D1</styleUrl>
      <ExtendedData>
        <Data name="Lat">
          <value> 16.8983</value>
        </Data>
        <Data name="Long">
          <value>104.5429</value>
        </Data>
      </ExtendedData>
      <Point>
        <coordinates>
          104.5429,16.8983,0
        </coordinates>
      </Point>
    </Placemark>
    <Placemark>
      <name>RT14-SG-2104-0101-4+980</name>
      <description><![CDATA[Lat: 16.8981<br>Long: 104.5431]]></description>
      <styleUrl>#icon-1899-0288D1</styleUrl>
      <ExtendedData>
        <Data name="Lat">
          <value>16.8981</value>
        </Data>
        <Data name="Long">
          <value>104.5431</value>
        </Data>
      </ExtendedData>
      <Point>
        <coordinates>
          104.5431,16.8981,0
        </coordinates>
      </Point>
    </Placemark>
    <Placemark>
      <name>LT19-SG-2104-0101-5+025</name>
      <description><![CDATA[Lat:  16.8979<br>Long: 104.5434]]></description>
      <styleUrl>#icon-1899-0288D1</styleUrl>
      <ExtendedData>
        <Data name="Lat">
          <value> 16.8979</value>
        </Data>
        <Data name="Long">
          <value>104.5434</value>
        </Data>
      </ExtendedData>
      <Point>
        <coordinates>
          104.5434,16.8979,0
        </coordinates>
      </Point>
    </Placemark>
    <Placemark>
      <name>LT20-SG-2104-0101-5+070</name>
      <description><![CDATA[Lat:  16.8977<br>Long: 104.5437]]></description>
      <styleUrl>#icon-1899-0288D1</styleUrl>
      <ExtendedData>
        <Data name="Lat">
          <value> 16.8977</value>
        </Data>
        <Data name="Long">
          <value>104.5437</value>
        </Data>
      </ExtendedData>
      <Point>
        <coordinates>
          104.5437,16.8977,0
        </coordinates>
      </Point>
    </Placemark>
    <Placemark>
      <name>LT21-SG-2104-0101-5+115</name>
      <description><![CDATA[Lat:  16.8974<br>Long: 104.5439]]></description>
      <styleUrl>#icon-1899-0288D1</styleUrl>
      <ExtendedData>
        <Data name="Lat">
          <value> 16.8974</value>
        </Data>
        <Data name="Long">
          <value>104.5439</value>
        </Data>
      </ExtendedData>
      <Point>
        <coordinates>
          104.5439,16.8974,0
        </coordinates>
      </Point>
    </Placemark>
    <Placemark>
      <name>RT15-SG-2104-0101-5+160</name>
      <description><![CDATA[Lat: 16.8969<br>Long: 104.5442]]></description>
      <styleUrl>#icon-1899-0288D1</styleUrl>
      <ExtendedData>
        <Data name="Lat">
          <value>16.8969</value>
        </Data>
        <Data name="Long">
          <value>104.5442</value>
        </Data>
      </ExtendedData>
      <Point>
        <coordinates>
          104.5442,16.8969,0
        </coordinates>
      </Point>
    </Placemark>
    <Placemark>
      <name>RT16-SG-2104-0101-5+205</name>
      <description><![CDATA[Lat: 16.8967<br>Long: 104.5445]]></description>
      <styleUrl>#icon-1899-0288D1</styleUrl>
      <ExtendedData>
        <Data name="Lat">
          <value>16.8967</value>
        </Data>
        <Data name="Long">
          <value>104.5445</value>
        </Data>
      </ExtendedData>
      <Point>
        <coordinates>
          104.5445,16.8967,0
        </coordinates>
      </Point>
    </Placemark>
    <Placemark>
      <name>RT17-SG-2104-0101-5+250</name>
      <description><![CDATA[Lat:  16.8964<br>Long: 104.5447]]></description>
      <styleUrl>#icon-1899-0288D1</styleUrl>
      <ExtendedData>
        <Data name="Lat">
          <value> 16.8964</value>
        </Data>
        <Data name="Long">
          <value>104.5447</value>
        </Data>
      </ExtendedData>
      <Point>
        <coordinates>
          104.5447,16.8964,0
        </coordinates>
      </Point>
    </Placemark>
    <Placemark>
      <name>RT18-SG-2104-0101-5+295</name>
      <description><![CDATA[Lat:  16.8962<br>Long: 104.5449]]></description>
      <styleUrl>#icon-1899-0288D1</styleUrl>
      <ExtendedData>
        <Data name="Lat">
          <value> 16.8962</value>
        </Data>
        <Data name="Long">
          <value>104.5449</value>
        </Data>
      </ExtendedData>
      <Point>
        <coordinates>
          104.5449,16.8962,0
        </coordinates>
      </Point>
    </Placemark>
    <Placemark>
      <name>RT19-SG-2104-0101-5+340</name>
      <description><![CDATA[Lat:  16.8959<br>Long: 104.5452]]></description>
      <styleUrl>#icon-1899-0288D1</styleUrl>
      <ExtendedData>
        <Data name="Lat">
          <value> 16.8959</value>
        </Data>
        <Data name="Long">
          <value>104.5452</value>
        </Data>
      </ExtendedData>
      <Point>
        <coordinates>
          104.5452,16.8959,0
        </coordinates>
      </Point>
    </Placemark>
    <Placemark>
      <name>LT22-SG-2104-0101-5+385</name>
      <description><![CDATA[Lat:  16.8957<br>Long: 104.5456]]></description>
      <styleUrl>#icon-1899-0288D1</styleUrl>
      <ExtendedData>
        <Data name="Lat">
          <value> 16.8957</value>
        </Data>
        <Data name="Long">
          <value>104.5456</value>
        </Data>
      </ExtendedData>
      <Point>
        <coordinates>
          104.5456,16.8957,0
        </coordinates>
      </Point>
    </Placemark>
    <Placemark>
      <name>LT23-SG-2104-0101-5+430</name>
      <description><![CDATA[Lat:  16.8955<br>Long: 104.5458]]></description>
      <styleUrl>#icon-1899-0288D1</styleUrl>
      <ExtendedData>
        <Data name="Lat">
          <value> 16.8955</value>
        </Data>
        <Data name="Long">
          <value>104.5458</value>
        </Data>
      </ExtendedData>
      <Point>
        <coordinates>
          104.5458,16.8955,0
        </coordinates>
      </Point>
    </Placemark>
    <Placemark>
      <name>LT24-SG-2104-0101-5+475</name>
      <description><![CDATA[Lat:  16.8953<br>Long: 104.5461]]></description>
      <styleUrl>#icon-1899-0288D1</styleUrl>
      <ExtendedData>
        <Data name="Lat">
          <value> 16.8953</value>
        </Data>
        <Data name="Long">
          <value>104.5461</value>
        </Data>
      </ExtendedData>
      <Point>
        <coordinates>
          104.5461,16.8953,0
        </coordinates>
      </Point>
    </Placemark>
    <Placemark>
      <name>LT25-SG-2104-0101-5+520</name>
      <description><![CDATA[Lat:  16.8950<br>Long: 104.5463]]></description>
      <styleUrl>#icon-1899-0288D1</styleUrl>
      <ExtendedData>
        <Data name="Lat">
          <value> 16.8950</value>
        </Data>
        <Data name="Long">
          <value>104.5463</value>
        </Data>
      </ExtendedData>
      <Point>
        <coordinates>
          104.5463,16.895,0
        </coordinates>
      </Point>
    </Placemark>
    <Placemark>
      <name>LT26-SG-2104-0101-5+565</name>
      <description><![CDATA[Lat:  16.8946<br>Long: 104.5464]]></description>
      <styleUrl>#icon-1899-0288D1</styleUrl>
      <ExtendedData>
        <Data name="Lat">
          <value> 16.8946</value>
        </Data>
        <Data name="Long">
          <value>104.5464</value>
        </Data>
      </ExtendedData>
      <Point>
        <coordinates>
          104.5464,16.8946,0
        </coordinates>
      </Point>
    </Placemark>
    <Placemark>
      <name>LT27-SG-2104-0101-5+610</name>
      <description><![CDATA[Lat:  16.8943<br>Long: 104.5464]]></description>
      <styleUrl>#icon-1899-0288D1</styleUrl>
      <ExtendedData>
        <Data name="Lat">
          <value> 16.8943</value>
        </Data>
        <Data name="Long">
          <value>104.5464</value>
        </Data>
      </ExtendedData>
      <Point>
        <coordinates>
          104.5464,16.8943,0
        </coordinates>
      </Point>
    </Placemark>
    <Placemark>
      <name>LT28-SG-2104-0101-5+655</name>
      <description><![CDATA[Lat:  16.8940<br>Long: 104.5465]]></description>
      <styleUrl>#icon-1899-0288D1</styleUrl>
      <ExtendedData>
        <Data name="Lat">
          <value> 16.8940</value>
        </Data>
        <Data name="Long">
          <value>104.5465</value>
        </Data>
      </ExtendedData>
      <Point>
        <coordinates>
          104.5465,16.894,0
        </coordinates>
      </Point>
    </Placemark>
    <Placemark>
      <name>RT20-SG-2104-0101-8+190</name>
      <description><![CDATA[Lat:  16.8721<br>Long: 104.5400]]></description>
      <styleUrl>#icon-1899-0288D1</styleUrl>
      <ExtendedData>
        <Data name="Lat">
          <value> 16.8721</value>
        </Data>
        <Data name="Long">
          <value>104.5400</value>
        </Data>
      </ExtendedData>
      <Point>
        <coordinates>
          104.54,16.8721,0
        </coordinates>
      </Point>
    </Placemark>
    <Placemark>
      <name>RT21-SG-2104-0101-8+235</name>
      <description><![CDATA[Lat:  16.8718<br>Long: 104.5399]]></description>
      <styleUrl>#icon-1899-0288D1</styleUrl>
      <ExtendedData>
        <Data name="Lat">
          <value> 16.8718</value>
        </Data>
        <Data name="Long">
          <value>104.5399</value>
        </Data>
      </ExtendedData>
      <Point>
        <coordinates>
          104.5399,16.8718,0
        </coordinates>
      </Point>
    </Placemark>
    <Placemark>
      <name>RT22-SG-2104-0101-8+280</name>
      <description><![CDATA[Lat:  16.8713<br>Long: 104.5398]]></description>
      <styleUrl>#icon-1899-0288D1</styleUrl>
      <ExtendedData>
        <Data name="Lat">
          <value> 16.8713</value>
        </Data>
        <Data name="Long">
          <value>104.5398</value>
        </Data>
      </ExtendedData>
      <Point>
        <coordinates>
          104.5398,16.8713,0
        </coordinates>
      </Point>
    </Placemark>
    <Placemark>
      <name>RT23-SG-2104-0101-8+325</name>
      <description><![CDATA[Lat:  16.8710<br>Long: 104.5397]]></description>
      <styleUrl>#icon-1899-0288D1</styleUrl>
      <ExtendedData>
        <Data name="Lat">
          <value> 16.8710</value>
        </Data>
        <Data name="Long">
          <value>104.5397</value>
        </Data>
      </ExtendedData>
      <Point>
        <coordinates>
          104.5397,16.871,0
        </coordinates>
      </Point>
    </Placemark>
    <Placemark>
      <name>RT24-SG-2104-0101-8+370</name>
      <description><![CDATA[Lat:  16.8707<br>Long: 104.5395]]></description>
      <styleUrl>#icon-1899-0288D1</styleUrl>
      <ExtendedData>
        <Data name="Lat">
          <value> 16.8707</value>
        </Data>
        <Data name="Long">
          <value>104.5395</value>
        </Data>
      </ExtendedData>
      <Point>
        <coordinates>
          104.5395,16.8707,0
        </coordinates>
      </Point>
    </Placemark>
    <Placemark>
      <name>RT25-SG-2104-0101-8+415</name>
      <description><![CDATA[Lat:  16.8705<br>Long: 104.5391]]></description>
      <styleUrl>#icon-1899-0288D1</styleUrl>
      <ExtendedData>
        <Data name="Lat">
          <value> 16.8705</value>
        </Data>
        <Data name="Long">
          <value>104.5391</value>
        </Data>
      </ExtendedData>
      <Point>
        <coordinates>
          104.5391,16.8705,0
        </coordinates>
      </Point>
    </Placemark>
    <Placemark>
      <name>RT26-SG-2104-0101-8+460</name>
      <description><![CDATA[Lat:  16.8703<br>Long: 104.5386]]></description>
      <styleUrl>#icon-1899-0288D1</styleUrl>
      <ExtendedData>
        <Data name="Lat">
          <value> 16.8703</value>
        </Data>
        <Data name="Long">
          <value>104.5386</value>
        </Data>
      </ExtendedData>
      <Point>
        <coordinates>
          104.5386,16.8703,0
        </coordinates>
      </Point>
    </Placemark>
    <Placemark>
      <name>RT27-SG-2104-0101-8+505</name>
      <description><![CDATA[Lat:  16.8699<br>Long: 104.5387]]></description>
      <styleUrl>#icon-1899-0288D1</styleUrl>
      <ExtendedData>
        <Data name="Lat">
          <value> 16.8699</value>
        </Data>
        <Data name="Long">
          <value>104.5387</value>
        </Data>
      </ExtendedData>
      <Point>
        <coordinates>
          104.5387,16.8699,0
        </coordinates>
      </Point>
    </Placemark>
    <Placemark>
      <name>LT29-SG-2104-0101-8+505</name>
      <description><![CDATA[Lat:  16.8699<br>Long: 104.5388]]></description>
      <styleUrl>#icon-1899-0288D1</styleUrl>
      <ExtendedData>
        <Data name="Lat">
          <value> 16.8699</value>
        </Data>
        <Data name="Long">
          <value>104.5388</value>
        </Data>
      </ExtendedData>
      <Point>
        <coordinates>
          104.5388,16.8699,0
        </coordinates>
      </Point>
    </Placemark>
    <Placemark>
      <name>LT30-SG-2104-0101-8+550</name>
      <description><![CDATA[Lat:  16.8695<br>Long: 104.5390]]></description>
      <styleUrl>#icon-1899-0288D1</styleUrl>
      <ExtendedData>
        <Data name="Lat">
          <value> 16.8695</value>
        </Data>
        <Data name="Long">
          <value>104.5390</value>
        </Data>
      </ExtendedData>
      <Point>
        <coordinates>
          104.539,16.8695,0
        </coordinates>
      </Point>
    </Placemark>
    <Placemark>
      <name>LT31-SG-2104-0101-8+595</name>
      <description><![CDATA[Lat: 16.8691<br>Long: 104.5390]]></description>
      <styleUrl>#icon-1899-0288D1</styleUrl>
      <ExtendedData>
        <Data name="Lat">
          <value>16.8691</value>
        </Data>
        <Data name="Long">
          <value>104.5390</value>
        </Data>
      </ExtendedData>
      <Point>
        <coordinates>
          104.539,16.8691,0
        </coordinates>
      </Point>
    </Placemark>
    <Placemark>
      <name>LT32-SG-2104-0101-8+640</name>
      <description><![CDATA[Lat:  16.8687<br>Long: 104.5388]]></description>
      <styleUrl>#icon-1899-0288D1</styleUrl>
      <ExtendedData>
        <Data name="Lat">
          <value> 16.8687</value>
        </Data>
        <Data name="Long">
          <value>104.5388</value>
        </Data>
      </ExtendedData>
      <Point>
        <coordinates>
          104.5388,16.8687,0
        </coordinates>
      </Point>
    </Placemark>
    <Placemark>
      <name>LT33-SG-2104-0101-8+685</name>
      <description><![CDATA[Lat:  16.8682<br>Long: 104.5387]]></description>
      <styleUrl>#icon-1899-0288D1</styleUrl>
      <ExtendedData>
        <Data name="Lat">
          <value> 16.8682</value>
        </Data>
        <Data name="Long">
          <value>104.5387</value>
        </Data>
      </ExtendedData>
      <Point>
        <coordinates>
          104.5387,16.8682,0
        </coordinates>
      </Point>
    </Placemark>
    <Placemark>
      <name>LT34-SG-2104-0101-8+730</name>
      <description><![CDATA[Lat: 16.8679<br>Long: 104.5386]]></description>
      <styleUrl>#icon-1899-0288D1</styleUrl>
      <ExtendedData>
        <Data name="Lat">
          <value>16.8679</value>
        </Data>
        <Data name="Long">
          <value>104.5386</value>
        </Data>
      </ExtendedData>
      <Point>
        <coordinates>
          104.5386,16.8679,0
        </coordinates>
      </Point>
    </Placemark>
    <Placemark>
      <name>LT35-SG-2104-0101-8+775</name>
      <description><![CDATA[Lat:  16.8675<br>Long: 104.5386]]></description>
      <styleUrl>#icon-1899-0288D1</styleUrl>
      <ExtendedData>
        <Data name="Lat">
          <value> 16.8675</value>
        </Data>
        <Data name="Long">
          <value>104.5386</value>
        </Data>
      </ExtendedData>
      <Point>
        <coordinates>
          104.5386,16.8675,0
        </coordinates>
      </Point>
    </Placemark>
    <Placemark>
      <name>RT1-SG-2104-0102-28+500</name>
      <description><![CDATA[Lat:  16.8246<br>Long: 104.6566]]></description>
      <styleUrl>#icon-1899-0288D1</styleUrl>
      <ExtendedData>
        <Data name="Lat">
          <value> 16.8246</value>
        </Data>
        <Data name="Long">
          <value>104.6566</value>
        </Data>
      </ExtendedData>
      <Point>
        <coordinates>
          104.6566,16.8246,0
        </coordinates>
      </Point>
    </Placemark>
    <Placemark>
      <name>RT2-SG-2104-0102-28+545</name>
      <description><![CDATA[Lat:  16.8246<br>Long: 104.6571]]></description>
      <styleUrl>#icon-1899-0288D1</styleUrl>
      <ExtendedData>
        <Data name="Lat">
          <value> 16.8246</value>
        </Data>
        <Data name="Long">
          <value>104.6571</value>
        </Data>
      </ExtendedData>
      <Point>
        <coordinates>
          104.6571,16.8246,0
        </coordinates>
      </Point>
    </Placemark>
    <Placemark>
      <name>RT3-SG-2104-0102-28+590</name>
      <description><![CDATA[Lat:  16.8246<br>Long: 104.6575]]></description>
      <styleUrl>#icon-1899-0288D1</styleUrl>
      <ExtendedData>
        <Data name="Lat">
          <value> 16.8246</value>
        </Data>
        <Data name="Long">
          <value>104.6575</value>
        </Data>
      </ExtendedData>
      <Point>
        <coordinates>
          104.6575,16.8246,0
        </coordinates>
      </Point>
    </Placemark>
    <Placemark>
      <name>RT4-SG-2104-0102-28+635</name>
      <description><![CDATA[Lat:  16.8246<br>Long: 104.6579]]></description>
      <styleUrl>#icon-1899-0288D1</styleUrl>
      <ExtendedData>
        <Data name="Lat">
          <value> 16.8246</value>
        </Data>
        <Data name="Long">
          <value>104.6579</value>
        </Data>
      </ExtendedData>
      <Point>
        <coordinates>
          104.6579,16.8246,0
        </coordinates>
      </Point>
    </Placemark>
    <Placemark>
      <name>RT5-SG-2104-0102-28+680</name>
      <description><![CDATA[Lat:  16.8246<br>Long: 104.6584]]></description>
      <styleUrl>#icon-1899-0288D1</styleUrl>
      <ExtendedData>
        <Data name="Lat">
          <value> 16.8246</value>
        </Data>
        <Data name="Long">
          <value>104.6584</value>
        </Data>
      </ExtendedData>
      <Point>
        <coordinates>
          104.6584,16.8246,0
        </coordinates>
      </Point>
    </Placemark>
    <Placemark>
      <name>RT6-SG-2104-0102-28+725</name>
      <description><![CDATA[Lat: 16.8246<br>Long: 104.6588]]></description>
      <styleUrl>#icon-1899-0288D1</styleUrl>
      <ExtendedData>
        <Data name="Lat">
          <value>16.8246</value>
        </Data>
        <Data name="Long">
          <value>104.6588</value>
        </Data>
      </ExtendedData>
      <Point>
        <coordinates>
          104.6588,16.8246,0
        </coordinates>
      </Point>
    </Placemark>
    <Placemark>
      <name>RT7-SG-2104-0102-28+770</name>
      <description><![CDATA[Lat:  16.8246<br>Long: 104.6592]]></description>
      <styleUrl>#icon-1899-0288D1</styleUrl>
      <ExtendedData>
        <Data name="Lat">
          <value> 16.8246</value>
        </Data>
        <Data name="Long">
          <value>104.6592</value>
        </Data>
      </ExtendedData>
      <Point>
        <coordinates>
          104.6592,16.8246,0
        </coordinates>
      </Point>
    </Placemark>
    <Placemark>
      <name>RT8-SG-2104-0102-28+815</name>
      <description><![CDATA[Lat: 16.8248<br>Long: 104.6596]]></description>
      <styleUrl>#icon-1899-0288D1</styleUrl>
      <ExtendedData>
        <Data name="Lat">
          <value>16.8248</value>
        </Data>
        <Data name="Long">
          <value>104.6596</value>
        </Data>
      </ExtendedData>
      <Point>
        <coordinates>
          104.6596,16.8248,0
        </coordinates>
      </Point>
    </Placemark>
    <Placemark>
      <name>RT9-SG-2104-0102-28+860</name>
      <description><![CDATA[Lat:  16.8249<br>Long: 104.6600]]></description>
      <styleUrl>#icon-1899-0288D1</styleUrl>
      <ExtendedData>
        <Data name="Lat">
          <value> 16.8249</value>
        </Data>
        <Data name="Long">
          <value>104.6600</value>
        </Data>
      </ExtendedData>
      <Point>
        <coordinates>
          104.66,16.8249,0
        </coordinates>
      </Point>
    </Placemark>
    <Placemark>
      <name>RT10-SG-2104-0102-28+905</name>
      <description><![CDATA[Lat:  16.8251<br>Long: 104.6604]]></description>
      <styleUrl>#icon-1899-0288D1</styleUrl>
      <ExtendedData>
        <Data name="Lat">
          <value> 16.8251</value>
        </Data>
        <Data name="Long">
          <value>104.6604</value>
        </Data>
      </ExtendedData>
      <Point>
        <coordinates>
          104.6604,16.8251,0
        </coordinates>
      </Point>
    </Placemark>
    <Placemark>
      <name>RT11-SG-2104-0102-28+950</name>
      <description><![CDATA[Lat:  16.8252<br>Long: 104.6608]]></description>
      <styleUrl>#icon-1899-0288D1</styleUrl>
      <ExtendedData>
        <Data name="Lat">
          <value> 16.8252</value>
        </Data>
        <Data name="Long">
          <value>104.6608</value>
        </Data>
      </ExtendedData>
      <Point>
        <coordinates>
          104.6608,16.8252,0
        </coordinates>
      </Point>
    </Placemark>
    <Placemark>
      <name>LT1-SG-2104-0102-28+995</name>
      <description><![CDATA[Lat:  16.8255<br>Long: 104.6611]]></description>
      <styleUrl>#icon-1899-0288D1</styleUrl>
      <ExtendedData>
        <Data name="Lat">
          <value> 16.8255</value>
        </Data>
        <Data name="Long">
          <value>104.6611</value>
        </Data>
      </ExtendedData>
      <Point>
        <coordinates>
          104.6611,16.8255,0
        </coordinates>
      </Point>
    </Placemark>
    <Placemark>
      <name>LT2-SG-2104-0102-29+040</name>
      <description><![CDATA[Lat:  16.8256<br>Long: 104.6615]]></description>
      <styleUrl>#icon-1899-0288D1</styleUrl>
      <ExtendedData>
        <Data name="Lat">
          <value> 16.8256</value>
        </Data>
        <Data name="Long">
          <value>104.6615</value>
        </Data>
      </ExtendedData>
      <Point>
        <coordinates>
          104.6615,16.8256,0
        </coordinates>
      </Point>
    </Placemark>
    <Placemark>
      <name>LT3-SG-2104-0102-29+085</name>
      <description><![CDATA[Lat:  16.8257<br>Long: 104.6619]]></description>
      <styleUrl>#icon-1899-0288D1</styleUrl>
      <ExtendedData>
        <Data name="Lat">
          <value> 16.8257</value>
        </Data>
        <Data name="Long">
          <value>104.6619</value>
        </Data>
      </ExtendedData>
      <Point>
        <coordinates>
          104.6619,16.8257,0
        </coordinates>
      </Point>
    </Placemark>
    <Placemark>
      <name>LT4-SG-2104-0102-29+130</name>
      <description><![CDATA[Lat:  16.8258<br>Long: 104.6623]]></description>
      <styleUrl>#icon-1899-0288D1</styleUrl>
      <ExtendedData>
        <Data name="Lat">
          <value> 16.8258</value>
        </Data>
        <Data name="Long">
          <value>104.6623</value>
        </Data>
      </ExtendedData>
      <Point>
        <coordinates>
          104.6623,16.8258,0
        </coordinates>
      </Point>
    </Placemark>
    <Placemark>
      <name>LT5-SG-2104-0102-29+175</name>
      <description><![CDATA[Lat:  16.8258<br>Long: 104.6628]]></description>
      <styleUrl>#icon-1899-0288D1</styleUrl>
      <ExtendedData>
        <Data name="Lat">
          <value> 16.8258</value>
        </Data>
        <Data name="Long">
          <value>104.6628</value>
        </Data>
      </ExtendedData>
      <Point>
        <coordinates>
          104.6628,16.8258,0
        </coordinates>
      </Point>
    </Placemark>
    <Placemark>
      <name>LT6-SG-2104-0102-29+220</name>
      <description><![CDATA[Lat:  16.8258<br>Long: 104.6631]]></description>
      <styleUrl>#icon-1899-0288D1</styleUrl>
      <ExtendedData>
        <Data name="Lat">
          <value> 16.8258</value>
        </Data>
        <Data name="Long">
          <value>104.6631</value>
        </Data>
      </ExtendedData>
      <Point>
        <coordinates>
          104.6631,16.8258,0
        </coordinates>
      </Point>
    </Placemark>
    <Placemark>
      <name>LT7-SG-2104-0102-29+265</name>
      <description><![CDATA[Lat:  16.8258<br>Long: 104.6636]]></description>
      <styleUrl>#icon-1899-0288D1</styleUrl>
      <ExtendedData>
        <Data name="Lat">
          <value> 16.8258</value>
        </Data>
        <Data name="Long">
          <value>104.6636</value>
        </Data>
      </ExtendedData>
      <Point>
        <coordinates>
          104.6636,16.8258,0
        </coordinates>
      </Point>
    </Placemark>
    <Placemark>
      <name>LT8-SG-2104-0102-29+310</name>
      <description><![CDATA[Lat:  16.8258<br>Long: 104.6640]]></description>
      <styleUrl>#icon-1899-0288D1</styleUrl>
      <ExtendedData>
        <Data name="Lat">
          <value> 16.8258</value>
        </Data>
        <Data name="Long">
          <value>104.6640</value>
        </Data>
      </ExtendedData>
      <Point>
        <coordinates>
          104.664,16.8258,0
        </coordinates>
      </Point>
    </Placemark>
    <Placemark>
      <name>LT9-SG-2104-0102-29+355</name>
      <description><![CDATA[Lat:  16.8258<br>Long: 104.6644]]></description>
      <styleUrl>#icon-1899-0288D1</styleUrl>
      <ExtendedData>
        <Data name="Lat">
          <value> 16.8258</value>
        </Data>
        <Data name="Long">
          <value>104.6644</value>
        </Data>
      </ExtendedData>
      <Point>
        <coordinates>
          104.6644,16.8258,0
        </coordinates>
      </Point>
    </Placemark>
    <Placemark>
      <name>LT10-SG-2104-0102-29+400</name>
      <description><![CDATA[Lat:  16.8257<br>Long: 104.6648]]></description>
      <styleUrl>#icon-1899-0288D1</styleUrl>
      <ExtendedData>
        <Data name="Lat">
          <value> 16.8257</value>
        </Data>
        <Data name="Long">
          <value>104.6648</value>
        </Data>
      </ExtendedData>
      <Point>
        <coordinates>
          104.6648,16.8257,0
        </coordinates>
      </Point>
    </Placemark>
    <Placemark>
      <name>LT11-SG-2104-0102-29+445</name>
      <description><![CDATA[Lat:  16.8257<br>Long: 104.6653]]></description>
      <styleUrl>#icon-1899-0288D1</styleUrl>
      <ExtendedData>
        <Data name="Lat">
          <value> 16.8257</value>
        </Data>
        <Data name="Long">
          <value>104.6653</value>
        </Data>
      </ExtendedData>
      <Point>
        <coordinates>
          104.6653,16.8257,0
        </coordinates>
      </Point>
    </Placemark>
    <Placemark>
      <name>LT12-SG-2104-0102-29+490</name>
      <description><![CDATA[Lat:  16.8257<br>Long: 104.6657]]></description>
      <styleUrl>#icon-1899-0288D1</styleUrl>
      <ExtendedData>
        <Data name="Lat">
          <value> 16.8257</value>
        </Data>
        <Data name="Long">
          <value>104.6657</value>
        </Data>
      </ExtendedData>
      <Point>
        <coordinates>
          104.6657,16.8257,0
        </coordinates>
      </Point>
    </Placemark>
    <Placemark>
      <name>LT13-SG-2104-0102-29+535</name>
      <description><![CDATA[Lat:  16.8257<br>Long: 104.6661]]></description>
      <styleUrl>#icon-1899-0288D1</styleUrl>
      <ExtendedData>
        <Data name="Lat">
          <value> 16.8257</value>
        </Data>
        <Data name="Long">
          <value>104.6661</value>
        </Data>
      </ExtendedData>
      <Point>
        <coordinates>
          104.6661,16.8257,0
        </coordinates>
      </Point>
    </Placemark>
    <Placemark>
      <name>LT14-SG-2104-0102-29+580</name>
      <description><![CDATA[Lat:  16.8256<br>Long: 104.6666]]></description>
      <styleUrl>#icon-1899-0288D1</styleUrl>
      <ExtendedData>
        <Data name="Lat">
          <value> 16.8256</value>
        </Data>
        <Data name="Long">
          <value>104.6666</value>
        </Data>
      </ExtendedData>
      <Point>
        <coordinates>
          104.6666,16.8256,0
        </coordinates>
      </Point>
    </Placemark>
    <Placemark>
      <name>LT15-SG-2104-0102-29+625</name>
      <description><![CDATA[Lat:  16.8256<br>Long: 104.6670]]></description>
      <styleUrl>#icon-1899-0288D1</styleUrl>
      <ExtendedData>
        <Data name="Lat">
          <value> 16.8256</value>
        </Data>
        <Data name="Long">
          <value>104.6670</value>
        </Data>
      </ExtendedData>
      <Point>
        <coordinates>
          104.667,16.8256,0
        </coordinates>
      </Point>
    </Placemark>
    <Placemark>
      <name>LT16-SG-2104-0102-29+670</name>
      <description><![CDATA[Lat:  16.8256<br>Long: 104.6674]]></description>
      <styleUrl>#icon-1899-0288D1</styleUrl>
      <ExtendedData>
        <Data name="Lat">
          <value> 16.8256</value>
        </Data>
        <Data name="Long">
          <value>104.6674</value>
        </Data>
      </ExtendedData>
      <Point>
        <coordinates>
          104.6674,16.8256,0
        </coordinates>
      </Point>
    </Placemark>
    <Placemark>
      <name>LT17-SG-2104-0102-29+715</name>
      <description><![CDATA[Lat:  16.8256<br>Long: 104.6678]]></description>
      <styleUrl>#icon-1899-0288D1</styleUrl>
      <ExtendedData>
        <Data name="Lat">
          <value> 16.8256</value>
        </Data>
        <Data name="Long">
          <value>104.6678</value>
        </Data>
      </ExtendedData>
      <Point>
        <coordinates>
          104.6678,16.8256,0
        </coordinates>
      </Point>
    </Placemark>
    <Placemark>
      <name>LT18-SG-2104-0102-29+760</name>
      <description><![CDATA[Lat:  16.8255<br>Long: 104.6682]]></description>
      <styleUrl>#icon-1899-0288D1</styleUrl>
      <ExtendedData>
        <Data name="Lat">
          <value> 16.8255</value>
        </Data>
        <Data name="Long">
          <value>104.6682</value>
        </Data>
      </ExtendedData>
      <Point>
        <coordinates>
          104.6682,16.8255,0
        </coordinates>
      </Point>
    </Placemark>
    <Placemark>
      <name>LT19-SG-2104-0102-29+805</name>
      <description><![CDATA[Lat:  16.8255<br>Long: 104.6687]]></description>
      <styleUrl>#icon-1899-0288D1</styleUrl>
      <ExtendedData>
        <Data name="Lat">
          <value> 16.8255</value>
        </Data>
        <Data name="Long">
          <value>104.6687</value>
        </Data>
      </ExtendedData>
      <Point>
        <coordinates>
          104.6687,16.8255,0
        </coordinates>
      </Point>
    </Placemark>
    <Placemark>
      <name>LT20-SG-2104-0102-29+850</name>
      <description><![CDATA[Lat:  16.8255<br>Long: 104.6691]]></description>
      <styleUrl>#icon-1899-0288D1</styleUrl>
      <ExtendedData>
        <Data name="Lat">
          <value> 16.8255</value>
        </Data>
        <Data name="Long">
          <value>104.6691</value>
        </Data>
      </ExtendedData>
      <Point>
        <coordinates>
          104.6691,16.8255,0
        </coordinates>
      </Point>
    </Placemark>
    <Placemark>
      <name>LT21-SG-2104-0102-29+895</name>
      <description><![CDATA[Lat: 16.8254<br>Long: 104.6695]]></description>
      <styleUrl>#icon-1899-0288D1</styleUrl>
      <ExtendedData>
        <Data name="Lat">
          <value>16.8254</value>
        </Data>
        <Data name="Long">
          <value>104.6695</value>
        </Data>
      </ExtendedData>
      <Point>
        <coordinates>
          104.6695,16.8254,0
        </coordinates>
      </Point>
    </Placemark>
    <Placemark>
      <name>LT22-SG-2104-0102-29+940</name>
      <description><![CDATA[Lat:  16.8253<br>Long: 104.6699]]></description>
      <styleUrl>#icon-1899-0288D1</styleUrl>
      <ExtendedData>
        <Data name="Lat">
          <value> 16.8253</value>
        </Data>
        <Data name="Long">
          <value>104.6699</value>
        </Data>
      </ExtendedData>
      <Point>
        <coordinates>
          104.6699,16.8253,0
        </coordinates>
      </Point>
    </Placemark>
    <Placemark>
      <name>LT23-SG-2104-0102-29+985</name>
      <description><![CDATA[Lat:  16.8251<br>Long: 104.6705]]></description>
      <styleUrl>#icon-1899-0288D1</styleUrl>
      <ExtendedData>
        <Data name="Lat">
          <value> 16.8251</value>
        </Data>
        <Data name="Long">
          <value>104.6705</value>
        </Data>
      </ExtendedData>
      <Point>
        <coordinates>
          104.6705,16.8251,0
        </coordinates>
      </Point>
    </Placemark>
    <Placemark>
      <name>LT24-SG-2104-0102-30+030</name>
      <description><![CDATA[Lat:  16.8250<br>Long: 104.6708]]></description>
      <styleUrl>#icon-1899-0288D1</styleUrl>
      <ExtendedData>
        <Data name="Lat">
          <value> 16.8250</value>
        </Data>
        <Data name="Long">
          <value>104.6708</value>
        </Data>
      </ExtendedData>
      <Point>
        <coordinates>
          104.6708,16.825,0
        </coordinates>
      </Point>
    </Placemark>
    <Placemark>
      <name>LT25-SG-2104-0102-30+075</name>
      <description><![CDATA[Lat:  16.8249<br>Long: 104.6711]]></description>
      <styleUrl>#icon-1899-0288D1</styleUrl>
      <ExtendedData>
        <Data name="Lat">
          <value> 16.8249</value>
        </Data>
        <Data name="Long">
          <value>104.6711</value>
        </Data>
      </ExtendedData>
      <Point>
        <coordinates>
          104.6711,16.8249,0
        </coordinates>
      </Point>
    </Placemark>
    <Placemark>
      <name>RT12-SG-2104-0102-30+120</name>
      <description><![CDATA[Lat:  16.8249<br>Long: 104.6706]]></description>
      <styleUrl>#icon-1899-0288D1</styleUrl>
      <ExtendedData>
        <Data name="Lat">
          <value> 16.8249</value>
        </Data>
        <Data name="Long">
          <value>104.6706</value>
        </Data>
      </ExtendedData>
      <Point>
        <coordinates>
          104.6706,16.8249,0
        </coordinates>
      </Point>
    </Placemark>
    <Placemark>
      <name>RT13-SG-2104-0102-30+165</name>
      <description><![CDATA[Lat:  16.8247<br>Long: 104.6710]]></description>
      <styleUrl>#icon-1899-0288D1</styleUrl>
      <ExtendedData>
        <Data name="Lat">
          <value> 16.8247</value>
        </Data>
        <Data name="Long">
          <value>104.6710</value>
        </Data>
      </ExtendedData>
      <Point>
        <coordinates>
          104.671,16.8247,0
        </coordinates>
      </Point>
    </Placemark>
    <Placemark>
      <name>MD1-DB-2104-0102-30+210</name>
      <description><![CDATA[Lat:  16.8247<br>Long: 104.6713]]></description>
      <styleUrl>#icon-1899-0288D1</styleUrl>
      <ExtendedData>
        <Data name="Lat">
          <value> 16.8247</value>
        </Data>
        <Data name="Long">
          <value>104.6713</value>
        </Data>
      </ExtendedData>
      <Point>
        <coordinates>
          104.6713,16.8247,0
        </coordinates>
      </Point>
    </Placemark>
  </Document>
</kml>
