<?xml version="1.0" encoding="UTF-8"?>
<kml xmlns="http://www.opengis.net/kml/2.2" xmlns:gx="http://www.google.com/kml/ext/2.2" xmlns:kml="http://www.opengis.net/kml/2.2" xmlns:atom="http://www.w3.org/2005/Atom">
<Document id="19DPS5NIpNB6ifxhvl34lybGYLF4HhoWl">
	<name>ทล.2027  ตอนควบคุม 0100	 ตอน ทางเข้าท่าอุเทน</name>
	<gx:CascadingStyle kml:id="__managed_style_282515F3FB2A032DA37B">
		<Style>
			<IconStyle>
				<scale>1.2</scale>
				<Icon>
					<href>https://earth.google.com/earth/rpc/cc/icon?color=1976d2&amp;id=2000&amp;scale=4</href>
				</Icon>
				<hotSpot x="64" y="128" xunits="pixels" yunits="insetPixels"/>
			</IconStyle>
			<LabelStyle>
			</LabelStyle>
			<LineStyle>
				<color>ff2dc0fb</color>
				<width>6</width>
			</LineStyle>
			<PolyStyle>
				<color>40ffffff</color>
			</PolyStyle>
			<BalloonStyle>
			</BalloonStyle>
		</Style>
	</gx:CascadingStyle>
	<gx:CascadingStyle kml:id="__managed_style_1D0D51C3FD2A032DA37B">
		<Style>
			<IconStyle>
				<Icon>
					<href>https://earth.google.com/earth/rpc/cc/icon?color=1976d2&amp;id=2000&amp;scale=4</href>
				</Icon>
				<hotSpot x="64" y="128" xunits="pixels" yunits="insetPixels"/>
			</IconStyle>
			<LabelStyle>
			</LabelStyle>
			<LineStyle>
				<color>ff2dc0fb</color>
				<width>4</width>
			</LineStyle>
			<PolyStyle>
				<color>40ffffff</color>
			</PolyStyle>
			<BalloonStyle>
			</BalloonStyle>
		</Style>
	</gx:CascadingStyle>
	<StyleMap id="__managed_style_0F8B2866F42A032DA37B">
		<Pair>
			<key>normal</key>
			<styleUrl>#__managed_style_1D0D51C3FD2A032DA37B</styleUrl>
		</Pair>
		<Pair>
			<key>highlight</key>
			<styleUrl>#__managed_style_282515F3FB2A032DA37B</styleUrl>
		</Pair>
	</StyleMap>
	<Placemark id="045476842B29FCB0E6EC">
		<name>CL1 - DB - 0100 - 0+000</name>
		<Camera>
			<gx:ViewerOptions>
				<gx:option name="streetview"></gx:option>
				<gx:streetViewPanoId>yQMRxdixqlbYPXlafgs7Aw</gx:streetViewPanoId>
			</gx:ViewerOptions>
			<longitude>104.6081707360591</longitude>
			<latitude>17.5656764846062</latitude>
			<altitude>151.1151123046875</altitude>
			<heading>227.0928640835661</heading>
			<tilt>77.84934486064387</tilt>
			<roll>0</roll>
			<gx:fovy>26.02862664394322</gx:fovy>
			<altitudeMode>absolute</altitudeMode>
		</Camera>
		<styleUrl>#__managed_style_0F8B2866F42A032DA37B</styleUrl>
		<Point>
			<altitudeMode>relativeToGround</altitudeMode>
			<coordinates>104.6081251946405,17.5656463201181,0</coordinates>
		</Point>
	</Placemark>
	<Placemark id="04A26AB78629FCB3F8F3">
		<name>CL2 - DB - 0100 - 0+040</name>
		<Camera>
			<gx:ViewerOptions>
				<gx:option name="streetview"></gx:option>
				<gx:streetViewPanoId>2KJ_vV82j4WwOtZHmKSb4g</gx:streetViewPanoId>
			</gx:ViewerOptions>
			<longitude>104.6080175054751</longitude>
			<latitude>17.56590898055083</latitude>
			<altitude>151.0865020751953</altitude>
			<heading>230.5591889596718</heading>
			<tilt>75.98216607941254</tilt>
			<roll>0</roll>
			<gx:fovy>35.74695902998447</gx:fovy>
			<altitudeMode>absolute</altitudeMode>
		</Camera>
		<styleUrl>#__managed_style_0F8B2866F42A032DA37B</styleUrl>
		<Point>
			<altitudeMode>relativeToGround</altitudeMode>
			<coordinates>104.6079149122746,17.56596263243013,0</coordinates>
		</Point>
	</Placemark>
	<Placemark id="0EE000459B29FCB6AA34">
		<name>CL3 - DB - 0100 - 0+075</name>
		<Camera>
			<gx:ViewerOptions>
				<gx:option name="streetview"></gx:option>
				<gx:streetViewPanoId>uVgMwc9md2h3PKVNXFyjtA</gx:streetViewPanoId>
			</gx:ViewerOptions>
			<longitude>104.6078483561651</longitude>
			<latitude>17.56613271696634</latitude>
			<altitude>151.0246734619141</altitude>
			<heading>255.2667682126765</heading>
			<tilt>78.95580263467821</tilt>
			<roll>0</roll>
			<gx:fovy>32.60964918093642</gx:fovy>
			<altitudeMode>absolute</altitudeMode>
		</Camera>
		<styleUrl>#__managed_style_0F8B2866F42A032DA37B</styleUrl>
		<Point>
			<altitudeMode>relativeToGround</altitudeMode>
			<coordinates>104.607725420578,17.56620209524587,0</coordinates>
		</Point>
	</Placemark>
	<Placemark id="06547805E729FCF94408">
		<name>CL4 - DB - 0100 - 0+110</name>
		<Camera>
			<gx:ViewerOptions>
				<gx:option name="streetview"></gx:option>
				<gx:streetViewPanoId>cWIVPNisziL2fVK8ZtOTFQ</gx:streetViewPanoId>
			</gx:ViewerOptions>
			<longitude>104.6076715588755</longitude>
			<latitude>17.5663506850704</latitude>
			<altitude>150.9185028076172</altitude>
			<heading>268.5618221186012</heading>
			<tilt>78.61350252299047</tilt>
			<roll>0</roll>
			<gx:fovy>25.63666274017286</gx:fovy>
			<altitudeMode>absolute</altitudeMode>
		</Camera>
		<styleUrl>#__managed_style_0F8B2866F42A032DA37B</styleUrl>
		<Point>
			<altitudeMode>relativeToGround</altitudeMode>
			<coordinates>104.6075293560464,17.56643542640143,0</coordinates>
		</Point>
	</Placemark>
	<Placemark id="076C21DCD429FCFD89F3">
		<name>CL5 - DB - 0100 - 0+145</name>
		<Camera>
			<gx:ViewerOptions>
				<gx:option name="streetview"></gx:option>
				<gx:streetViewPanoId>Wpo_SmzAODmloB1mQwzyjg</gx:streetViewPanoId>
			</gx:ViewerOptions>
			<longitude>104.6074363334249</longitude>
			<latitude>17.56663892288022</latitude>
			<altitude>150.8856964111328</altitude>
			<heading>215.1695310693465</heading>
			<tilt>82.03053815629941</tilt>
			<roll>0</roll>
			<gx:fovy>23.08872033618685</gx:fovy>
			<altitudeMode>absolute</altitudeMode>
		</Camera>
		<styleUrl>#__managed_style_0F8B2866F42A032DA37B</styleUrl>
		<Point>
			<altitudeMode>relativeToGround</altitudeMode>
			<coordinates>104.6073335499109,17.5666569156995,0</coordinates>
		</Point>
	</Placemark>
	<Placemark id="0B75B319FF29FCFE5FB3">
		<name>CL6 - DB - 0100 - 0+180</name>
		<Camera>
			<gx:ViewerOptions>
				<gx:option name="streetview"></gx:option>
				<gx:streetViewPanoId>VV_ic_vaMyIxj6g41M8tCQ</gx:streetViewPanoId>
			</gx:ViewerOptions>
			<longitude>104.6072573133169</longitude>
			<latitude>17.566856089376</latitude>
			<altitude>150.9133605957031</altitude>
			<heading>233.3914519391883</heading>
			<tilt>79.64914333695519</tilt>
			<roll>0</roll>
			<gx:fovy>32.5986924960248</gx:fovy>
			<altitudeMode>absolute</altitudeMode>
		</Camera>
		<styleUrl>#__managed_style_0F8B2866F42A032DA37B</styleUrl>
		<Point>
			<coordinates>104.6071330448204,17.56688776035067,149.1421866583715</coordinates>
		</Point>
	</Placemark>
	<Placemark id="0E959DB5C929FD00BDF3">
		<name>CL7 - DB - 0100 - 0+220</name>
		<Camera>
			<gx:ViewerOptions>
				<gx:option name="streetview"></gx:option>
				<gx:streetViewPanoId>ZIzFTxxhicN_Vi8ojZifxg</gx:streetViewPanoId>
			</gx:ViewerOptions>
			<longitude>104.6070272465536</longitude>
			<latitude>17.56713134492574</latitude>
			<altitude>150.9516601546508</altitude>
			<heading>249.0347180808962</heading>
			<tilt>85.8996186542347</tilt>
			<roll>0</roll>
			<gx:fovy>33.31039996384686</gx:fovy>
			<altitudeMode>absolute</altitudeMode>
		</Camera>
		<styleUrl>#__managed_style_0F8B2866F42A032DA37B</styleUrl>
		<Point>
			<coordinates>104.6068904710275,17.56717675267724,150.252370127039</coordinates>
		</Point>
	</Placemark>
	<Placemark id="095A2754BD29FD023D8C">
		<name>CL8 - DB - 0100 - 0+255</name>
		<Camera>
			<gx:ViewerOptions>
				<gx:option name="streetview"></gx:option>
				<gx:streetViewPanoId>WI5M6AhWoK6y66tougs1nQ</gx:streetViewPanoId>
			</gx:ViewerOptions>
			<longitude>104.606827772638</longitude>
			<latitude>17.56735277653255</latitude>
			<altitude>151.1045684814453</altitude>
			<heading>263.2254190606285</heading>
			<tilt>87.71666910075804</tilt>
			<roll>0</roll>
			<gx:fovy>34.84288784000133</gx:fovy>
			<altitudeMode>absolute</altitudeMode>
		</Camera>
		<styleUrl>#__managed_style_0F8B2866F42A032DA37B</styleUrl>
		<Point>
			<coordinates>104.6066851132027,17.56742232746915,149.701414974473</coordinates>
		</Point>
	</Placemark>
	<Placemark id="0B78B8F64629FD03C228">
		<name>CL9 - DB - 0100 - 0+290</name>
		<Camera>
			<gx:ViewerOptions>
				<gx:option name="streetview"></gx:option>
				<gx:streetViewPanoId>ksW_IdZcR4Non-DK7uFxwg</gx:streetViewPanoId>
			</gx:ViewerOptions>
			<longitude>104.6066557788439</longitude>
			<latitude>17.56755593986703</latitude>
			<altitude>151.1784973144531</altitude>
			<heading>267.4187683049948</heading>
			<tilt>84.50786240218994</tilt>
			<roll>0</roll>
			<gx:fovy>26.31424381584002</gx:fovy>
			<altitudeMode>absolute</altitudeMode>
		</Camera>
		<styleUrl>#__managed_style_0F8B2866F42A032DA37B</styleUrl>
		<Point>
			<coordinates>104.6065182263828,17.56763068385085,149.3371111363244</coordinates>
		</Point>
	</Placemark>
	<Placemark id="008FD1FD9F29FD06E70B">
		<name>CL10 - DB - 0100 - 0+325</name>
		<Camera>
			<gx:ViewerOptions>
				<gx:option name="streetview"></gx:option>
				<gx:streetViewPanoId>ISuqsMNYA8N8dJCPPwV6tQ</gx:streetViewPanoId>
			</gx:ViewerOptions>
			<longitude>104.6064771153833</longitude>
			<latitude>17.56776400789832</latitude>
			<altitude>151.2745513916016</altitude>
			<heading>280.7322525336321</heading>
			<tilt>85.10606509323323</tilt>
			<roll>0</roll>
			<gx:fovy>34.301814118688</gx:fovy>
			<altitudeMode>absolute</altitudeMode>
		</Camera>
		<styleUrl>#__managed_style_0F8B2866F42A032DA37B</styleUrl>
		<Point>
			<coordinates>104.6063372105552,17.56785669499674,149.3028540712901</coordinates>
		</Point>
	</Placemark>
	<Placemark id="01BE8FA1F229FD0B6529">
		<name>RT1 - SG - 0100 - 0+323</name>
		<Camera>
			<gx:ViewerOptions>
				<gx:option name="streetview"></gx:option>
				<gx:streetViewPanoId>ISuqsMNYA8N8dJCPPwV6tQ</gx:streetViewPanoId>
			</gx:ViewerOptions>
			<longitude>104.6064771153833</longitude>
			<latitude>17.56776400789832</latitude>
			<altitude>151.2745513916016</altitude>
			<heading>17.52349234702757</heading>
			<tilt>87.66203365062107</tilt>
			<roll>0</roll>
			<gx:fovy>59.99999999901544</gx:fovy>
			<altitudeMode>absolute</altitudeMode>
		</Camera>
		<styleUrl>#__managed_style_0F8B2866F42A032DA37B</styleUrl>
		<Point>
			<altitudeMode>relativeToGround</altitudeMode>
			<coordinates>104.6064395087561,17.56790428758637,0</coordinates>
		</Point>
	</Placemark>
	<Placemark id="0384E8B8DA29FD0BE80F">
		<name>LT1 - SG - 0100 - 0+323</name>
		<Camera>
			<gx:ViewerOptions>
				<gx:option name="streetview"></gx:option>
				<gx:streetViewPanoId>bf4E1OKu8ubOuN2z7TI2Zw</gx:streetViewPanoId>
			</gx:ViewerOptions>
			<longitude>104.6063502991373</longitude>
			<latitude>17.56770965532561</latitude>
			<altitude>151.3531188964844</altitude>
			<heading>229.8515694728778</heading>
			<tilt>82.18055283157285</tilt>
			<roll>0</roll>
			<gx:fovy>59.99999999999942</gx:fovy>
			<altitudeMode>absolute</altitudeMode>
		</Camera>
		<styleUrl>#__managed_style_0F8B2866F42A032DA37B</styleUrl>
		<Point>
			<altitudeMode>relativeToGround</altitudeMode>
			<coordinates>104.6062633449713,17.56775897475535,0</coordinates>
		</Point>
	</Placemark>
	<Placemark id="054FE5766729FD13FF05">
		<name>RT2 - SG - 0100 - 0+358</name>
		<Camera>
			<gx:ViewerOptions>
				<gx:option name="streetview"></gx:option>
				<gx:streetViewPanoId>INmELBiG2Tgm9jZhHeqA6g</gx:streetViewPanoId>
			</gx:ViewerOptions>
			<longitude>104.6062336211701</longitude>
			<latitude>17.5680461735766</latitude>
			<altitude>151.4791412353516</altitude>
			<heading>82.25873657755145</heading>
			<tilt>77.7719697873742</tilt>
			<roll>0</roll>
			<gx:fovy>35.18155608891414</gx:fovy>
			<altitudeMode>absolute</altitudeMode>
		</Camera>
		<styleUrl>#__managed_style_0F8B2866F42A032DA37B</styleUrl>
		<Point>
			<altitudeMode>relativeToGround</altitudeMode>
			<coordinates>104.6062399708751,17.56814635070216,0</coordinates>
		</Point>
	</Placemark>
	<Placemark id="0FF54DE39F29FD1454EC">
		<name>CL11 - DB - 0100 - 0+360</name>
		<Camera>
			<gx:ViewerOptions>
				<gx:option name="streetview"></gx:option>
				<gx:streetViewPanoId>INmELBiG2Tgm9jZhHeqA6g</gx:streetViewPanoId>
			</gx:ViewerOptions>
			<longitude>104.6062336211701</longitude>
			<latitude>17.5680461735766</latitude>
			<altitude>151.4791412353516</altitude>
			<heading>230.5569419044282</heading>
			<tilt>79.79196914210193</tilt>
			<roll>0</roll>
			<gx:fovy>35.18155608891414</gx:fovy>
			<altitudeMode>absolute</altitudeMode>
		</Camera>
		<styleUrl>#__managed_style_0F8B2866F42A032DA37B</styleUrl>
		<Point>
			<altitudeMode>relativeToGround</altitudeMode>
			<coordinates>104.6061418298099,17.56809620549998,0</coordinates>
		</Point>
	</Placemark>
	<Placemark id="012CEE09BC29FD14A84F">
		<name>LT2 - SG - 0100 - 0+358</name>
		<Camera>
			<gx:ViewerOptions>
				<gx:option name="streetview"></gx:option>
				<gx:streetViewPanoId>6ioJ8SI6C_MKCzgCp1Zk8Q</gx:streetViewPanoId>
			</gx:ViewerOptions>
			<longitude>104.6061663001582</longitude>
			<latitude>17.56792217555813</latitude>
			<altitude>151.4055786132812</altitude>
			<heading>256.4222280051585</heading>
			<tilt>74.16997970534716</tilt>
			<roll>0</roll>
			<gx:fovy>45.20681420187741</gx:fovy>
			<altitudeMode>absolute</altitudeMode>
		</Camera>
		<styleUrl>#__managed_style_0F8B2866F42A032DA37B</styleUrl>
		<Point>
			<altitudeMode>relativeToGround</altitudeMode>
			<coordinates>104.6060632926291,17.56799119076018,0</coordinates>
		</Point>
	</Placemark>
	<Placemark id="0B38B7471129FD38905E">
		<name>CL12 - DB - 0100 - 0+390</name>
		<Camera>
			<gx:ViewerOptions>
				<gx:option name="streetview"></gx:option>
				<gx:streetViewPanoId>gvisrh4pPmL5dSTpVGmT9A</gx:streetViewPanoId>
			</gx:ViewerOptions>
			<longitude>104.6060489108827</longitude>
			<latitude>17.56826183063315</latitude>
			<altitude>151.5837860107422</altitude>
			<heading>244.8561798443621</heading>
			<tilt>83.1379029370859</tilt>
			<roll>0</roll>
			<gx:fovy>59.9999994242942</gx:fovy>
			<altitudeMode>absolute</altitudeMode>
		</Camera>
		<styleUrl>#__managed_style_0F8B2866F42A032DA37B</styleUrl>
		<Point>
			<altitudeMode>relativeToGround</altitudeMode>
			<coordinates>104.6059878095486,17.56827901112082,0</coordinates>
		</Point>
	</Placemark>
	<Placemark id="03180A8E6C29FD38D2D7">
		<name>RT3 - SG - 0100 - 0+390</name>
		<Camera>
			<gx:ViewerOptions>
				<gx:option name="streetview"></gx:option>
				<gx:streetViewPanoId>gvisrh4pPmL5dSTpVGmT9A</gx:streetViewPanoId>
			</gx:ViewerOptions>
			<longitude>104.6060489108827</longitude>
			<latitude>17.56826183063315</latitude>
			<altitude>151.5837860107422</altitude>
			<heading>53.23324569990958</heading>
			<tilt>78.42985297491499</tilt>
			<roll>0</roll>
			<gx:fovy>43.33681529496096</gx:fovy>
			<altitudeMode>absolute</altitudeMode>
		</Camera>
		<styleUrl>#__managed_style_0F8B2866F42A032DA37B</styleUrl>
		<Point>
			<altitudeMode>relativeToGround</altitudeMode>
			<coordinates>104.6060676976724,17.56834991781238,0</coordinates>
		</Point>
	</Placemark>
	<Placemark id="0603218FBA29FD3967B8">
		<name>LT3 - SG - 0100 - 0+390</name>
		<Camera>
			<gx:ViewerOptions>
				<gx:option name="streetview"></gx:option>
				<gx:streetViewPanoId>0OcVz3C2epI-_s6Led-7mQ</gx:streetViewPanoId>
			</gx:ViewerOptions>
			<longitude>104.605923340031</longitude>
			<latitude>17.56820403711073</latitude>
			<altitude>151.6259460449219</altitude>
			<heading>199.7264945921329</heading>
			<tilt>80.22027664320755</tilt>
			<roll>0</roll>
			<gx:fovy>38.51258249237847</gx:fovy>
			<altitudeMode>absolute</altitudeMode>
		</Camera>
		<styleUrl>#__managed_style_0F8B2866F42A032DA37B</styleUrl>
		<Point>
			<altitudeMode>relativeToGround</altitudeMode>
			<coordinates>104.6058826230039,17.56820140706177,0</coordinates>
		</Point>
	</Placemark>
	<Placemark id="074FA3109E29FD615F88">
		<name>CL13 - DB - 0100 - 0+425</name>
		<Camera>
			<gx:ViewerOptions>
				<gx:option name="streetview"></gx:option>
				<gx:streetViewPanoId>QIdlUpze7MhEpmm0njvCnA</gx:streetViewPanoId>
			</gx:ViewerOptions>
			<longitude>104.6058021269077</longitude>
			<latitude>17.56854715065898</latitude>
			<altitude>151.6394017205481</altitude>
			<heading>197.4060279931526</heading>
			<tilt>84.698813796458</tilt>
			<roll>0</roll>
			<gx:fovy>34.46309356441327</gx:fovy>
			<altitudeMode>absolute</altitudeMode>
		</Camera>
		<styleUrl>#__managed_style_0F8B2866F42A032DA37B</styleUrl>
		<Point>
			<coordinates>104.6057709473725,17.56850248706917,149.4748869114604</coordinates>
		</Point>
	</Placemark>
	<Placemark id="00012EAAB929FD6388E9">
		<name>CL14 - DB - 0100 - 0+460</name>
		<Camera>
			<gx:ViewerOptions>
				<gx:option name="streetview"></gx:option>
				<gx:streetViewPanoId>WTOD-xhsBoyXzawEQFXRQw</gx:streetViewPanoId>
			</gx:ViewerOptions>
			<longitude>104.6056795799136</longitude>
			<latitude>17.5686870608434</latitude>
			<altitude>151.7274044063382</altitude>
			<heading>257.7491643372775</heading>
			<tilt>84.95391342309397</tilt>
			<roll>0</roll>
			<gx:fovy>37.37525402574423</gx:fovy>
			<altitudeMode>absolute</altitudeMode>
		</Camera>
		<styleUrl>#__managed_style_0F8B2866F42A032DA37B</styleUrl>
		<Point>
			<altitudeMode>relativeToGround</altitudeMode>
			<coordinates>104.6056497416428,17.56865924250835,0</coordinates>
		</Point>
	</Placemark>
	<Placemark id="0335BE96D129FD655DF3">
		<name>CL15 - DB - 0100 - 0+495</name>
		<Camera>
			<gx:ViewerOptions>
				<gx:option name="streetview"></gx:option>
				<gx:streetViewPanoId>OzViXhClNKKoCyddfrmEbg</gx:streetViewPanoId>
			</gx:ViewerOptions>
			<longitude>104.6054600093888</longitude>
			<latitude>17.56894162456599</latitude>
			<altitude>151.8724517822266</altitude>
			<heading>188.8625056635133</heading>
			<tilt>84.85592662512693</tilt>
			<roll>0</roll>
			<gx:fovy>25.03780442377284</gx:fovy>
			<altitudeMode>absolute</altitudeMode>
		</Camera>
		<styleUrl>#__managed_style_0F8B2866F42A032DA37B</styleUrl>
		<Point>
			<altitudeMode>relativeToGround</altitudeMode>
			<coordinates>104.6054471189362,17.56889042063007,0</coordinates>
		</Point>
	</Placemark>
	<Placemark id="0C54B7E4CD29FD671C04">
		<name>CL16 - DB - 0100 - 0+530</name>
		<Camera>
			<gx:ViewerOptions>
				<gx:option name="streetview"></gx:option>
				<gx:streetViewPanoId>6KyQiSPyE-9UT74FPRBwpA</gx:streetViewPanoId>
			</gx:ViewerOptions>
			<longitude>104.6053296367608</longitude>
			<latitude>17.56909630388129</latitude>
			<altitude>151.96630859375</altitude>
			<heading>231.8309737825586</heading>
			<tilt>83.08708594508089</tilt>
			<roll>0</roll>
			<gx:fovy>36.36953465961436</gx:fovy>
			<altitudeMode>absolute</altitudeMode>
		</Camera>
		<styleUrl>#__managed_style_0F8B2866F42A032DA37B</styleUrl>
		<Point>
			<altitudeMode>relativeToGround</altitudeMode>
			<coordinates>104.6052795664046,17.56908806240143,0</coordinates>
		</Point>
	</Placemark>
	<Placemark id="0BC3CD18C929FD696E4B">
		<name>CL17 - DB - 0100 - 0+550</name>
		<Camera>
			<gx:ViewerOptions>
				<gx:option name="streetview"></gx:option>
				<gx:streetViewPanoId>Y4-my4KrlkwUy6KCa8JHeQ</gx:streetViewPanoId>
			</gx:ViewerOptions>
			<longitude>104.6051805887903</longitude>
			<latitude>17.56926498020616</latitude>
			<altitude>152.0828641760742</altitude>
			<heading>197.0989511293801</heading>
			<tilt>88.4603851714153</tilt>
			<roll>0</roll>
			<gx:fovy>34.02943562714233</gx:fovy>
			<altitudeMode>absolute</altitudeMode>
		</Camera>
		<styleUrl>#__managed_style_0F8B2866F42A032DA37B</styleUrl>
		<Point>
			<altitudeMode>relativeToGround</altitudeMode>
			<coordinates>104.6051639340906,17.56922929479847,0</coordinates>
		</Point>
	</Placemark>
	<Placemark id="041DA0F2E629FD6AF1C0">
		<name>CL18 - DB - 0100 - 0+580</name>
		<Camera>
			<gx:ViewerOptions>
				<gx:option name="streetview"></gx:option>
				<gx:streetViewPanoId>77v0tfT-skfmFVcMvl30lA</gx:streetViewPanoId>
			</gx:ViewerOptions>
			<longitude>104.6050021938607</longitude>
			<latitude>17.56947003516392</latitude>
			<altitude>152.2046813964844</altitude>
			<heading>227.2001175180861</heading>
			<tilt>85.98431293299984</tilt>
			<roll>0</roll>
			<gx:fovy>43.34333731716033</gx:fovy>
			<altitudeMode>absolute</altitudeMode>
		</Camera>
		<styleUrl>#__managed_style_0F8B2866F42A032DA37B</styleUrl>
		<Point>
			<altitudeMode>relativeToGround</altitudeMode>
			<coordinates>104.6049774680464,17.56944797268945,0</coordinates>
		</Point>
	</Placemark>
	<Placemark id="0F375E8C7D29FD6CE6B7">
		<name>CL19 - DB - 0100 - 0+600</name>
		<Camera>
			<gx:ViewerOptions>
				<gx:option name="streetview"></gx:option>
				<gx:streetViewPanoId>wdyl5Fwtz21l4DjOecSXlg</gx:streetViewPanoId>
			</gx:ViewerOptions>
			<longitude>104.6048827600838</longitude>
			<latitude>17.56961103393075</latitude>
			<altitude>152.2882385253906</altitude>
			<heading>269.2214390887784</heading>
			<tilt>87.50752973066263</tilt>
			<roll>0</roll>
			<gx:fovy>35.69275379570124</gx:fovy>
			<altitudeMode>absolute</altitudeMode>
		</Camera>
		<styleUrl>#__managed_style_0F8B2866F42A032DA37B</styleUrl>
		<Point>
			<altitudeMode>relativeToGround</altitudeMode>
			<coordinates>104.6048403470123,17.56959930402085,0</coordinates>
		</Point>
	</Placemark>
	<Placemark id="08A5953A3F29FD6F09AB">
		<name>CL20 - DB - 0100 - 0+630</name>
		<Camera>
			<gx:ViewerOptions>
				<gx:option name="streetview"></gx:option>
				<gx:streetViewPanoId>UqiRARNstW2D3ahV31XwKA</gx:streetViewPanoId>
			</gx:ViewerOptions>
			<longitude>104.6047006304248</longitude>
			<latitude>17.56982923010235</latitude>
			<altitude>152.3842926025391</altitude>
			<heading>256.5660441019985</heading>
			<tilt>86.21183955260037</tilt>
			<roll>0</roll>
			<gx:fovy>32.72661131568526</gx:fovy>
			<altitudeMode>absolute</altitudeMode>
		</Camera>
		<styleUrl>#__managed_style_0F8B2866F42A032DA37B</styleUrl>
		<Point>
			<altitudeMode>relativeToGround</altitudeMode>
			<coordinates>104.6046678840843,17.5698105996776,0</coordinates>
		</Point>
	</Placemark>
	<Placemark id="068472F99029FD70EB8C">
		<name>CL21 - DB - 0100 - 0+665</name>
		<Camera>
			<gx:ViewerOptions>
				<gx:option name="streetview"></gx:option>
				<gx:streetViewPanoId>f3QOZR-Ar5mbxvq8q2s3qA</gx:streetViewPanoId>
			</gx:ViewerOptions>
			<longitude>104.604507384693</longitude>
			<latitude>17.57006094471297</latitude>
			<altitude>152.5383605957031</altitude>
			<heading>237.3465744966594</heading>
			<tilt>84.1867212637728</tilt>
			<roll>0</roll>
			<gx:fovy>33.96940133321925</gx:fovy>
			<altitudeMode>absolute</altitudeMode>
		</Camera>
		<styleUrl>#__managed_style_0F8B2866F42A032DA37B</styleUrl>
		<Point>
			<altitudeMode>relativeToGround</altitudeMode>
			<coordinates>104.6044777160804,17.57003188584617,0</coordinates>
		</Point>
	</Placemark>
	<Placemark id="02379BEE3229FD7239BB">
		<name>CL22 - DB - 0100 - 0+700</name>
		<Camera>
			<gx:ViewerOptions>
				<gx:option name="streetview"></gx:option>
				<gx:streetViewPanoId>flwg-o-Cd3XQ_wjggtNl1g</gx:streetViewPanoId>
			</gx:ViewerOptions>
			<longitude>104.604335838182</longitude>
			<latitude>17.57024408176904</latitude>
			<altitude>152.6511077880859</altitude>
			<heading>260.3457885669837</heading>
			<tilt>81.99493497989623</tilt>
			<roll>0</roll>
			<gx:fovy>32.10822238397838</gx:fovy>
			<altitudeMode>absolute</altitudeMode>
		</Camera>
		<styleUrl>#__managed_style_0F8B2866F42A032DA37B</styleUrl>
		<Point>
			<altitudeMode>relativeToGround</altitudeMode>
			<coordinates>104.6042728089474,17.57027233980811,0</coordinates>
		</Point>
	</Placemark>
	<Placemark id="0C5569918E29FD748913">
		<name>CL23 - DB - 0100 - 0+735</name>
		<Camera>
			<gx:ViewerOptions>
				<gx:option name="streetview"></gx:option>
				<gx:streetViewPanoId>JOPCKVvAswxOs-EGLk4FPQ</gx:streetViewPanoId>
			</gx:ViewerOptions>
			<longitude>104.6041112005871</longitude>
			<latitude>17.57047956031728</latitude>
			<altitude>152.3970031738281</altitude>
			<heading>285.9368439382213</heading>
			<tilt>84.36760839210172</tilt>
			<roll>0</roll>
			<gx:fovy>45.0810544869292</gx:fovy>
			<altitudeMode>absolute</altitudeMode>
		</Camera>
		<styleUrl>#__managed_style_0F8B2866F42A032DA37B</styleUrl>
		<Point>
			<altitudeMode>relativeToGround</altitudeMode>
			<coordinates>104.6040555151173,17.57052551766382,0</coordinates>
		</Point>
	</Placemark>
	<Placemark id="040177EA4429FD75DE63">
		<name>CL24 - DB - 0100 - 0+770</name>
		<Camera>
			<gx:ViewerOptions>
				<gx:option name="streetview"></gx:option>
				<gx:streetViewPanoId>SwsCbCw3mxfGq6OGPVky-Q</gx:streetViewPanoId>
			</gx:ViewerOptions>
			<longitude>104.6038731349008</longitude>
			<latitude>17.57075348345308</latitude>
			<altitude>152.9713134765625</altitude>
			<heading>220.3974384027451</heading>
			<tilt>80.84446154855627</tilt>
			<roll>0</roll>
			<gx:fovy>45.17276374909171</gx:fovy>
			<altitudeMode>absolute</altitudeMode>
		</Camera>
		<styleUrl>#__managed_style_0F8B2866F42A032DA37B</styleUrl>
		<Point>
			<altitudeMode>relativeToGround</altitudeMode>
			<coordinates>104.6038485147612,17.5707601511787,0</coordinates>
		</Point>
	</Placemark>
	<Placemark id="0A92E9174929FD773EFD">
		<name>CL25 - DB - 0100 - 0+805</name>
		<Camera>
			<gx:ViewerOptions>
				<gx:option name="streetview"></gx:option>
				<gx:streetViewPanoId>9hh9cLW66esgF3G_fothnQ</gx:streetViewPanoId>
			</gx:ViewerOptions>
			<longitude>104.6036903839458</longitude>
			<latitude>17.57097190381084</latitude>
			<altitude>152.6213073730469</altitude>
			<heading>282.8068002690922</heading>
			<tilt>81.76263188277933</tilt>
			<roll>0</roll>
			<gx:fovy>44.99097914432847</gx:fovy>
			<altitudeMode>absolute</altitudeMode>
		</Camera>
		<styleUrl>#__managed_style_0F8B2866F42A032DA37B</styleUrl>
		<Point>
			<altitudeMode>relativeToGround</altitudeMode>
			<coordinates>104.6036381329523,17.57101322922038,0</coordinates>
		</Point>
	</Placemark>
	<Placemark id="07AE6B9C6A29FD78F7AD">
		<name>CL26 - DB - 0100 - 0+840</name>
		<Camera>
			<gx:ViewerOptions>
				<gx:option name="streetview"></gx:option>
				<gx:streetViewPanoId>TJuNTQsgTboForklW0gwhA</gx:streetViewPanoId>
			</gx:ViewerOptions>
			<longitude>104.6034399576916</longitude>
			<latitude>17.57125653237927</latitude>
			<altitude>152.7327498743717</altitude>
			<heading>209.7623958259082</heading>
			<tilt>86.54205170639057</tilt>
			<roll>0</roll>
			<gx:fovy>90</gx:fovy>
			<altitudeMode>absolute</altitudeMode>
		</Camera>
		<styleUrl>#__managed_style_0F8B2866F42A032DA37B</styleUrl>
		<Point>
			<altitudeMode>relativeToGround</altitudeMode>
			<coordinates>104.6034231649371,17.57126088961165,0</coordinates>
		</Point>
	</Placemark>
	<Placemark id="0F5CEE1F8429FD7BEA20">
		<name>LT4 - SG - 0100 - 0+880</name>
		<Camera>
			<gx:ViewerOptions>
				<gx:option name="streetview"></gx:option>
				<gx:streetViewPanoId>ZfGkS3if8LjHWqz3TWeglA</gx:streetViewPanoId>
			</gx:ViewerOptions>
			<longitude>104.6031292376216</longitude>
			<latitude>17.57148701571169</latitude>
			<altitude>153.3686065673828</altitude>
			<heading>216.9352063050517</heading>
			<tilt>87.69049815038208</tilt>
			<roll>0</roll>
			<gx:fovy>43.70060106715204</gx:fovy>
			<altitudeMode>absolute</altitudeMode>
		</Camera>
		<styleUrl>#__managed_style_0F8B2866F42A032DA37B</styleUrl>
		<Point>
			<altitudeMode>relativeToGround</altitudeMode>
			<coordinates>104.6030815094273,17.5714746428707,0</coordinates>
		</Point>
	</Placemark>
	<Placemark id="00B7B32C4129FD7C95AB">
		<name>RT4 - SG - 0100 - 0+880</name>
		<Camera>
			<gx:ViewerOptions>
				<gx:option name="streetview"></gx:option>
				<gx:streetViewPanoId>rNqWYqlxHXWbNTpyNoraSg</gx:streetViewPanoId>
			</gx:ViewerOptions>
			<longitude>104.6031923775956</longitude>
			<latitude>17.57153425326529</latitude>
			<altitude>153.4000854492188</altitude>
			<heading>67.6178307267471</heading>
			<tilt>89.89444876711946</tilt>
			<roll>0</roll>
			<gx:fovy>44.26171366593598</gx:fovy>
			<altitudeMode>absolute</altitudeMode>
		</Camera>
		<styleUrl>#__managed_style_0F8B2866F42A032DA37B</styleUrl>
		<Point>
			<altitudeMode>relativeToGround</altitudeMode>
			<coordinates>104.6032877234475,17.57162541999066,0</coordinates>
		</Point>
	</Placemark>
	<Placemark id="06D4A7440329FD7D66C2">
		<name>RT5 - SG - 0100 - 0+915</name>
		<Camera>
			<gx:ViewerOptions>
				<gx:option name="streetview"></gx:option>
				<gx:streetViewPanoId>wpp8vX3eG6rvO-vBec4e3g</gx:streetViewPanoId>
			</gx:ViewerOptions>
			<longitude>104.6027549337246</longitude>
			<latitude>17.57202220883694</latitude>
			<altitude>153.6668853759766</altitude>
			<heading>47.24997721851761</heading>
			<tilt>100.9026704688733</tilt>
			<roll>0</roll>
			<gx:fovy>59.99998724762541</gx:fovy>
			<altitudeMode>absolute</altitudeMode>
		</Camera>
		<styleUrl>#__managed_style_0F8B2866F42A032DA37B</styleUrl>
		<Point>
			<coordinates>104.603065070388,17.57187904622876,150.3018581762753</coordinates>
		</Point>
	</Placemark>
	<Placemark id="060865EEC829FD815552">
		<name>LT5 - SG - 0100 - 0+915</name>
		<Camera>
			<gx:ViewerOptions>
				<gx:option name="streetview"></gx:option>
				<gx:streetViewPanoId>hmllgMyjCi1T2-YHNJVSuA</gx:streetViewPanoId>
			</gx:ViewerOptions>
			<longitude>104.603005803495</longitude>
			<latitude>17.57174512140021</latitude>
			<altitude>153.5379791259766</altitude>
			<heading>20.27604926788809</heading>
			<tilt>86.61359671834536</tilt>
			<roll>0</roll>
			<gx:fovy>23.19335264396439</gx:fovy>
			<altitudeMode>absolute</altitudeMode>
		</Camera>
		<styleUrl>#__managed_style_0F8B2866F42A032DA37B</styleUrl>
		<Point>
			<altitudeMode>relativeToGround</altitudeMode>
			<coordinates>104.6028778957542,17.57171567636225,0</coordinates>
		</Point>
	</Placemark>
	<Placemark id="0603A44E3E29FD85B0DB">
		<name>LT6 - SG - 0100 - 0+950</name>
		<Camera>
			<gx:ViewerOptions>
				<gx:option name="streetview"></gx:option>
				<gx:streetViewPanoId>vAwbsFBIMadujx9D45Pz7Q</gx:streetViewPanoId>
			</gx:ViewerOptions>
			<longitude>104.6027907722378</longitude>
			<latitude>17.57191672199156</latitude>
			<altitude>153.606689453125</altitude>
			<heading>267.9386760504849</heading>
			<tilt>87.29444280223483</tilt>
			<roll>0</roll>
			<gx:fovy>33.88382991927963</gx:fovy>
			<altitudeMode>absolute</altitudeMode>
		</Camera>
		<styleUrl>#__managed_style_0F8B2866F42A032DA37B</styleUrl>
		<Point>
			<altitudeMode>relativeToGround</altitudeMode>
			<coordinates>104.6026910854121,17.57194653338689,0</coordinates>
		</Point>
	</Placemark>
	<Placemark id="03825B37B629FD88A497">
		<name>RT6 - SG - 0100 - 0+960</name>
		<Camera>
			<gx:ViewerOptions>
				<gx:option name="streetview"></gx:option>
				<gx:streetViewPanoId>wpp8vX3eG6rvO-vBec4e3g</gx:streetViewPanoId>
			</gx:ViewerOptions>
			<longitude>104.6027549337246</longitude>
			<latitude>17.57202220883694</latitude>
			<altitude>153.6668853759766</altitude>
			<heading>43.06820367538352</heading>
			<tilt>99.77767372684566</tilt>
			<roll>0</roll>
			<gx:fovy>59.99999999999829</gx:fovy>
			<altitudeMode>absolute</altitudeMode>
		</Camera>
		<styleUrl>#__managed_style_0F8B2866F42A032DA37B</styleUrl>
		<Point>
			<altitudeMode>relativeToGround</altitudeMode>
			<coordinates>104.6027893943584,17.5721564442741,0</coordinates>
		</Point>
	</Placemark>
	<Placemark id="0D6102525029FD8AEC9A">
		<name>LT7 - SG - 0100 - 0+985</name>
		<Camera>
			<gx:ViewerOptions>
				<gx:option name="streetview"></gx:option>
				<gx:streetViewPanoId>ub_j68OyHhCq1LgfSHAOlA</gx:streetViewPanoId>
			</gx:ViewerOptions>
			<longitude>104.602600196817</longitude>
			<latitude>17.5721973045661</latitude>
			<altitude>153.7523345947266</altitude>
			<heading>249.5485805273337</heading>
			<tilt>88.32776104394789</tilt>
			<roll>0</roll>
			<gx:fovy>31.32641807900276</gx:fovy>
			<altitudeMode>absolute</altitudeMode>
		</Camera>
		<styleUrl>#__managed_style_0F8B2866F42A032DA37B</styleUrl>
		<Point>
			<altitudeMode>relativeToGround</altitudeMode>
			<coordinates>104.6025263242881,17.57223086130717,0</coordinates>
		</Point>
	</Placemark>
	<Placemark id="0AFC4412D529FD8B2B92">
		<name>RT7 - SG - 0100 - 0+985</name>
		<Camera>
			<gx:ViewerOptions>
				<gx:option name="streetview"></gx:option>
				<gx:streetViewPanoId>ub_j68OyHhCq1LgfSHAOlA</gx:streetViewPanoId>
			</gx:ViewerOptions>
			<longitude>104.602600196817</longitude>
			<latitude>17.5721973045661</latitude>
			<altitude>153.7523345947266</altitude>
			<heading>10.1367176914777</heading>
			<tilt>84.30433557545825</tilt>
			<roll>0</roll>
			<gx:fovy>31.32641807900276</gx:fovy>
			<altitudeMode>absolute</altitudeMode>
		</Camera>
		<styleUrl>#__managed_style_0F8B2866F42A032DA37B</styleUrl>
		<Point>
			<altitudeMode>relativeToGround</altitudeMode>
			<coordinates>104.6026432835622,17.57232729352279,0</coordinates>
		</Point>
	</Placemark>
	<Placemark id="023A9C636529FD8F3D84">
		<name>LT8 - SG - 0100 - 1+015</name>
		<Camera>
			<gx:ViewerOptions>
				<gx:option name="streetview"></gx:option>
				<gx:streetViewPanoId>V3RfriSd0MS7UDgU52rPZA</gx:streetViewPanoId>
			</gx:ViewerOptions>
			<longitude>104.6023735164252</longitude>
			<latitude>17.57241875650825</latitude>
			<altitude>153.8995806330722</altitude>
			<heading>228.4241294446498</heading>
			<tilt>85</tilt>
			<roll>0</roll>
			<gx:fovy>60</gx:fovy>
			<altitudeMode>absolute</altitudeMode>
		</Camera>
		<styleUrl>#__managed_style_0F8B2866F42A032DA37B</styleUrl>
		<Point>
			<coordinates>104.6023502676246,17.5724304009773,151.8416137039685</coordinates>
		</Point>
	</Placemark>
	<Placemark id="0CC309DEFD29FD8FE4B3">
		<name>RT8 - SG - 0100 - 1+015</name>
		<Camera>
			<gx:ViewerOptions>
				<gx:option name="streetview"></gx:option>
				<gx:streetViewPanoId>V3RfriSd0MS7UDgU52rPZA</gx:streetViewPanoId>
			</gx:ViewerOptions>
			<longitude>104.6023735164254</longitude>
			<latitude>17.57241875650834</latitude>
			<altitude>153.8994923960817</altitude>
			<heading>25.39592314143034</heading>
			<tilt>87.04757816204076</tilt>
			<roll>0</roll>
			<gx:fovy>25.77986416259251</gx:fovy>
			<altitudeMode>absolute</altitudeMode>
		</Camera>
		<styleUrl>#__managed_style_0F8B2866F42A032DA37B</styleUrl>
		<Point>
			<coordinates>104.602465084854,17.57253600178268,151.8243623459932</coordinates>
		</Point>
	</Placemark>
	<Placemark id="0E5C8AD26829FDC1EF8F">
		<name>LT9 - SG - 0100 - 1+045</name>
		<Camera>
			<gx:ViewerOptions>
				<gx:option name="streetview"></gx:option>
				<gx:streetViewPanoId>TD5p6S34y5BJ3ijjdYGiqA</gx:streetViewPanoId>
			</gx:ViewerOptions>
			<longitude>104.6022065077074</longitude>
			<latitude>17.57266277757823</latitude>
			<altitude>153.9736175537109</altitude>
			<heading>258.3626047822252</heading>
			<tilt>83.60583952483302</tilt>
			<roll>0</roll>
			<gx:fovy>20.97291314808638</gx:fovy>
			<altitudeMode>absolute</altitudeMode>
		</Camera>
		<styleUrl>#__managed_style_0F8B2866F42A032DA37B</styleUrl>
		<Point>
			<altitudeMode>relativeToGround</altitudeMode>
			<coordinates>104.6021691412806,17.57263786309694,0</coordinates>
		</Point>
	</Placemark>
	<Placemark id="01FABD7B1429FDC23089">
		<name>RT9 - SG - 0100 - 1+045</name>
		<Camera>
			<gx:ViewerOptions>
				<gx:option name="streetview"></gx:option>
				<gx:streetViewPanoId>TD5p6S34y5BJ3ijjdYGiqA</gx:streetViewPanoId>
			</gx:ViewerOptions>
			<longitude>104.6022065077074</longitude>
			<latitude>17.57266277757823</latitude>
			<altitude>153.9736175537109</altitude>
			<heading>8.532313001062811</heading>
			<tilt>84.58384198160758</tilt>
			<roll>0</roll>
			<gx:fovy>20.97291314808638</gx:fovy>
			<altitudeMode>absolute</altitudeMode>
		</Camera>
		<styleUrl>#__managed_style_0F8B2866F42A032DA37B</styleUrl>
		<Point>
			<altitudeMode>relativeToGround</altitudeMode>
			<coordinates>104.6022802262263,17.57272201265496,0</coordinates>
		</Point>
	</Placemark>
	<Placemark id="0A671AB4BB29FDC5CD9E">
		<name>LT10 - SG - 0100 - 1+085</name>
		<Camera>
			<gx:ViewerOptions>
				<gx:option name="streetview"></gx:option>
				<gx:streetViewPanoId>TJN1yZdZ0L-c1N62RWh2_Q</gx:streetViewPanoId>
			</gx:ViewerOptions>
			<longitude>104.6019473688791</longitude>
			<latitude>17.57295026440129</latitude>
			<altitude>154.0860374360099</altitude>
			<heading>192.455832274541</heading>
			<tilt>101.3834700119372</tilt>
			<roll>0</roll>
			<gx:fovy>63.06903515622584</gx:fovy>
			<altitudeMode>absolute</altitudeMode>
		</Camera>
		<styleUrl>#__managed_style_0F8B2866F42A032DA37B</styleUrl>
		<Point>
			<coordinates>104.6019138970202,17.57292092747726,154.5214443242211</coordinates>
		</Point>
	</Placemark>
	<Placemark id="0E4427FAD029FDC5E3B0">
		<name>RT10 - SG - 0100 - 1+085</name>
		<Camera>
			<gx:ViewerOptions>
				<gx:option name="streetview"></gx:option>
				<gx:streetViewPanoId>TJN1yZdZ0L-c1N62RWh2_Q</gx:streetViewPanoId>
			</gx:ViewerOptions>
			<longitude>104.6019473688791</longitude>
			<latitude>17.57295026440141</latitude>
			<altitude>154.0860433311349</altitude>
			<heading>79.78057583442641</heading>
			<tilt>108.2461084000746</tilt>
			<roll>0</roll>
			<gx:fovy>79.62976067618413</gx:fovy>
			<altitudeMode>absolute</altitudeMode>
		</Camera>
		<styleUrl>#__managed_style_0F8B2866F42A032DA37B</styleUrl>
		<Point>
			<coordinates>104.602014571737,17.57302431070472,154.8715243067036</coordinates>
		</Point>
	</Placemark>
	<Placemark id="0948845DAC29FDD67618">
		<name>LT11 - SG - 0100 - 1+350 </name>
		<Camera>
			<gx:ViewerOptions>
				<gx:option name="streetview"></gx:option>
				<gx:streetViewPanoId>iU8sKbMz-X5KYy-zSwgaAw</gx:streetViewPanoId>
			</gx:ViewerOptions>
			<longitude>104.59160494348</longitude>
			<latitude>17.57642953351179</latitude>
			<altitude>152.6006011962891</altitude>
			<heading>176.2410796560999</heading>
			<tilt>91.74231274924838</tilt>
			<roll>0</roll>
			<gx:fovy>59.99999999999999</gx:fovy>
			<altitudeMode>absolute</altitudeMode>
		</Camera>
		<styleUrl>#__managed_style_0F8B2866F42A032DA37B</styleUrl>
		<Point>
			<coordinates>104.5916363487436,17.57632461507844,149.84202532303</coordinates>
		</Point>
	</Placemark>
	<Placemark id="031B3D4E6729FDD0B689">
		<name>RT11 - SG - 0100 - 2 + 430</name>
		<Camera>
			<gx:ViewerOptions>
				<gx:option name="streetview"></gx:option>
				<gx:streetViewPanoId>EtpoZot7FW3-LmMYPlP68A</gx:streetViewPanoId>
			</gx:ViewerOptions>
			<longitude>104.5910532677123</longitude>
			<latitude>17.57656910103172</latitude>
			<altitude>152.6750793457031</altitude>
			<heading>337.6479973773202</heading>
			<tilt>81.12657195549856</tilt>
			<roll>0</roll>
			<gx:fovy>59.99999999999933</gx:fovy>
			<altitudeMode>absolute</altitudeMode>
		</Camera>
		<styleUrl>#__managed_style_0F8B2866F42A032DA37B</styleUrl>
		<Point>
			<coordinates>104.5910284836509,17.57664353954738,148.4121044732619</coordinates>
		</Point>
	</Placemark>
	<Placemark id="047FA9B64529FDD08D76">
		<name>LT12 - SG - 0100 - 2+450</name>
		<Camera>
			<gx:ViewerOptions>
				<gx:option name="streetview"></gx:option>
				<gx:streetViewPanoId>6gJU17SwyTfOmH4xh0pyHA</gx:streetViewPanoId>
			</gx:ViewerOptions>
			<longitude>104.5908779127799</longitude>
			<latitude>17.57661325102738</latitude>
			<altitude>152.8737945556641</altitude>
			<heading>232.1904300036655</heading>
			<tilt>83.23683474896292</tilt>
			<roll>0</roll>
			<gx:fovy>59.99999999999999</gx:fovy>
			<altitudeMode>absolute</altitudeMode>
		</Camera>
		<styleUrl>#__managed_style_0F8B2866F42A032DA37B</styleUrl>
		<Point>
			<coordinates>104.5908101445627,17.57659900830171,148.963293383237</coordinates>
		</Point>
	</Placemark>
	<Placemark id="0E0C36B4EA29FDCEB493">
		<name>RT12 - SG - 0100 - 2 + 495</name>
		<Camera>
			<gx:ViewerOptions>
				<gx:option name="streetview"></gx:option>
				<gx:streetViewPanoId>mIerqjlUkXCp4iKTNGvKQA</gx:streetViewPanoId>
			</gx:ViewerOptions>
			<longitude>104.5903970215947</longitude>
			<latitude>17.57668038506215</latitude>
			<altitude>152.9164581298828</altitude>
			<heading>22.71357379673032</heading>
			<tilt>100.4974706131094</tilt>
			<roll>0</roll>
			<gx:fovy>59.99999999994945</gx:fovy>
			<altitudeMode>absolute</altitudeMode>
		</Camera>
		<styleUrl>#__managed_style_0F8B2866F42A032DA37B</styleUrl>
		<Point>
			<altitudeMode>relativeToGround</altitudeMode>
			<coordinates>104.5904217341302,17.57680580301441,0</coordinates>
		</Point>
	</Placemark>
</Document>
</kml>
