<?xml version="1.0" encoding="UTF-8"?>
<kml xmlns="http://www.opengis.net/kml/2.2" xmlns:gx="http://www.google.com/kml/ext/2.2" xmlns:kml="http://www.opengis.net/kml/2.2" xmlns:atom="http://www.w3.org/2005/Atom">
<Document id="19a7DXCs_NRm9X307osGZ_tNnROP-9njC">
	<name>2177</name>
	<gx:CascadingStyle kml:id="__managed_style_0FD2D89ADA2A02B379EA">
		<Style>
			<IconStyle>
				<scale>1.2</scale>
				<Icon>
					<href>https://earth.google.com/earth/rpc/cc/icon?color=1976d2&amp;id=2000&amp;scale=4</href>
				</Icon>
				<hotSpot x="64" y="128" xunits="pixels" yunits="insetPixels"/>
			</IconStyle>
			<LabelStyle>
			</LabelStyle>
			<LineStyle>
				<color>ff2dc0fb</color>
				<width>4.8</width>
			</LineStyle>
			<PolyStyle>
				<color>40ffffff</color>
			</PolyStyle>
			<BalloonStyle>
			</BalloonStyle>
		</Style>
	</gx:CascadingStyle>
	<gx:CascadingStyle kml:id="__managed_style_124D16E3A62A02B379E7">
		<Style>
			<IconStyle>
				<Icon>
					<href>https://earth.google.com/earth/rpc/cc/icon?color=1976d2&amp;id=2000&amp;scale=4</href>
				</Icon>
				<hotSpot x="64" y="128" xunits="pixels" yunits="insetPixels"/>
			</IconStyle>
			<LabelStyle>
			</LabelStyle>
			<LineStyle>
				<color>ff2dc0fb</color>
				<width>3.2</width>
			</LineStyle>
			<PolyStyle>
				<color>40ffffff</color>
			</PolyStyle>
			<BalloonStyle>
			</BalloonStyle>
		</Style>
	</gx:CascadingStyle>
	<StyleMap id="__managed_style_086F90F1552A02B379E7">
		<Pair>
			<key>normal</key>
			<styleUrl>#__managed_style_124D16E3A62A02B379E7</styleUrl>
		</Pair>
		<Pair>
			<key>highlight</key>
			<styleUrl>#__managed_style_0FD2D89ADA2A02B379EA</styleUrl>
		</Pair>
	</StyleMap>
	<Placemark id="0866F49E8F29F35C8124">
		<name>RT1-SG-2177-0100-0+020</name>
		<LookAt>
			<longitude>104.2461098194416</longitude>
			<latitude>17.62146772067108</latitude>
			<altitude>158.1224877479571</altitude>
			<heading>324.1565014466858</heading>
			<tilt>0</tilt>
			<gx:fovy>35</gx:fovy>
			<range>59.26778119245682</range>
			<altitudeMode>absolute</altitudeMode>
		</LookAt>
		<styleUrl>#__managed_style_086F90F1552A02B379E7</styleUrl>
		<Point>
			<coordinates>104.2461616320176,17.62150722225881,158.3977457454533</coordinates>
		</Point>
	</Placemark>
	<Placemark id="0FAD9345A529F35E7273">
		<name>RT2-SG-2177-0100-0+051</name>
		<Camera>
			<gx:ViewerOptions>
				<gx:option name="streetview"></gx:option>
				<gx:streetViewPanoId>UwbcQFZMYrCi93PrkdJj4A</gx:streetViewPanoId>
			</gx:ViewerOptions>
			<longitude>104.2458483494997</longitude>
			<latitude>17.62147180816472</latitude>
			<altitude>161.0644683837891</altitude>
			<heading>333.2418116550309</heading>
			<tilt>75.93818788066629</tilt>
			<roll>0</roll>
			<gx:fovy>15</gx:fovy>
			<altitudeMode>absolute</altitudeMode>
		</Camera>
		<styleUrl>#__managed_style_086F90F1552A02B379E7</styleUrl>
		<Point>
			<altitudeMode>relativeToGround</altitudeMode>
			<coordinates>104.2457995455867,17.62154460416881,0</coordinates>
		</Point>
	</Placemark>
	<Placemark id="05CAE6DED829F35905D9">
		<name>RT3-SG-2177-0100-0+112</name>
		<Camera>
			<gx:ViewerOptions>
				<gx:option name="streetview"></gx:option>
				<gx:streetViewPanoId>l9OEG1vMQ_2tb5RKu_l3SQ</gx:streetViewPanoId>
			</gx:ViewerOptions>
			<longitude>104.2452183007142</longitude>
			<latitude>17.62160828957223</latitude>
			<altitude>160.1718504205774</altitude>
			<heading>347.7439315890541</heading>
			<tilt>77.30291914710671</tilt>
			<roll>0</roll>
			<gx:fovy>90</gx:fovy>
			<altitudeMode>absolute</altitudeMode>
		</Camera>
		<styleUrl>#__managed_style_086F90F1552A02B379E7</styleUrl>
		<Point>
			<altitudeMode>relativeToGround</altitudeMode>
			<coordinates>104.2451401830988,17.62169739113962,0</coordinates>
		</Point>
	</Placemark>
	<Placemark id="0D1C7D91D229F3613AB3">
		<name>RT4-SG-2177-0100-0+240</name>
		<Camera>
			<gx:ViewerOptions>
				<gx:option name="streetview"></gx:option>
				<gx:streetViewPanoId>j0YwcHaaFXrDh46mKx9Bpg</gx:streetViewPanoId>
			</gx:ViewerOptions>
			<longitude>104.2446145139475</longitude>
			<latitude>17.62174707997907</latitude>
			<altitude>160.1217956542969</altitude>
			<heading>20.81599331955869</heading>
			<tilt>74.42325492803421</tilt>
			<roll>0</roll>
			<gx:fovy>29.01481799670369</gx:fovy>
			<altitudeMode>absolute</altitudeMode>
		</Camera>
		<styleUrl>#__managed_style_086F90F1552A02B379E7</styleUrl>
		<Point>
			<altitudeMode>relativeToGround</altitudeMode>
			<coordinates>104.2446432627256,17.62178562088346,0</coordinates>
		</Point>
	</Placemark>
	<Placemark id="0AEE7BC69629F36258D0">
		<name>RT5-SG-2177-0100-0+303</name>
		<Camera>
			<gx:ViewerOptions>
				<gx:option name="streetview"></gx:option>
				<gx:streetViewPanoId>wjSB6v71LrWOPafIFydAeg</gx:streetViewPanoId>
			</gx:ViewerOptions>
			<longitude>104.2440558848112</longitude>
			<latitude>17.62187859183903</latitude>
			<altitude>159.1044006347656</altitude>
			<heading>29.78117054869167</heading>
			<tilt>89.06478440822173</tilt>
			<roll>0</roll>
			<gx:fovy>59.99888375617786</gx:fovy>
			<altitudeMode>absolute</altitudeMode>
		</Camera>
		<styleUrl>#__managed_style_086F90F1552A02B379E7</styleUrl>
		<Point>
			<altitudeMode>relativeToGround</altitudeMode>
			<coordinates>104.2440629120837,17.62189254382924,0</coordinates>
		</Point>
	</Placemark>
	<Placemark id="0031CBF21629EE1CA6BB">
		<name>LT1-SG-2177-0100-0+075</name>
		<Camera>
			<gx:ViewerOptions>
				<gx:option name="streetview"></gx:option>
				<gx:streetViewPanoId>rgLD7ZS0_OeKFoyQ4wHdRg</gx:streetViewPanoId>
			</gx:ViewerOptions>
			<longitude>104.2455579873329</longitude>
			<latitude>17.62146793739979</latitude>
			<altitude>161.0233154296875</altitude>
			<heading>236.6001247665309</heading>
			<tilt>73.84237801499415</tilt>
			<roll>0</roll>
			<gx:fovy>15</gx:fovy>
			<altitudeMode>absolute</altitudeMode>
		</Camera>
		<styleUrl>#__managed_style_086F90F1552A02B379E7</styleUrl>
		<Point>
			<altitudeMode>relativeToGround</altitudeMode>
			<coordinates>104.2455176202325,17.62142613466898,0</coordinates>
		</Point>
	</Placemark>
	<Placemark id="07CD399B7529EE1D45BB">
		<name>LT2-SG-2177-0100-0+146</name>
		<Camera>
			<gx:ViewerOptions>
				<gx:option name="streetview"></gx:option>
				<gx:streetViewPanoId>5XLB84SaWOGKHiT9MEB7Hw</gx:streetViewPanoId>
			</gx:ViewerOptions>
			<longitude>104.2449408920513</longitude>
			<latitude>17.62167006945274</latitude>
			<altitude>160.5395355230531</altitude>
			<heading>211.9500204545424</heading>
			<tilt>77.62362536938635</tilt>
			<roll>0</roll>
			<gx:fovy>15</gx:fovy>
			<altitudeMode>absolute</altitudeMode>
		</Camera>
		<styleUrl>#__managed_style_086F90F1552A02B379E7</styleUrl>
		<Point>
			<altitudeMode>relativeToGround</altitudeMode>
			<coordinates>104.2448870636363,17.62160864713832,0</coordinates>
		</Point>
	</Placemark>
	<Placemark id="0660103E4829EE1DE35F">
		<name>LT3-SG-2177-0100-0+206</name>
		<Camera>
			<gx:ViewerOptions>
				<gx:option name="streetview"></gx:option>
				<gx:streetViewPanoId>Qz4-yaFycbY8Q208AD5LEA</gx:streetViewPanoId>
			</gx:ViewerOptions>
			<longitude>104.2443353321783</longitude>
			<latitude>17.62181225294873</latitude>
			<altitude>159.6450042724609</altitude>
			<heading>177.1664511257337</heading>
			<tilt>81.34329826232266</tilt>
			<roll>0</roll>
			<gx:fovy>15</gx:fovy>
			<altitudeMode>absolute</altitudeMode>
		</Camera>
		<styleUrl>#__managed_style_086F90F1552A02B379E7</styleUrl>
		<Point>
			<altitudeMode>relativeToGround</altitudeMode>
			<coordinates>104.2443404931106,17.62173085772955,0</coordinates>
		</Point>
	</Placemark>
	<Placemark id="02FA36934C29EE1E2DC4">
		<name>LT4-SG-2177-0100-0+268</name>
		<Camera>
			<gx:ViewerOptions>
				<gx:option name="streetview"></gx:option>
				<gx:streetViewPanoId>8AO_FiId0qvdOc49kDq_BA</gx:streetViewPanoId>
			</gx:ViewerOptions>
			<longitude>104.2437755508557</longitude>
			<latitude>17.62194543643376</latitude>
			<altitude>158.5899353027344</altitude>
			<heading>192.851156464121</heading>
			<tilt>80.91115679033902</tilt>
			<roll>0</roll>
			<gx:fovy>15</gx:fovy>
			<altitudeMode>absolute</altitudeMode>
		</Camera>
		<styleUrl>#__managed_style_086F90F1552A02B379E7</styleUrl>
		<Point>
			<altitudeMode>relativeToGround</altitudeMode>
			<coordinates>104.2437771452242,17.62183967810655,0</coordinates>
		</Point>
	</Placemark>
	<Placemark id="0911A11E1929EE236B9E">
		<name>LT5-SG-2177-0100-2+695</name>
		<Camera>
			<gx:ViewerOptions>
				<gx:option name="streetview"></gx:option>
				<gx:streetViewPanoId>7-PIoZsn3J7zUFlFxbL4TQ</gx:streetViewPanoId>
			</gx:ViewerOptions>
			<longitude>104.2216168835175</longitude>
			<latitude>17.62719259169947</latitude>
			<altitude>149.2158919551588</altitude>
			<heading>181.8801301997505</heading>
			<tilt>85</tilt>
			<roll>0</roll>
			<gx:fovy>60</gx:fovy>
			<altitudeMode>absolute</altitudeMode>
		</Camera>
		<styleUrl>#__managed_style_086F90F1552A02B379E7</styleUrl>
		<Point>
			<coordinates>104.221606706735,17.62712801685216,144.5617168897528</coordinates>
		</Point>
	</Placemark>
	<Placemark id="09DFF91A7229EE27B43D">
		<name>LT6-SG-2177-0100-2+782</name>
		<LookAt>
			<longitude>104.2207976322416</longitude>
			<latitude>17.62736151456419</latitude>
			<altitude>144.5610030612862</altitude>
			<heading>200.414224449926</heading>
			<tilt>0</tilt>
			<gx:fovy>35</gx:fovy>
			<range>48.53478539693242</range>
			<altitudeMode>absolute</altitudeMode>
		</LookAt>
		<styleUrl>#__managed_style_086F90F1552A02B379E7</styleUrl>
		<Point>
			<coordinates>104.220809066407,17.62730587123937,144.7334155744885</coordinates>
		</Point>
	</Placemark>
	<Placemark id="0A86132C9D29EE28FC34">
		<name>LT7-SG-2177-0100-2+818</name>
		<Camera>
			<gx:ViewerOptions>
				<gx:option name="streetview"></gx:option>
				<gx:streetViewPanoId>2XrFOLV_6Dt9DaAXj8sfNA</gx:streetViewPanoId>
			</gx:ViewerOptions>
			<longitude>104.220509119858</longitude>
			<latitude>17.62746814325209</latitude>
			<altitude>149.1941986083984</altitude>
			<heading>193.1909440513367</heading>
			<tilt>76.90191984973073</tilt>
			<roll>0</roll>
			<gx:fovy>15</gx:fovy>
			<altitudeMode>absolute</altitudeMode>
		</Camera>
		<styleUrl>#__managed_style_086F90F1552A02B379E7</styleUrl>
		<Point>
			<altitudeMode>relativeToGround</altitudeMode>
			<coordinates>104.2204864628893,17.6273865468109,0</coordinates>
		</Point>
	</Placemark>
	<Placemark id="0C1B833CF029EE2A2205">
		<name>LT8-SG-2177-0100-2+855</name>
		<Camera>
			<gx:ViewerOptions>
				<gx:option name="streetview"></gx:option>
				<gx:streetViewPanoId>eQ9fm0CXOBdk81iDjlAHIw</gx:streetViewPanoId>
			</gx:ViewerOptions>
			<longitude>104.2198907131154</longitude>
			<latitude>17.62772748627749</latitude>
			<altitude>149.4155565153405</altitude>
			<heading>186.2630087286056</heading>
			<tilt>80.34585134056428</tilt>
			<roll>0</roll>
			<gx:fovy>15</gx:fovy>
			<altitudeMode>absolute</altitudeMode>
		</Camera>
		<styleUrl>#__managed_style_086F90F1552A02B379E7</styleUrl>
		<Point>
			<altitudeMode>relativeToGround</altitudeMode>
			<coordinates>104.220157208852,17.6274908538518,0</coordinates>
		</Point>
	</Placemark>
	<Placemark id="09503F7BEF29EE2CAC8E">
		<name>LT9-SG-2177-0100-2+890</name>
		<Camera>
			<gx:ViewerOptions>
				<gx:option name="streetview"></gx:option>
				<gx:streetViewPanoId>CyMbLGlrX7SvwsL-aYu9bQ</gx:streetViewPanoId>
			</gx:ViewerOptions>
			<longitude>104.2193825607662</longitude>
			<latitude>17.6281567973759</latitude>
			<altitude>149.3936309814453</altitude>
			<heading>211.4327820908876</heading>
			<tilt>92.42537878976904</tilt>
			<roll>0</roll>
			<gx:fovy>60.00849215826639</gx:fovy>
			<altitudeMode>absolute</altitudeMode>
		</Camera>
		<styleUrl>#__managed_style_086F90F1552A02B379E7</styleUrl>
		<Point>
			<altitudeMode>relativeToGround</altitudeMode>
			<coordinates>104.219885973294,17.62764077648878,0</coordinates>
		</Point>
	</Placemark>
	<Placemark id="053826051929EE2D6EC9">
		<name>LT10-SG-2177-0100-2+932</name>
		<LookAt>
			<longitude>104.2196191812289</longitude>
			<latitude>17.62781765087468</latitude>
			<altitude>144.7293407191309</altitude>
			<heading>-173.4653315725485</heading>
			<tilt>7.912631657415187</tilt>
			<gx:fovy>34.93417696814872</gx:fovy>
			<range>152.9926911275106</range>
			<altitudeMode>absolute</altitudeMode>
		</LookAt>
		<styleUrl>#__managed_style_086F90F1552A02B379E7</styleUrl>
		<Point>
			<coordinates>104.2195574995059,17.62786734371851,144.901490733304</coordinates>
		</Point>
	</Placemark>
	<Placemark id="07D9ABCFF029EE2DB1E8">
		<name>LT11-SG-2177-0100-2+965</name>
		<Camera>
			<gx:ViewerOptions>
				<gx:option name="streetview"></gx:option>
				<gx:streetViewPanoId>rWtlxErUT_-AsBQbeX9gHg</gx:streetViewPanoId>
			</gx:ViewerOptions>
			<longitude>104.2192436595975</longitude>
			<latitude>17.62832619706193</latitude>
			<altitude>149.4112396240234</altitude>
			<heading>280.013996197764</heading>
			<tilt>79.08427740386502</tilt>
			<roll>0</roll>
			<gx:fovy>59.9999999999845</gx:fovy>
			<altitudeMode>absolute</altitudeMode>
		</Camera>
		<styleUrl>#__managed_style_086F90F1552A02B379E7</styleUrl>
		<Point>
			<coordinates>104.2193146258531,17.62806554258388,145.3283098207176</coordinates>
		</Point>
	</Placemark>
	<Placemark id="0E5757A38029F388A37A">
		<name>LT12-SG-2177-0100-3+002</name>
		<Camera>
			<gx:ViewerOptions>
				<gx:option name="streetview"></gx:option>
				<gx:streetViewPanoId>rWtlxErUT_-AsBQbeX9gHg</gx:streetViewPanoId>
			</gx:ViewerOptions>
			<longitude>104.2192436595975</longitude>
			<latitude>17.62832619706193</latitude>
			<altitude>149.4112396240234</altitude>
			<heading>280.013996197764</heading>
			<tilt>79.08427740386502</tilt>
			<roll>0</roll>
			<gx:fovy>59.9999999999845</gx:fovy>
			<altitudeMode>absolute</altitudeMode>
		</Camera>
		<styleUrl>#__managed_style_086F90F1552A02B379E7</styleUrl>
		<Point>
			<altitudeMode>relativeToGround</altitudeMode>
			<coordinates>104.2191395533995,17.62832436027086,0</coordinates>
		</Point>
	</Placemark>
	<Placemark id="01152142C029F389A131">
		<name>LT13-SG-2177-0100-3+039</name>
		<Camera>
			<gx:ViewerOptions>
				<gx:option name="streetview"></gx:option>
				<gx:streetViewPanoId>EndbuU88JLpjptVo_g1YgA</gx:streetViewPanoId>
			</gx:ViewerOptions>
			<longitude>104.2190647558004</longitude>
			<latitude>17.62860227204166</latitude>
			<altitude>149.3667755126953</altitude>
			<heading>277.7546063284497</heading>
			<tilt>81.5006784468051</tilt>
			<roll>0</roll>
			<gx:fovy>19.2982533149942</gx:fovy>
			<altitudeMode>absolute</altitudeMode>
		</Camera>
		<styleUrl>#__managed_style_086F90F1552A02B379E7</styleUrl>
		<Point>
			<altitudeMode>relativeToGround</altitudeMode>
			<coordinates>104.2189625824101,17.62860680047109,0</coordinates>
		</Point>
	</Placemark>
	<Placemark id="03C7ADDE9229F38B23EB">
		<name>LT14-SG-2177-0100-3+076</name>
		<Camera>
			<gx:ViewerOptions>
				<gx:option name="streetview"></gx:option>
				<gx:streetViewPanoId>q_C8yRjRFVCxNK3-8mPRxA</gx:streetViewPanoId>
			</gx:ViewerOptions>
			<longitude>104.2189292254573</longitude>
			<latitude>17.62890190676577</latitude>
			<altitude>149.4127655029297</altitude>
			<heading>285.6440162259747</heading>
			<tilt>79.92120139639793</tilt>
			<roll>0</roll>
			<gx:fovy>15</gx:fovy>
			<altitudeMode>absolute</altitudeMode>
		</Camera>
		<styleUrl>#__managed_style_086F90F1552A02B379E7</styleUrl>
		<Point>
			<altitudeMode>relativeToGround</altitudeMode>
			<coordinates>104.2188359140933,17.62890615556707,0</coordinates>
		</Point>
	</Placemark>
	<Placemark id="0CBD0DE5FC29EE324476">
		<name>LT15-SG-2177-0100-3+113</name>
		<Camera>
			<gx:ViewerOptions>
				<gx:option name="streetview"></gx:option>
				<gx:streetViewPanoId>OSc8xAc58bACevPPb6knUg</gx:streetViewPanoId>
			</gx:ViewerOptions>
			<longitude>104.2188293517395</longitude>
			<latitude>17.62933276807831</latitude>
			<altitude>149.4372558594659</altitude>
			<heading>202.1927406142354</heading>
			<tilt>86.19935100187743</tilt>
			<roll>0</roll>
			<gx:fovy>15</gx:fovy>
			<altitudeMode>absolute</altitudeMode>
		</Camera>
		<styleUrl>#__managed_style_086F90F1552A02B379E7</styleUrl>
		<Point>
			<altitudeMode>relativeToGround</altitudeMode>
			<coordinates>104.2187395910075,17.62923144563331,0</coordinates>
		</Point>
	</Placemark>
	<Placemark id="0EE919F8F529EE335BC1">
		<name>LT16-SG-2177-0100-3+150</name>
		<Camera>
			<gx:ViewerOptions>
				<gx:option name="streetview"></gx:option>
				<gx:streetViewPanoId>6qOQPhdQh54GUUP58vM_2Q</gx:streetViewPanoId>
			</gx:ViewerOptions>
			<longitude>104.2188152487956</longitude>
			<latitude>17.62955770893538</latitude>
			<altitude>149.5407867431641</altitude>
			<heading>266.6639148314015</heading>
			<tilt>82.02325776410831</tilt>
			<roll>0</roll>
			<gx:fovy>23.91137266485262</gx:fovy>
			<altitudeMode>absolute</altitudeMode>
		</Camera>
		<styleUrl>#__managed_style_086F90F1552A02B379E7</styleUrl>
		<Point>
			<altitudeMode>relativeToGround</altitudeMode>
			<coordinates>104.2187157998786,17.6295541870657,0</coordinates>
		</Point>
	</Placemark>
	<Placemark id="012BFDA63D29F38C9FA0">
		<name>LT17-SG-2177-0100-3+187</name>
		<Camera>
			<gx:ViewerOptions>
				<gx:option name="streetview"></gx:option>
				<gx:streetViewPanoId>U5EYiXWuRWogXQ85suPhDg</gx:streetViewPanoId>
			</gx:ViewerOptions>
			<longitude>104.2188264247133</longitude>
			<latitude>17.62990404856898</latitude>
			<altitude>149.6293334960938</altitude>
			<heading>264.7237852794473</heading>
			<tilt>82.04764633298485</tilt>
			<roll>0</roll>
			<gx:fovy>19.98218849564994</gx:fovy>
			<altitudeMode>absolute</altitudeMode>
		</Camera>
		<styleUrl>#__managed_style_086F90F1552A02B379E7</styleUrl>
		<Point>
			<altitudeMode>relativeToGround</altitudeMode>
			<coordinates>104.2187289650933,17.62988776640302,0</coordinates>
		</Point>
	</Placemark>
	<Placemark id="03A23062B229EE36EC04">
		<name>LT18-SG-2177-0100-3+224</name>
		<Camera>
			<gx:ViewerOptions>
				<gx:option name="streetview"></gx:option>
				<gx:streetViewPanoId>2PJ7jwTtHmKoQrMvrZh1TQ</gx:streetViewPanoId>
			</gx:ViewerOptions>
			<longitude>104.2188545419065</longitude>
			<latitude>17.63025576627905</latitude>
			<altitude>149.6592555827513</altitude>
			<heading>233.5758686219947</heading>
			<tilt>80.98036126571796</tilt>
			<roll>0</roll>
			<gx:fovy>15</gx:fovy>
			<altitudeMode>absolute</altitudeMode>
		</Camera>
		<styleUrl>#__managed_style_086F90F1552A02B379E7</styleUrl>
		<Point>
			<altitudeMode>relativeToGround</altitudeMode>
			<coordinates>104.2187608441999,17.63019443442672,0</coordinates>
		</Point>
	</Placemark>
	<Placemark id="0F878411F629EE38192F">
		<name>LT19-SG-2177-0100-3+261</name>
		<Camera>
			<gx:ViewerOptions>
				<gx:option name="streetview"></gx:option>
				<gx:streetViewPanoId>m6iB5uQABJFplBS3uEFq8g</gx:streetViewPanoId>
			</gx:ViewerOptions>
			<longitude>104.2188887792542</longitude>
			<latitude>17.63061038925791</latitude>
			<altitude>149.7331390380859</altitude>
			<heading>254.2769170505009</heading>
			<tilt>74.72899103395646</tilt>
			<roll>0</roll>
			<gx:fovy>15</gx:fovy>
			<altitudeMode>absolute</altitudeMode>
		</Camera>
		<styleUrl>#__managed_style_086F90F1552A02B379E7</styleUrl>
		<Point>
			<altitudeMode>relativeToGround</altitudeMode>
			<coordinates>104.2187926752401,17.63058680296346,0</coordinates>
		</Point>
	</Placemark>
	<Placemark id="0F9338CA4E29EE38C616">
		<name>LT20-SG-2177-0100-3+298</name>
		<Camera>
			<gx:ViewerOptions>
				<gx:option name="streetview"></gx:option>
				<gx:streetViewPanoId>B6dysoz6iS2LkfALXQ6qkg</gx:streetViewPanoId>
			</gx:ViewerOptions>
			<longitude>104.2189121954757</longitude>
			<latitude>17.63084890831055</latitude>
			<altitude>149.7809600830078</altitude>
			<heading>279.295172521064</heading>
			<tilt>70.71791918206426</tilt>
			<roll>0</roll>
			<gx:fovy>15</gx:fovy>
			<altitudeMode>absolute</altitudeMode>
		</Camera>
		<styleUrl>#__managed_style_086F90F1552A02B379E7</styleUrl>
		<Point>
			<altitudeMode>relativeToGround</altitudeMode>
			<coordinates>104.218816116491,17.63086010343889,0</coordinates>
		</Point>
	</Placemark>
	<Placemark id="0B2B7D0A8129EE39DC28">
		<name>LT21-SG-2177-0100-3+335</name>
		<Camera>
			<gx:ViewerOptions>
				<gx:option name="streetview"></gx:option>
				<gx:streetViewPanoId>0pemvzn6ElgcEc0meSWAKw</gx:streetViewPanoId>
			</gx:ViewerOptions>
			<longitude>104.2189474085129</longitude>
			<latitude>17.6312091068836</latitude>
			<altitude>149.9029693603516</altitude>
			<heading>248.5922641585321</heading>
			<tilt>80.1859111056397</tilt>
			<roll>0</roll>
			<gx:fovy>22.26032903993332</gx:fovy>
			<altitudeMode>absolute</altitudeMode>
		</Camera>
		<styleUrl>#__managed_style_086F90F1552A02B379E7</styleUrl>
		<Point>
			<altitudeMode>relativeToGround</altitudeMode>
			<coordinates>104.2188462675738,17.63116941987407,0</coordinates>
		</Point>
	</Placemark>
	<Placemark id="084068AD5D29EE3AB654">
		<name>LT22-SG-2177-0100-3+372</name>
		<Camera>
			<gx:ViewerOptions>
				<gx:option name="streetview"></gx:option>
				<gx:streetViewPanoId>wgwG4PzNS7c3jEvfcpM0UQ</gx:streetViewPanoId>
			</gx:ViewerOptions>
			<longitude>104.218970824744</longitude>
			<latitude>17.63145053776417</latitude>
			<altitude>149.8383026123047</altitude>
			<heading>314.0867683257385</heading>
			<tilt>79.37761450161933</tilt>
			<roll>0</roll>
			<gx:fovy>18.62728718264763</gx:fovy>
			<altitudeMode>absolute</altitudeMode>
		</Camera>
		<styleUrl>#__managed_style_086F90F1552A02B379E7</styleUrl>
		<Point>
			<altitudeMode>relativeToGround</altitudeMode>
			<coordinates>104.218877682496,17.63153002114736,0</coordinates>
		</Point>
	</Placemark>
	<Placemark id="04F595A8DE29EE4DC384">
		<name>LT23-SG-2177-0100-3+409</name>
		<Camera>
			<gx:ViewerOptions>
				<gx:option name="streetview"></gx:option>
				<gx:streetViewPanoId>wM4XEMJP1It_TKdCCR5N1A</gx:streetViewPanoId>
			</gx:ViewerOptions>
			<longitude>104.2189986758723</longitude>
			<latitude>17.63181171664516</latitude>
			<altitude>149.2974395751953</altitude>
			<heading>279.0306104175734</heading>
			<tilt>79.7481070297879</tilt>
			<roll>0</roll>
			<gx:fovy>15</gx:fovy>
			<altitudeMode>absolute</altitudeMode>
		</Camera>
		<styleUrl>#__managed_style_086F90F1552A02B379E7</styleUrl>
		<Point>
			<altitudeMode>relativeToGround</altitudeMode>
			<coordinates>104.2189098710297,17.63183186629471,0</coordinates>
		</Point>
	</Placemark>
	<Placemark id="0CEA53FF5B29EE4EBCBC">
		<name>LT24-SG-2177-0100-3+446</name>
		<Camera>
			<gx:ViewerOptions>
				<gx:option name="streetview"></gx:option>
				<gx:streetViewPanoId>s6TOSuo-qSwAtnpFs9weaw</gx:streetViewPanoId>
			</gx:ViewerOptions>
			<longitude>104.2190300749216</longitude>
			<latitude>17.63217457736031</latitude>
			<altitude>149.2552642822266</altitude>
			<heading>287.7028070959427</heading>
			<tilt>75.37256364499537</tilt>
			<roll>0</roll>
			<gx:fovy>15</gx:fovy>
			<altitudeMode>absolute</altitudeMode>
		</Camera>
		<styleUrl>#__managed_style_086F90F1552A02B379E7</styleUrl>
		<Point>
			<altitudeMode>relativeToGround</altitudeMode>
			<coordinates>104.2189469699174,17.63218939614902,0</coordinates>
		</Point>
	</Placemark>
	<Placemark id="09E343BDE829EE4FB3B7">
		<name>LT25-SG-2177-0100-3+483</name>
		<Camera>
			<gx:ViewerOptions>
				<gx:option name="streetview"></gx:option>
				<gx:streetViewPanoId>3aTOHwL3SIGHdC9XhvENMg</gx:streetViewPanoId>
			</gx:ViewerOptions>
			<longitude>104.2190730934042</longitude>
			<latitude>17.63265524954523</latitude>
			<altitude>149.2738189697266</altitude>
			<heading>231.7622034708894</heading>
			<tilt>78.83656925521603</tilt>
			<roll>0</roll>
			<gx:fovy>15</gx:fovy>
			<altitudeMode>absolute</altitudeMode>
		</Camera>
		<styleUrl>#__managed_style_086F90F1552A02B379E7</styleUrl>
		<Point>
			<altitudeMode>relativeToGround</altitudeMode>
			<coordinates>104.2189850822881,17.63260710954976,0</coordinates>
		</Point>
	</Placemark>
	<Placemark id="0B453E523629EE534D91">
		<name>RT6-SG-2177-0100-3+520</name>
		<Camera>
			<gx:ViewerOptions>
				<gx:option name="streetview"></gx:option>
				<gx:streetViewPanoId>OHmueBFPgRPGpOF3U61GaA</gx:streetViewPanoId>
			</gx:ViewerOptions>
			<longitude>104.2209622827697</longitude>
			<latitude>17.64901584461963</latitude>
			<altitude>149.8864135742188</altitude>
			<heading>117.4296444111818</heading>
			<tilt>67.52931924594023</tilt>
			<roll>0</roll>
			<gx:fovy>17.5183997607467</gx:fovy>
			<altitudeMode>absolute</altitudeMode>
		</Camera>
		<styleUrl>#__managed_style_086F90F1552A02B379E7</styleUrl>
		<Point>
			<altitudeMode>relativeToGround</altitudeMode>
			<coordinates>104.22105714182,17.64896653770761,0</coordinates>
		</Point>
	</Placemark>
	<Placemark id="0290878E5F29EE54E663">
		<name>RT7-SG-2177-0100-3+557</name>
		<Camera>
			<gx:ViewerOptions>
				<gx:option name="streetview"></gx:option>
				<gx:streetViewPanoId>MYNhtxI7Oc6jWyU5Ya9Icg</gx:streetViewPanoId>
			</gx:ViewerOptions>
			<longitude>104.220926980538</longitude>
			<latitude>17.64934946437164</latitude>
			<altitude>150.0353698730469</altitude>
			<heading>33.94157021181754</heading>
			<tilt>77.90465264398524</tilt>
			<roll>0</roll>
			<gx:fovy>15</gx:fovy>
			<altitudeMode>absolute</altitudeMode>
		</Camera>
		<styleUrl>#__managed_style_086F90F1552A02B379E7</styleUrl>
		<Point>
			<altitudeMode>relativeToGround</altitudeMode>
			<coordinates>104.2209806838582,17.64941747277105,0</coordinates>
		</Point>
	</Placemark>
	<Placemark id="035F18932E29EE64612C">
		<name>RT8-SG-2177-0100-3+594</name>
		<Camera>
			<gx:ViewerOptions>
				<gx:option name="streetview"></gx:option>
				<gx:streetViewPanoId>YZB5ENK1KSjQFGV8bKErKg</gx:streetViewPanoId>
			</gx:ViewerOptions>
			<longitude>104.2208825423139</longitude>
			<latitude>17.64979015791161</latitude>
			<altitude>150.2250061035156</altitude>
			<heading>72.97834586480987</heading>
			<tilt>78.48213681376919</tilt>
			<roll>0</roll>
			<gx:fovy>15</gx:fovy>
			<altitudeMode>absolute</altitudeMode>
		</Camera>
		<styleUrl>#__managed_style_086F90F1552A02B379E7</styleUrl>
		<Point>
			<altitudeMode>relativeToGround</altitudeMode>
			<coordinates>104.2209300336781,17.64980977275024,0</coordinates>
		</Point>
	</Placemark>
	<Placemark id="09577288C629EE662505">
		<name>RT9-SG-2177-0100-3+631</name>
		<Camera>
			<gx:ViewerOptions>
				<gx:option name="streetview"></gx:option>
				<gx:streetViewPanoId>aTw5pZOFic0wqSKip1BGRg</gx:streetViewPanoId>
			</gx:ViewerOptions>
			<longitude>104.220829322902</longitude>
			<latitude>17.65016699968307</latitude>
			<altitude>150.4420166015625</altitude>
			<heading>41.02845906126922</heading>
			<tilt>71.50243204863423</tilt>
			<roll>0</roll>
			<gx:fovy>22.77841041950966</gx:fovy>
			<altitudeMode>absolute</altitudeMode>
		</Camera>
		<styleUrl>#__managed_style_086F90F1552A02B379E7</styleUrl>
		<Point>
			<altitudeMode>relativeToGround</altitudeMode>
			<coordinates>104.220881001896,17.65022932479275,0</coordinates>
		</Point>
	</Placemark>
	<Placemark id="06722A606B29EE675C4A">
		<name>RT10-SG-2177-0100-3+668</name>
		<Camera>
			<gx:ViewerOptions>
				<gx:option name="streetview"></gx:option>
				<gx:streetViewPanoId>Y9CicOIeCXoD_V0_ziEL8g</gx:streetViewPanoId>
			</gx:ViewerOptions>
			<longitude>104.2207125950612</longitude>
			<latitude>17.65058087264821</latitude>
			<altitude>150.5962066650391</altitude>
			<heading>68.19392439364884</heading>
			<tilt>70.88980701973952</tilt>
			<roll>0</roll>
			<gx:fovy>29.12553744665458</gx:fovy>
			<altitudeMode>absolute</altitudeMode>
		</Camera>
		<styleUrl>#__managed_style_086F90F1552A02B379E7</styleUrl>
		<Point>
			<altitudeMode>relativeToGround</altitudeMode>
			<coordinates>104.2207687357157,17.65060225016541,0</coordinates>
		</Point>
	</Placemark>
	<Placemark id="03366137FB29EE68D1F0">
		<name>RT11-SG-2177-0100-3+705</name>
		<Camera>
			<gx:ViewerOptions>
				<gx:option name="streetview"></gx:option>
				<gx:streetViewPanoId>IYIxO-vUlveDwSt12OrYvw</gx:streetViewPanoId>
			</gx:ViewerOptions>
			<longitude>104.2205243760532</longitude>
			<latitude>17.65096433661793</latitude>
			<altitude>150.7317352294728</altitude>
			<heading>81.44710072580945</heading>
			<tilt>76.95361992936058</tilt>
			<roll>0</roll>
			<gx:fovy>15</gx:fovy>
			<altitudeMode>absolute</altitudeMode>
		</Camera>
		<styleUrl>#__managed_style_086F90F1552A02B379E7</styleUrl>
		<Point>
			<altitudeMode>relativeToGround</altitudeMode>
			<coordinates>104.2206111014286,17.65099364837832,0</coordinates>
		</Point>
	</Placemark>
	<Placemark id="0C25C91DA029EE6A5E3A">
		<name>RT12-SG-2177-0100-3+742</name>
		<Camera>
			<gx:ViewerOptions>
				<gx:option name="streetview"></gx:option>
				<gx:streetViewPanoId>rhvWdLm-eCix9l4Va-FmnQ</gx:streetViewPanoId>
			</gx:ViewerOptions>
			<longitude>104.2204032135239</longitude>
			<latitude>17.65114199203571</latitude>
			<altitude>150.8266143798828</altitude>
			<heading>336.5490792868011</heading>
			<tilt>89.29177033532459</tilt>
			<roll>0</roll>
			<gx:fovy>15</gx:fovy>
			<altitudeMode>absolute</altitudeMode>
		</Camera>
		<styleUrl>#__managed_style_086F90F1552A02B379E7</styleUrl>
		<Point>
			<altitudeMode>relativeToGround</altitudeMode>
			<coordinates>104.2203446036526,17.65134698942811,0</coordinates>
		</Point>
	</Placemark>
	<Placemark id="01351873ED29EE6C15FD">
		<name>RT13-SG-2177-0100-3+779</name>
		<Camera>
			<gx:ViewerOptions>
				<gx:option name="streetview"></gx:option>
				<gx:streetViewPanoId>V74kvWAcbicvNq1ndlWLag</gx:streetViewPanoId>
			</gx:ViewerOptions>
			<longitude>104.2200225190403</longitude>
			<latitude>17.6515322279391</latitude>
			<altitude>150.9723968505859</altitude>
			<heading>15.69428950539215</heading>
			<tilt>88.4484501328534</tilt>
			<roll>0</roll>
			<gx:fovy>59.99999999999801</gx:fovy>
			<altitudeMode>absolute</altitudeMode>
		</Camera>
		<styleUrl>#__managed_style_086F90F1552A02B379E7</styleUrl>
		<Point>
			<altitudeMode>relativeToGround</altitudeMode>
			<coordinates>104.2200382012569,17.65161233519268,0</coordinates>
		</Point>
	</Placemark>
	<Placemark id="04F5FBA53529EE6CC173">
		<name>RT14-SG-2177-0100-3+816</name>
		<Camera>
			<gx:ViewerOptions>
				<gx:option name="streetview"></gx:option>
				<gx:streetViewPanoId>JJ0bAFzt0EAER4C_K6pKAQ</gx:streetViewPanoId>
			</gx:ViewerOptions>
			<longitude>104.2196569042752</longitude>
			<latitude>17.65177816278824</latitude>
			<altitude>151.1812802316339</altitude>
			<heading>35.27421468488769</heading>
			<tilt>82.58207241344161</tilt>
			<roll>0</roll>
			<gx:fovy>59.99999999209611</gx:fovy>
			<altitudeMode>absolute</altitudeMode>
		</Camera>
		<styleUrl>#__managed_style_086F90F1552A02B379E7</styleUrl>
		<Point>
			<altitudeMode>relativeToGround</altitudeMode>
			<coordinates>104.2196968395693,17.65185528835544,0</coordinates>
		</Point>
	</Placemark>
	<Placemark id="00080BEC5129EE6D966A">
		<name>RT15-SG-2177-0100-3+853</name>
		<Camera>
			<gx:ViewerOptions>
				<gx:option name="streetview"></gx:option>
				<gx:streetViewPanoId>ijh3yqJBH56W3cucJTjA3Q</gx:streetViewPanoId>
			</gx:ViewerOptions>
			<longitude>104.2192500458554</longitude>
			<latitude>17.65195468047398</latitude>
			<altitude>151.3327809799676</altitude>
			<heading>53.34109342514655</heading>
			<tilt>75.41113528815193</tilt>
			<roll>0</roll>
			<gx:fovy>17.73251262167208</gx:fovy>
			<altitudeMode>absolute</altitudeMode>
		</Camera>
		<styleUrl>#__managed_style_086F90F1552A02B379E7</styleUrl>
		<Point>
			<altitudeMode>relativeToGround</altitudeMode>
			<coordinates>104.2193248607213,17.652016143489,0</coordinates>
		</Point>
	</Placemark>
	<Placemark id="00773C18BE29EE6E8760">
		<name>RT16-SG-2177-0100-3+890</name>
		<Camera>
			<gx:ViewerOptions>
				<gx:option name="streetview"></gx:option>
				<gx:streetViewPanoId>A6kaQTKag461Vetr39UZyA</gx:streetViewPanoId>
			</gx:ViewerOptions>
			<longitude>104.2189259436384</longitude>
			<latitude>17.65203673151014</latitude>
			<altitude>151.351068456624</altitude>
			<heading>354.4398112700931</heading>
			<tilt>76.15225743131579</tilt>
			<roll>0</roll>
			<gx:fovy>76.70589195430298</gx:fovy>
			<altitudeMode>absolute</altitudeMode>
		</Camera>
		<styleUrl>#__managed_style_086F90F1552A02B379E7</styleUrl>
		<Point>
			<altitudeMode>relativeToGround</altitudeMode>
			<coordinates>104.2188648887185,17.65213031372195,0</coordinates>
		</Point>
	</Placemark>
	<Placemark id="030CA20CCB29EE7052E6">
		<name>RT17-SG-2177-0100-3+927</name>
		<Camera>
			<gx:ViewerOptions>
				<gx:option name="streetview"></gx:option>
				<gx:streetViewPanoId>QbWCgZruwrbSSeYYSk2XMQ</gx:streetViewPanoId>
			</gx:ViewerOptions>
			<longitude>104.2184742950281</longitude>
			<latitude>17.65207818222266</latitude>
			<altitude>151.4285846983536</altitude>
			<heading>345.4589431698182</heading>
			<tilt>73.1118557844264</tilt>
			<roll>0</roll>
			<gx:fovy>18.19403659067566</gx:fovy>
			<altitudeMode>absolute</altitudeMode>
		</Camera>
		<styleUrl>#__managed_style_086F90F1552A02B379E7</styleUrl>
		<Point>
			<altitudeMode>relativeToGround</altitudeMode>
			<coordinates>104.2184427088904,17.65216112812877,0</coordinates>
		</Point>
	</Placemark>
	<Placemark id="0B90F41AEA29EE721085">
		<name>RT18-SG-2177-0100-4+337</name>
		<Camera>
			<gx:ViewerOptions>
				<gx:option name="streetview"></gx:option>
				<gx:streetViewPanoId>pQwqH8Cok61S2lKMBdFIoQ</gx:streetViewPanoId>
			</gx:ViewerOptions>
			<longitude>104.2145448703307</longitude>
			<latitude>17.65218223247635</latitude>
			<altitude>151.8528747558594</altitude>
			<heading>37.57693154263081</heading>
			<tilt>71.4996551027824</tilt>
			<roll>0</roll>
			<gx:fovy>15</gx:fovy>
			<altitudeMode>absolute</altitudeMode>
		</Camera>
		<styleUrl>#__managed_style_086F90F1552A02B379E7</styleUrl>
		<Point>
			<altitudeMode>relativeToGround</altitudeMode>
			<coordinates>104.2145763111167,17.6522488082398,0</coordinates>
		</Point>
	</Placemark>
	<Placemark id="01B901B29B29EE734566">
		<name>RT19-SG-2177-0100-4+374</name>
		<Camera>
			<gx:ViewerOptions>
				<gx:option name="streetview"></gx:option>
				<gx:streetViewPanoId>LBkTdqUr3jfaHU1nAmrZTg</gx:streetViewPanoId>
			</gx:ViewerOptions>
			<longitude>104.2141728835232</longitude>
			<latitude>17.65217610845092</latitude>
			<altitude>151.9766650080244</altitude>
			<heading>324.7960553011911</heading>
			<tilt>80.51403417550971</tilt>
			<roll>0</roll>
			<gx:fovy>59.99999999999999</gx:fovy>
			<altitudeMode>absolute</altitudeMode>
		</Camera>
		<styleUrl>#__managed_style_086F90F1552A02B379E7</styleUrl>
		<Point>
			<altitudeMode>relativeToGround</altitudeMode>
			<coordinates>104.2141484933814,17.65222687525483,0</coordinates>
		</Point>
	</Placemark>
	<Placemark id="0D7ACD64E529EE74E2E2">
		<name>RT20-SG-2177-0100-4+411</name>
		<Camera>
			<gx:ViewerOptions>
				<gx:option name="streetview"></gx:option>
				<gx:streetViewPanoId>355-l2eqR-iASs6hY-ak2w</gx:streetViewPanoId>
			</gx:ViewerOptions>
			<longitude>104.2136773460902</longitude>
			<latitude>17.65214320430285</latitude>
			<altitude>152.0377341215925</altitude>
			<heading>48.96195385379509</heading>
			<tilt>86.30863257056856</tilt>
			<roll>0</roll>
			<gx:fovy>27.95901786921183</gx:fovy>
			<altitudeMode>absolute</altitudeMode>
		</Camera>
		<styleUrl>#__managed_style_086F90F1552A02B379E7</styleUrl>
		<Point>
			<altitudeMode>relativeToGround</altitudeMode>
			<coordinates>104.2137394993857,17.65221052344889,0</coordinates>
		</Point>
	</Placemark>
	<Placemark id="097CCA141729EE75A6DB">
		<name>RT21-SG-2177-0100-4+448</name>
		<Camera>
			<gx:ViewerOptions>
				<gx:option name="streetview"></gx:option>
				<gx:streetViewPanoId>QMXSBGb76tbI2NjBqdvT1g</gx:streetViewPanoId>
			</gx:ViewerOptions>
			<longitude>104.2133086432286</longitude>
			<latitude>17.65210401568406</latitude>
			<altitude>152.0633392333984</altitude>
			<heading>348.1053007424293</heading>
			<tilt>77.09747369705588</tilt>
			<roll>0</roll>
			<gx:fovy>59.99999999993123</gx:fovy>
			<altitudeMode>absolute</altitudeMode>
		</Camera>
		<styleUrl>#__managed_style_086F90F1552A02B379E7</styleUrl>
		<Point>
			<altitudeMode>relativeToGround</altitudeMode>
			<coordinates>104.2132977288084,17.65216095979063,0</coordinates>
		</Point>
	</Placemark>
	<Placemark id="05C9AC348829EE7649E8">
		<name>RT22-SG-2177-0100-4+485</name>
		<Camera>
			<gx:ViewerOptions>
				<gx:option name="streetview"></gx:option>
				<gx:streetViewPanoId>SIwTA2gZK-jk9RCKUUtc_Q</gx:streetViewPanoId>
			</gx:ViewerOptions>
			<longitude>104.2128251711785</longitude>
			<latitude>17.65203228602151</latitude>
			<altitude>152.1151285315732</altitude>
			<heading>34.52363489131472</heading>
			<tilt>74.66037153306715</tilt>
			<roll>0</roll>
			<gx:fovy>59.99999999999999</gx:fovy>
			<altitudeMode>absolute</altitudeMode>
		</Camera>
		<styleUrl>#__managed_style_086F90F1552A02B379E7</styleUrl>
		<Point>
			<altitudeMode>relativeToGround</altitudeMode>
			<coordinates>104.2128993816698,17.652099568661,0</coordinates>
		</Point>
	</Placemark>
	<Placemark id="08A56F267E29EE76E725">
		<name>RT23-SG-2177-0100-4+522</name>
		<Camera>
			<gx:ViewerOptions>
				<gx:option name="streetview"></gx:option>
				<gx:streetViewPanoId>9meVdVeqcNoipTer8usJ2Q</gx:streetViewPanoId>
			</gx:ViewerOptions>
			<longitude>104.2124714597683</longitude>
			<latitude>17.65196244042743</latitude>
			<altitude>152.1221923828125</altitude>
			<heading>3.764790602983685</heading>
			<tilt>74.2674945144559</tilt>
			<roll>0</roll>
			<gx:fovy>59.99999999999666</gx:fovy>
			<altitudeMode>absolute</altitudeMode>
		</Camera>
		<styleUrl>#__managed_style_086F90F1552A02B379E7</styleUrl>
		<Point>
			<altitudeMode>relativeToGround</altitudeMode>
			<coordinates>104.2124363176021,17.6520314311639,0</coordinates>
		</Point>
	</Placemark>
	<Placemark id="0FD0FB1C0D29EE795120">
		<name>RT24-SG-2177-0100-4+559</name>
		<Camera>
			<gx:ViewerOptions>
				<gx:option name="streetview"></gx:option>
				<gx:streetViewPanoId>DUJBX3sNN2EjFCdLPo-PnA</gx:streetViewPanoId>
			</gx:ViewerOptions>
			<longitude>104.2120152194618</longitude>
			<latitude>17.65185439281854</latitude>
			<altitude>152.0782623291016</altitude>
			<heading>30.65423486896624</heading>
			<tilt>83.36132984458001</tilt>
			<roll>0</roll>
			<gx:fovy>15</gx:fovy>
			<altitudeMode>absolute</altitudeMode>
		</Camera>
		<styleUrl>#__managed_style_086F90F1552A02B379E7</styleUrl>
		<Point>
			<altitudeMode>relativeToGround</altitudeMode>
			<coordinates>104.2120746802269,17.65194634950738,0</coordinates>
		</Point>
	</Placemark>
	<Placemark id="01E30221FF29EE7A9322">
		<name>RT25-SG-2177-0100-4+596</name>
		<Camera>
			<gx:ViewerOptions>
				<gx:option name="streetview"></gx:option>
				<gx:streetViewPanoId>EZJeo0hUTfLExC4NKC-qFw</gx:streetViewPanoId>
			</gx:ViewerOptions>
			<longitude>104.2116818208269</longitude>
			<latitude>17.65176444172963</latitude>
			<altitude>152.0473665924422</altitude>
			<heading>313.090183513617</heading>
			<tilt>65.76790868230124</tilt>
			<roll>0</roll>
			<gx:fovy>59.99999999999999</gx:fovy>
			<altitudeMode>absolute</altitudeMode>
		</Camera>
		<styleUrl>#__managed_style_086F90F1552A02B379E7</styleUrl>
		<Point>
			<altitudeMode>relativeToGround</altitudeMode>
			<coordinates>104.2116489990195,17.65180796802686,0</coordinates>
		</Point>
	</Placemark>
	<Placemark id="07A8EE07FD29EE7DFE98">
		<name>RT26-SG-2177-0100-10+511</name>
		<Camera>
			<gx:ViewerOptions>
				<gx:option name="streetview"></gx:option>
				<gx:streetViewPanoId>5b7_3Gx9Cw3tN2hZDQu-aw</gx:streetViewPanoId>
			</gx:ViewerOptions>
			<longitude>104.1759419927262</longitude>
			<latitude>17.64242706346476</latitude>
			<altitude>156.606689453125</altitude>
			<heading>17.74350313480306</heading>
			<tilt>82.42682361608088</tilt>
			<roll>0</roll>
			<gx:fovy>37.20936760781687</gx:fovy>
			<altitudeMode>absolute</altitudeMode>
		</Camera>
		<styleUrl>#__managed_style_086F90F1552A02B379E7</styleUrl>
		<Point>
			<altitudeMode>relativeToGround</altitudeMode>
			<coordinates>104.1759484828215,17.64245780866815,0</coordinates>
		</Point>
	</Placemark>
	<Placemark id="0AF133B00F29EE7F2272">
		<name>RT27-SG-2177-0100-10+548</name>
		<Camera>
			<gx:ViewerOptions>
				<gx:option name="streetview"></gx:option>
				<gx:streetViewPanoId>vZ_D1VwQcRw4hTssdpulyQ</gx:streetViewPanoId>
			</gx:ViewerOptions>
			<longitude>104.1755608847603</longitude>
			<latitude>17.6424649257602</latitude>
			<altitude>156.5538940429688</altitude>
			<heading>330.2017977727192</heading>
			<tilt>75.00478822109187</tilt>
			<roll>0</roll>
			<gx:fovy>38.30413801910779</gx:fovy>
			<altitudeMode>absolute</altitudeMode>
		</Camera>
		<styleUrl>#__managed_style_086F90F1552A02B379E7</styleUrl>
		<Point>
			<altitudeMode>relativeToGround</altitudeMode>
			<coordinates>104.1755011397929,17.6425116991279,0</coordinates>
		</Point>
	</Placemark>
	<Placemark id="0958DD00A129F249DD83">
		<name>RT28-SG-2177-0100-10+585</name>
		<Camera>
			<gx:ViewerOptions>
				<gx:option name="streetview"></gx:option>
				<gx:streetViewPanoId>5AYzXKqoxYrmcqqHv3Tj1A</gx:streetViewPanoId>
			</gx:ViewerOptions>
			<longitude>104.1746505037158</longitude>
			<latitude>17.64254704452186</latitude>
			<altitude>156.3597106933594</altitude>
			<heading>343.2830596827881</heading>
			<tilt>73.48237171291139</tilt>
			<roll>0</roll>
			<gx:fovy>19.94654462282443</gx:fovy>
			<altitudeMode>absolute</altitudeMode>
		</Camera>
		<styleUrl>#__managed_style_086F90F1552A02B379E7</styleUrl>
		<Point>
			<altitudeMode>relativeToGround</altitudeMode>
			<coordinates>104.1746411138643,17.6425858418489,0</coordinates>
		</Point>
	</Placemark>
	<Placemark id="01E7B4B07929F24AC546">
		<name>RT29-SG-2177-0100-10+622</name>
		<Camera>
			<gx:ViewerOptions>
				<gx:option name="streetview"></gx:option>
				<gx:streetViewPanoId>RL044H62vyXyAsMuRc8K0A</gx:streetViewPanoId>
			</gx:ViewerOptions>
			<longitude>104.1742652317154</longitude>
			<latitude>17.6425823844468</latitude>
			<altitude>156.2111968994141</altitude>
			<heading>355.6416145490455</heading>
			<tilt>65.44445000552666</tilt>
			<roll>0</roll>
			<gx:fovy>15</gx:fovy>
			<altitudeMode>absolute</altitudeMode>
		</Camera>
		<styleUrl>#__managed_style_086F90F1552A02B379E7</styleUrl>
		<Point>
			<altitudeMode>relativeToGround</altitudeMode>
			<coordinates>104.1742617099902,17.64263023879935,0</coordinates>
		</Point>
	</Placemark>
	<Placemark id="0896AA20B829F24E7E77">
		<name>RT30-SG-2177-0100-10+659</name>
		<Camera>
			<gx:ViewerOptions>
				<gx:option name="streetview"></gx:option>
				<gx:streetViewPanoId>_jHmkYbWnjqDREv8_H0Vfw</gx:streetViewPanoId>
			</gx:ViewerOptions>
			<longitude>104.1738327884135</longitude>
			<latitude>17.64262081150886</latitude>
			<altitude>156.0584259033203</altitude>
			<heading>9.012391786985193</heading>
			<tilt>61.84716579999855</tilt>
			<roll>0</roll>
			<gx:fovy>15</gx:fovy>
			<altitudeMode>absolute</altitudeMode>
		</Camera>
		<styleUrl>#__managed_style_086F90F1552A02B379E7</styleUrl>
		<Point>
			<altitudeMode>relativeToGround</altitudeMode>
			<coordinates>104.1738408580998,17.64266455341206,0</coordinates>
		</Point>
	</Placemark>
	<Placemark id="0AADF2CEE029F24F4E52">
		<name>RT31-SG-2177-0100-10+696</name>
		<Camera>
			<gx:ViewerOptions>
				<gx:option name="streetview"></gx:option>
				<gx:streetViewPanoId>3XpNm-FLXHtOrzR19R9vyQ</gx:streetViewPanoId>
			</gx:ViewerOptions>
			<longitude>104.1734459225753</longitude>
			<latitude>17.64265485427532</latitude>
			<altitude>155.889404296875</altitude>
			<heading>326.0154763558295</heading>
			<tilt>75.2066489151203</tilt>
			<roll>0</roll>
			<gx:fovy>15</gx:fovy>
			<altitudeMode>absolute</altitudeMode>
		</Camera>
		<styleUrl>#__managed_style_086F90F1552A02B379E7</styleUrl>
		<Point>
			<altitudeMode>relativeToGround</altitudeMode>
			<coordinates>104.1734161239477,17.64270092698537,0</coordinates>
		</Point>
	</Placemark>
	<Placemark id="0147A25D7C29F25080CA">
		<name>RT32-SG-2177-0100-10+733</name>
		<Camera>
			<gx:ViewerOptions>
				<gx:option name="streetview"></gx:option>
				<gx:streetViewPanoId>bHLYlSn1XJWBhHhEE7vp1Q</gx:streetViewPanoId>
			</gx:ViewerOptions>
			<longitude>104.1730587917811</longitude>
			<latitude>17.64268600367643</latitude>
			<altitude>155.7321319580078</altitude>
			<heading>309.9516810252615</heading>
			<tilt>79.64608093876234</tilt>
			<roll>0</roll>
			<gx:fovy>15</gx:fovy>
			<altitudeMode>absolute</altitudeMode>
		</Camera>
		<styleUrl>#__managed_style_086F90F1552A02B379E7</styleUrl>
		<Point>
			<altitudeMode>relativeToGround</altitudeMode>
			<coordinates>104.1729919015565,17.64273924276318,0</coordinates>
		</Point>
	</Placemark>
	<Placemark id="02711F74E029F252364C">
		<name>RT33-SG-2177-0100-10+770</name>
		<Camera>
			<gx:ViewerOptions>
				<gx:option name="streetview"></gx:option>
				<gx:streetViewPanoId>hKwXB8TN8yk5IOU1kZ15xw</gx:streetViewPanoId>
			</gx:ViewerOptions>
			<longitude>104.1725751901115</longitude>
			<latitude>17.64273010077307</latitude>
			<altitude>155.5417327880859</altitude>
			<heading>357.5728402341209</heading>
			<tilt>68.76332125082297</tilt>
			<roll>0</roll>
			<gx:fovy>29.14723987356119</gx:fovy>
			<altitudeMode>absolute</altitudeMode>
		</Camera>
		<styleUrl>#__managed_style_086F90F1552A02B379E7</styleUrl>
		<Point>
			<altitudeMode>relativeToGround</altitudeMode>
			<coordinates>104.1725708623246,17.6427867948958,0</coordinates>
		</Point>
	</Placemark>
	<Placemark id="09BC81CDAE29F2531D7D">
		<name>RT34-SG-2177-0100-10+807</name>
		<Camera>
			<gx:ViewerOptions>
				<gx:option name="streetview"></gx:option>
				<gx:streetViewPanoId>gvhm2QDTol-klO8MVdR7fQ</gx:streetViewPanoId>
			</gx:ViewerOptions>
			<longitude>104.1721872636681</longitude>
			<latitude>17.64276748338216</latitude>
			<altitude>155.2794036865234</altitude>
			<heading>317.7338365858305</heading>
			<tilt>69.70694915810596</tilt>
			<roll>0</roll>
			<gx:fovy>15</gx:fovy>
			<altitudeMode>absolute</altitudeMode>
		</Camera>
		<styleUrl>#__managed_style_086F90F1552A02B379E7</styleUrl>
		<Point>
			<altitudeMode>relativeToGround</altitudeMode>
			<coordinates>104.1721265087984,17.64282407315219,0</coordinates>
		</Point>
	</Placemark>
	<Placemark id="0F397624B429F253F38C">
		<name>RT35-SG-2177-0100-10+844</name>
		<Camera>
			<gx:ViewerOptions>
				<gx:option name="streetview"></gx:option>
				<gx:streetViewPanoId>2603dc4y03CihPiJyMkcMQ</gx:streetViewPanoId>
			</gx:ViewerOptions>
			<longitude>104.1713000466182</longitude>
			<latitude>17.64280342388685</latitude>
			<altitude>154.87939453125</altitude>
			<heading>2.754783657801908</heading>
			<tilt>74.16782922099442</tilt>
			<roll>0</roll>
			<gx:fovy>15</gx:fovy>
			<altitudeMode>absolute</altitudeMode>
		</Camera>
		<styleUrl>#__managed_style_086F90F1552A02B379E7</styleUrl>
		<Point>
			<altitudeMode>relativeToGround</altitudeMode>
			<coordinates>104.1712955163486,17.64290127451855,0</coordinates>
		</Point>
	</Placemark>
	<Placemark id="079E9B1DC729F2549CB1">
		<name>RT36-SG-2177-0100-10+881</name>
		<Camera>
			<gx:ViewerOptions>
				<gx:option name="streetview"></gx:option>
				<gx:streetViewPanoId>GDMHwYRrEpm7h8rAd0TgkA</gx:streetViewPanoId>
			</gx:ViewerOptions>
			<longitude>104.1708567948406</longitude>
			<latitude>17.64283989724826</latitude>
			<altitude>154.7131958007812</altitude>
			<heading>12.33533616271863</heading>
			<tilt>72.92892504787318</tilt>
			<roll>0</roll>
			<gx:fovy>15</gx:fovy>
			<altitudeMode>absolute</altitudeMode>
		</Camera>
		<styleUrl>#__managed_style_086F90F1552A02B379E7</styleUrl>
		<Point>
			<altitudeMode>relativeToGround</altitudeMode>
			<coordinates>104.170885725945,17.64293326600947,0</coordinates>
		</Point>
	</Placemark>
	<Placemark id="025D6E886129F2552883">
		<name>RT37-SG-2177-0100-10+918</name>
		<Camera>
			<gx:ViewerOptions>
				<gx:option name="streetview"></gx:option>
				<gx:streetViewPanoId>hhK9bVEpv4PoWW0gn3ndJg</gx:streetViewPanoId>
			</gx:ViewerOptions>
			<longitude>104.1704762325043</longitude>
			<latitude>17.64284779622812</latitude>
			<altitude>154.3004302978516</altitude>
			<heading>343.8033466081573</heading>
			<tilt>76.33559236506159</tilt>
			<roll>0</roll>
			<gx:fovy>15</gx:fovy>
			<altitudeMode>absolute</altitudeMode>
		</Camera>
		<styleUrl>#__managed_style_086F90F1552A02B379E7</styleUrl>
		<Point>
			<altitudeMode>relativeToGround</altitudeMode>
			<coordinates>104.1704554645058,17.64295086753226,0</coordinates>
		</Point>
	</Placemark>
	<Placemark id="008A2F8B5329F258D248">
		<name>LT27-SG-2177-0100-13+766</name>
		<Camera>
			<gx:ViewerOptions>
				<gx:option name="streetview"></gx:option>
				<gx:streetViewPanoId>O2o1Jf1W57oOQ94h74R5vw</gx:streetViewPanoId>
			</gx:ViewerOptions>
			<longitude>104.1497644325409</longitude>
			<latitude>17.62999541886697</latitude>
			<altitude>147.2850952153067</altitude>
			<heading>124.9037112501645</heading>
			<tilt>88.13763034028219</tilt>
			<roll>0</roll>
			<gx:fovy>15.73771292677798</gx:fovy>
			<altitudeMode>absolute</altitudeMode>
		</Camera>
		<styleUrl>#__managed_style_086F90F1552A02B379E7</styleUrl>
		<Point>
			<altitudeMode>relativeToGround</altitudeMode>
			<coordinates>104.1498854969208,17.62990345468112,0</coordinates>
		</Point>
	</Placemark>
	<Placemark id="0782133AF229F26D4427">
		<name>LT28-SG-2177-0100-13+803</name>
		<Camera>
			<gx:ViewerOptions>
				<gx:option name="streetview"></gx:option>
				<gx:streetViewPanoId>ueoga0Yb3CPkjoARcgh86w</gx:streetViewPanoId>
			</gx:ViewerOptions>
			<longitude>104.1494080407712</longitude>
			<latitude>17.62985157273183</latitude>
			<altitude>147.5780639648438</altitude>
			<heading>151.3368830825777</heading>
			<tilt>70.17150354376753</tilt>
			<roll>0</roll>
			<gx:fovy>15</gx:fovy>
			<altitudeMode>absolute</altitudeMode>
		</Camera>
		<styleUrl>#__managed_style_086F90F1552A02B379E7</styleUrl>
		<Point>
			<altitudeMode>relativeToGround</altitudeMode>
			<coordinates>104.1494477687795,17.62978982859689,0</coordinates>
		</Point>
	</Placemark>
	<Placemark id="08BEB8099B29F26E815A">
		<name>LT29-SG-2177-0100-13+840</name>
		<Camera>
			<gx:ViewerOptions>
				<gx:option name="streetview"></gx:option>
				<gx:streetViewPanoId>a98ZdF1JGFU-YSqiSOy2eA</gx:streetViewPanoId>
			</gx:ViewerOptions>
			<longitude>104.1491241691617</longitude>
			<latitude>17.62979978109768</latitude>
			<altitude>147.5613708496094</altitude>
			<heading>159.7508237680646</heading>
			<tilt>73.44467840876803</tilt>
			<roll>0</roll>
			<gx:fovy>15.96993689532117</gx:fovy>
			<altitudeMode>absolute</altitudeMode>
		</Camera>
		<styleUrl>#__managed_style_086F90F1552A02B379E7</styleUrl>
		<Point>
			<altitudeMode>relativeToGround</altitudeMode>
			<coordinates>104.1491563204859,17.62972708700102,0</coordinates>
		</Point>
	</Placemark>
	<Placemark id="0CD1EB433E29F26F7945">
		<name>LT30-SG-2177-0100-13+877</name>
		<Camera>
			<gx:ViewerOptions>
				<gx:option name="streetview"></gx:option>
				<gx:streetViewPanoId>JmLrRKEqK5KEFB7W9mCpLA</gx:streetViewPanoId>
			</gx:ViewerOptions>
			<longitude>104.1487324059972</longitude>
			<latitude>17.62980146125663</latitude>
			<altitude>147.2893371582031</altitude>
			<heading>202.3420068994884</heading>
			<tilt>81.8712235867503</tilt>
			<roll>0</roll>
			<gx:fovy>15</gx:fovy>
			<altitudeMode>absolute</altitudeMode>
		</Camera>
		<styleUrl>#__managed_style_086F90F1552A02B379E7</styleUrl>
		<Point>
			<altitudeMode>relativeToGround</altitudeMode>
			<coordinates>104.1486809011635,17.62964834376082,0</coordinates>
		</Point>
	</Placemark>
	<Placemark id="09ACF48F2E29F2713BBD">
		<name>LT31-SG-2177-0100-13+914</name>
		<Camera>
			<gx:ViewerOptions>
				<gx:option name="streetview"></gx:option>
				<gx:streetViewPanoId>egL0ZQ4MpnlgSZ1lfLQcpA</gx:streetViewPanoId>
			</gx:ViewerOptions>
			<longitude>104.1483511050748</longitude>
			<latitude>17.6298094388041</latitude>
			<altitude>147.1862182617188</altitude>
			<heading>167.8720047519508</heading>
			<tilt>81.95280302066116</tilt>
			<roll>0</roll>
			<gx:fovy>19.65581814804237</gx:fovy>
			<altitudeMode>absolute</altitudeMode>
		</Camera>
		<styleUrl>#__managed_style_086F90F1552A02B379E7</styleUrl>
		<Point>
			<altitudeMode>relativeToGround</altitudeMode>
			<coordinates>104.1483794545922,17.62967110695257,0</coordinates>
		</Point>
	</Placemark>
	<Placemark id="070524DDF129F273A70D">
		<name>LT32-SG-2177-0100-13+951</name>
		<Camera>
			<gx:ViewerOptions>
				<gx:option name="streetview"></gx:option>
				<gx:streetViewPanoId>hFqJ4qCf8LlyWPuPD571wQ</gx:streetViewPanoId>
			</gx:ViewerOptions>
			<longitude>104.1479712236366</longitude>
			<latitude>17.62984590322071</latitude>
			<altitude>147.2050476074219</altitude>
			<heading>197.7143004507132</heading>
			<tilt>79.4086372307314</tilt>
			<roll>0</roll>
			<gx:fovy>18.83173729630161</gx:fovy>
			<altitudeMode>absolute</altitudeMode>
		</Camera>
		<styleUrl>#__managed_style_086F90F1552A02B379E7</styleUrl>
		<Point>
			<altitudeMode>relativeToGround</altitudeMode>
			<coordinates>104.147933323943,17.62973588707631,0</coordinates>
		</Point>
	</Placemark>
	<Placemark id="042F048B2A29F275274A">
		<name>LT33-SG-2177-0100-13+998</name>
		<Camera>
			<gx:ViewerOptions>
				<gx:option name="streetview"></gx:option>
				<gx:streetViewPanoId>7GxdaJQAltOBEpeXgzIhcA</gx:streetViewPanoId>
			</gx:ViewerOptions>
			<longitude>104.1475923184042</longitude>
			<latitude>17.62989509124865</latitude>
			<altitude>147.1437225341489</altitude>
			<heading>206.6387447256632</heading>
			<tilt>78.46757567563303</tilt>
			<roll>0</roll>
			<gx:fovy>15</gx:fovy>
			<altitudeMode>absolute</altitudeMode>
		</Camera>
		<styleUrl>#__managed_style_086F90F1552A02B379E7</styleUrl>
		<Point>
			<altitudeMode>relativeToGround</altitudeMode>
			<coordinates>104.1475404536748,17.6298027211304,0</coordinates>
		</Point>
	</Placemark>
	<Placemark id="0ACE1151A629F27CE977">
		<name>RT38-SG-2177-0100-15+351</name>
		<Camera>
			<gx:ViewerOptions>
				<gx:option name="streetview"></gx:option>
				<gx:streetViewPanoId>UxsIn5NcO49IBNCYVIl59Q</gx:streetViewPanoId>
			</gx:ViewerOptions>
			<longitude>104.1348518875355</longitude>
			<latitude>17.6318588986874</latitude>
			<altitude>148.683944701586</altitude>
			<heading>331.9301332736857</heading>
			<tilt>73.37015636250626</tilt>
			<roll>0</roll>
			<gx:fovy>15</gx:fovy>
			<altitudeMode>absolute</altitudeMode>
		</Camera>
		<styleUrl>#__managed_style_086F90F1552A02B379E7</styleUrl>
		<Point>
			<altitudeMode>relativeToGround</altitudeMode>
			<coordinates>104.1347760442231,17.63198148726373,0</coordinates>
		</Point>
	</Placemark>
	<Placemark id="028A7F4DE429F27E2A15">
		<name>RT39-SG-2177-0100-15+388</name>
		<Camera>
			<gx:ViewerOptions>
				<gx:option name="streetview"></gx:option>
				<gx:streetViewPanoId>ToQKfwugFfGetNxvyp-SCQ</gx:streetViewPanoId>
			</gx:ViewerOptions>
			<longitude>104.1343835744194</longitude>
			<latitude>17.63194624446147</latitude>
			<altitude>148.7632904052734</altitude>
			<heading>29.27466864378583</heading>
			<tilt>64.65261118013859</tilt>
			<roll>0</roll>
			<gx:fovy>38.62910155574465</gx:fovy>
			<altitudeMode>absolute</altitudeMode>
		</Camera>
		<styleUrl>#__managed_style_086F90F1552A02B379E7</styleUrl>
		<Point>
			<altitudeMode>relativeToGround</altitudeMode>
			<coordinates>104.1343985505526,17.63197705989719,0</coordinates>
		</Point>
	</Placemark>
	<Placemark id="09E343782029F27EC7A8">
		<name>RT40-SG-2177-0100-15+425</name>
		<Camera>
			<gx:ViewerOptions>
				<gx:option name="streetview"></gx:option>
				<gx:streetViewPanoId>zrf8X_JerkkH8VoN03ZvcQ</gx:streetViewPanoId>
			</gx:ViewerOptions>
			<longitude>104.1340024894218</longitude>
			<latitude>17.6319790648982</latitude>
			<altitude>148.8881378173828</altitude>
			<heading>12.2333604038394</heading>
			<tilt>66.70304850134892</tilt>
			<roll>0</roll>
			<gx:fovy>27.15371631341705</gx:fovy>
			<altitudeMode>absolute</altitudeMode>
		</Camera>
		<styleUrl>#__managed_style_086F90F1552A02B379E7</styleUrl>
		<Point>
			<altitudeMode>relativeToGround</altitudeMode>
			<coordinates>104.1340213951712,17.63204898332686,0</coordinates>
		</Point>
	</Placemark>
	<Placemark id="06C056833D29F27FAC9F">
		<name>RT41-SG-2177-0100-15+462</name>
		<Camera>
			<gx:ViewerOptions>
				<gx:option name="streetview"></gx:option>
				<gx:streetViewPanoId>b2870xi6B9RQ0nJDBWwA1g</gx:streetViewPanoId>
			</gx:ViewerOptions>
			<longitude>104.1337208648112</longitude>
			<latitude>17.63202301054451</latitude>
			<altitude>148.9864959716797</altitude>
			<heading>334.4444355579154</heading>
			<tilt>74.52121353494539</tilt>
			<roll>0</roll>
			<gx:fovy>15</gx:fovy>
			<altitudeMode>absolute</altitudeMode>
		</Camera>
		<styleUrl>#__managed_style_086F90F1552A02B379E7</styleUrl>
		<Point>
			<altitudeMode>relativeToGround</altitudeMode>
			<coordinates>104.1336856346095,17.63208644881539,0</coordinates>
		</Point>
	</Placemark>
	<Placemark id="0341EC4A1229F2802BA4">
		<name>RT42-SG-2177-0100-15+499</name>
		<Camera>
			<gx:ViewerOptions>
				<gx:option name="streetview"></gx:option>
				<gx:streetViewPanoId>7VRvEHXYC6JG0G-aYguwBQ</gx:streetViewPanoId>
			</gx:ViewerOptions>
			<longitude>104.1333411112665</longitude>
			<latitude>17.63207850112623</latitude>
			<altitude>149.0833282470703</altitude>
			<heading>5.372823884908748</heading>
			<tilt>74.05717559118882</tilt>
			<roll>0</roll>
			<gx:fovy>21.65404753278697</gx:fovy>
			<altitudeMode>absolute</altitudeMode>
		</Camera>
		<styleUrl>#__managed_style_086F90F1552A02B379E7</styleUrl>
		<Point>
			<altitudeMode>relativeToGround</altitudeMode>
			<coordinates>104.1333432058519,17.63213949319752,0</coordinates>
		</Point>
	</Placemark>
	<Placemark id="0BC9C9E53729F280A599">
		<name>RT43-SG-2177-0100-15+536</name>
		<Camera>
			<gx:ViewerOptions>
				<gx:option name="streetview"></gx:option>
				<gx:streetViewPanoId>R3MHvjYCX9FC8ayVTV6xGw</gx:streetViewPanoId>
			</gx:ViewerOptions>
			<longitude>104.1330596652613</longitude>
			<latitude>17.63214661312243</latitude>
			<altitude>149.1080932617188</altitude>
			<heading>312.815554548479</heading>
			<tilt>72.36978840653249</tilt>
			<roll>0</roll>
			<gx:fovy>15.78026180889179</gx:fovy>
			<altitudeMode>absolute</altitudeMode>
		</Camera>
		<styleUrl>#__managed_style_086F90F1552A02B379E7</styleUrl>
		<Point>
			<altitudeMode>relativeToGround</altitudeMode>
			<coordinates>104.1330254949672,17.63217774462538,0</coordinates>
		</Point>
	</Placemark>
	<Placemark id="0176C6F35929F2810C34">
		<name>RT44-SG-2177-0100-15+573</name>
		<Camera>
			<gx:ViewerOptions>
				<gx:option name="streetview"></gx:option>
				<gx:streetViewPanoId>NO1KRfpfUfDvfg7v0S_rrg</gx:streetViewPanoId>
			</gx:ViewerOptions>
			<longitude>104.1326829273908</longitude>
			<latitude>17.63220929631639</latitude>
			<altitude>149.1856536865234</altitude>
			<heading>0.1749519736672755</heading>
			<tilt>64.25091379237939</tilt>
			<roll>0</roll>
			<gx:fovy>35.4885535359324</gx:fovy>
			<altitudeMode>absolute</altitudeMode>
		</Camera>
		<styleUrl>#__managed_style_086F90F1552A02B379E7</styleUrl>
		<Point>
			<altitudeMode>relativeToGround</altitudeMode>
			<coordinates>104.1326788898998,17.63223621741934,0</coordinates>
		</Point>
	</Placemark>
	<Placemark id="01EF1803BB29F2817297">
		<name>RT45-SG-2177-0100-15+610</name>
		<Camera>
			<gx:ViewerOptions>
				<gx:option name="streetview"></gx:option>
				<gx:streetViewPanoId>IdPrYeeuUmnKN0N6frOhSQ</gx:streetViewPanoId>
			</gx:ViewerOptions>
			<longitude>104.1323975823634</longitude>
			<latitude>17.6322197113673</latitude>
			<altitude>149.3013763427734</altitude>
			<heading>331.7627792949132</heading>
			<tilt>69.92816635782903</tilt>
			<roll>0</roll>
			<gx:fovy>25.96508034722087</gx:fovy>
			<altitudeMode>absolute</altitudeMode>
		</Camera>
		<styleUrl>#__managed_style_086F90F1552A02B379E7</styleUrl>
		<Point>
			<altitudeMode>relativeToGround</altitudeMode>
			<coordinates>104.1323458578703,17.63228987126583,0</coordinates>
		</Point>
	</Placemark>
	<Placemark id="0E4D34C34A29F281E203">
		<name>RT46-SG-2177-0100-15+647</name>
		<Camera>
			<gx:ViewerOptions>
				<gx:option name="streetview"></gx:option>
				<gx:streetViewPanoId>Ame2gSxYsBcNqdIdWCf8uw</gx:streetViewPanoId>
			</gx:ViewerOptions>
			<longitude>104.1320196052451</longitude>
			<latitude>17.63231266469206</latitude>
			<altitude>149.4277038574219</altitude>
			<heading>346.9469186886331</heading>
			<tilt>72.94830012733992</tilt>
			<roll>0</roll>
			<gx:fovy>60.04292112000092</gx:fovy>
			<altitudeMode>absolute</altitudeMode>
		</Camera>
		<styleUrl>#__managed_style_086F90F1552A02B379E7</styleUrl>
		<Point>
			<altitudeMode>relativeToGround</altitudeMode>
			<coordinates>104.1320157013331,17.63233343704398,0</coordinates>
		</Point>
	</Placemark>
	<Placemark id="00B03E156429F28251C7">
		<name>RT47-SG-2177-0100-15+684</name>
		<Camera>
			<gx:ViewerOptions>
				<gx:option name="streetview"></gx:option>
				<gx:streetViewPanoId>eawt2-mNyTQNef3So3aAUQ</gx:streetViewPanoId>
			</gx:ViewerOptions>
			<longitude>104.1316451748745</longitude>
			<latitude>17.63234049647756</latitude>
			<altitude>149.5659637451172</altitude>
			<heading>30.33479498399902</heading>
			<tilt>72.1332455131288</tilt>
			<roll>0</roll>
			<gx:fovy>15</gx:fovy>
			<altitudeMode>absolute</altitudeMode>
		</Camera>
		<styleUrl>#__managed_style_086F90F1552A02B379E7</styleUrl>
		<Point>
			<altitudeMode>relativeToGround</altitudeMode>
			<coordinates>104.1316756293549,17.63239333226841,0</coordinates>
		</Point>
	</Placemark>
	<Placemark id="05DF9708C129F283A71A">
		<name>RT48-SG-2177-0100-15+721</name>
		<Camera>
			<gx:ViewerOptions>
				<gx:option name="streetview"></gx:option>
				<gx:streetViewPanoId>j1mBEFvZHRDWHhygSUs27A</gx:streetViewPanoId>
			</gx:ViewerOptions>
			<longitude>104.1313608070169</longitude>
			<latitude>17.63238437377611</latitude>
			<altitude>149.6246795654297</altitude>
			<heading>343.0266319291479</heading>
			<tilt>77.91612772285235</tilt>
			<roll>0</roll>
			<gx:fovy>22.48901773444468</gx:fovy>
			<altitudeMode>absolute</altitudeMode>
		</Camera>
		<styleUrl>#__managed_style_086F90F1552A02B379E7</styleUrl>
		<Point>
			<altitudeMode>relativeToGround</altitudeMode>
			<coordinates>104.1313465771862,17.63244512484066,0</coordinates>
		</Point>
	</Placemark>
	<Placemark id="0DD5EB457A29F285894F">
		<name>RT49-SG-2177-0100-15+758</name>
		<Camera>
			<gx:ViewerOptions>
				<gx:option name="streetview"></gx:option>
				<gx:streetViewPanoId>8I0koZamQYkxazrkr5K-Ew</gx:streetViewPanoId>
			</gx:ViewerOptions>
			<longitude>104.1309866443198</longitude>
			<latitude>17.63244783768172</latitude>
			<altitude>149.7902526855469</altitude>
			<heading>25.63812835914529</heading>
			<tilt>70.78420823946165</tilt>
			<roll>0</roll>
			<gx:fovy>18.99712471423452</gx:fovy>
			<altitudeMode>absolute</altitudeMode>
		</Camera>
		<styleUrl>#__managed_style_086F90F1552A02B379E7</styleUrl>
		<Point>
			<altitudeMode>relativeToGround</altitudeMode>
			<coordinates>104.1310064002126,17.63249618740404,0</coordinates>
		</Point>
	</Placemark>
	<Placemark id="06D915E1BE29F286184B">
		<name>RT50-SG-2177-0100-15+795</name>
		<Camera>
			<gx:ViewerOptions>
				<gx:option name="streetview"></gx:option>
				<gx:streetViewPanoId>-jISWQhhj6x_1Y6N9AF26g</gx:streetViewPanoId>
			</gx:ViewerOptions>
			<longitude>104.1307051143576</longitude>
			<latitude>17.63249653812793</latitude>
			<altitude>149.9334564208984</altitude>
			<heading>336.5469051701207</heading>
			<tilt>72.1293990963559</tilt>
			<roll>0</roll>
			<gx:fovy>19.85751532018163</gx:fovy>
			<altitudeMode>absolute</altitudeMode>
		</Camera>
		<styleUrl>#__managed_style_086F90F1552A02B379E7</styleUrl>
		<Point>
			<altitudeMode>relativeToGround</altitudeMode>
			<coordinates>104.1306790945583,17.63254841874547,0</coordinates>
		</Point>
	</Placemark>
	<Placemark id="079DB8EA9B29F2868B1B">
		<name>RT51-SG-2177-0100-15+832</name>
		<Camera>
			<gx:ViewerOptions>
				<gx:option name="streetview"></gx:option>
				<gx:streetViewPanoId>uQG7-azyQK2AEo72t68dZQ</gx:streetViewPanoId>
			</gx:ViewerOptions>
			<longitude>104.1303315738939</longitude>
			<latitude>17.63257116346047</latitude>
			<altitude>150.2186889648438</altitude>
			<heading>316.9108493672979</heading>
			<tilt>70.46169424780602</tilt>
			<roll>0</roll>
			<gx:fovy>15.74023383126158</gx:fovy>
			<altitudeMode>absolute</altitudeMode>
		</Camera>
		<styleUrl>#__managed_style_086F90F1552A02B379E7</styleUrl>
		<Point>
			<altitudeMode>relativeToGround</altitudeMode>
			<coordinates>104.1302924023614,17.63261336510393,0</coordinates>
		</Point>
	</Placemark>
	<Placemark id="08746C4E4E29F2882892">
		<name>RT52-SG-2177-0100-15+869</name>
		<Camera>
			<gx:ViewerOptions>
				<gx:option name="streetview"></gx:option>
				<gx:streetViewPanoId>ywyS9T9CChU-POfpsoa-og</gx:streetViewPanoId>
			</gx:ViewerOptions>
			<longitude>104.1299567934239</longitude>
			<latitude>17.63262787535836</latitude>
			<altitude>150.5747985839844</altitude>
			<heading>307.0245234102445</heading>
			<tilt>77.59039924062142</tilt>
			<roll>0</roll>
			<gx:fovy>15.97036210555803</gx:fovy>
			<altitudeMode>absolute</altitudeMode>
		</Camera>
		<styleUrl>#__managed_style_086F90F1552A02B379E7</styleUrl>
		<Point>
			<altitudeMode>relativeToGround</altitudeMode>
			<coordinates>104.1299005958089,17.63267224136318,0</coordinates>
		</Point>
	</Placemark>
	<Placemark id="0D31E5E1B529F28A5471">
		<name>LT34-SG-2177-0100-15+906</name>
		<Camera>
			<gx:ViewerOptions>
				<gx:option name="streetview"></gx:option>
				<gx:streetViewPanoId>HEOdAQY8vdwa1xhg3ph3kA</gx:streetViewPanoId>
			</gx:ViewerOptions>
			<longitude>104.1292017396663</longitude>
			<latitude>17.63272519363643</latitude>
			<altitude>151.0409088134766</altitude>
			<heading>188.2602532724251</heading>
			<tilt>81.08561836271022</tilt>
			<roll>0</roll>
			<gx:fovy>60.00001499561243</gx:fovy>
			<altitudeMode>absolute</altitudeMode>
		</Camera>
		<styleUrl>#__managed_style_086F90F1552A02B379E7</styleUrl>
		<Point>
			<altitudeMode>relativeToGround</altitudeMode>
			<coordinates>104.1292109804633,17.63269040265046,0</coordinates>
		</Point>
	</Placemark>
	<Placemark id="0552BC0F9929F28AFFE0">
		<name>LT35-SG-2177-0100-15+943</name>
		<Camera>
			<gx:ViewerOptions>
				<gx:option name="streetview"></gx:option>
				<gx:streetViewPanoId>IWBnLZseXPt9JsxiadzQzg</gx:streetViewPanoId>
			</gx:ViewerOptions>
			<longitude>104.1288243915832</longitude>
			<latitude>17.63277564791222</latitude>
			<altitude>151.2478332519531</altitude>
			<heading>233.081466050434</heading>
			<tilt>71.57916728727805</tilt>
			<roll>0</roll>
			<gx:fovy>16.37338482804126</gx:fovy>
			<altitudeMode>absolute</altitudeMode>
		</Camera>
		<styleUrl>#__managed_style_086F90F1552A02B379E7</styleUrl>
		<Point>
			<altitudeMode>relativeToGround</altitudeMode>
			<coordinates>104.128798498409,17.63275950123475,0</coordinates>
		</Point>
	</Placemark>
	<Placemark id="06AC0DB04C29F28B8F23">
		<name>LT36-SG-2177-0100-15+980</name>
		<Camera>
			<gx:ViewerOptions>
				<gx:option name="streetview"></gx:option>
				<gx:streetViewPanoId>mJZEVz3w8EoTlL6G7-g5ZQ</gx:streetViewPanoId>
			</gx:ViewerOptions>
			<longitude>104.1283546801665</longitude>
			<latitude>17.63284613888267</latitude>
			<altitude>151.3957214355469</altitude>
			<heading>231.3497532493247</heading>
			<tilt>72.30260413938144</tilt>
			<roll>0</roll>
			<gx:fovy>60.00000036585947</gx:fovy>
			<altitudeMode>absolute</altitudeMode>
		</Camera>
		<styleUrl>#__managed_style_086F90F1552A02B379E7</styleUrl>
		<Point>
			<altitudeMode>relativeToGround</altitudeMode>
			<coordinates>104.1283122323089,17.63280704996449,0</coordinates>
		</Point>
	</Placemark>
	<Placemark id="035FCD659C29F28CEFF6">
		<name>LT37-SG-2177-0100-16+017</name>
		<Camera>
			<gx:ViewerOptions>
				<gx:option name="streetview"></gx:option>
				<gx:streetViewPanoId>nq_V4VPLY5FvNOTKZUUVBQ</gx:streetViewPanoId>
			</gx:ViewerOptions>
			<longitude>104.1279793730909</longitude>
			<latitude>17.6329037681747</latitude>
			<altitude>151.6023406982422</altitude>
			<heading>229.9052780356407</heading>
			<tilt>71.86517181649712</tilt>
			<roll>0</roll>
			<gx:fovy>15</gx:fovy>
			<altitudeMode>absolute</altitudeMode>
		</Camera>
		<styleUrl>#__managed_style_086F90F1552A02B379E7</styleUrl>
		<Point>
			<altitudeMode>relativeToGround</altitudeMode>
			<coordinates>104.1279598424732,17.63288282497845,0</coordinates>
		</Point>
	</Placemark>
	<Placemark id="0650DA06CC29F28D8219">
		<name>LT38-SG-2177-0100-16+054</name>
		<Camera>
			<gx:ViewerOptions>
				<gx:option name="streetview"></gx:option>
				<gx:streetViewPanoId>6Hvde6_8w9xJOPLus571TA</gx:streetViewPanoId>
			</gx:ViewerOptions>
			<longitude>104.1275060302078</longitude>
			<latitude>17.63297337395854</latitude>
			<altitude>151.816650390625</altitude>
			<heading>149.1992946754706</heading>
			<tilt>78.18757229333124</tilt>
			<roll>0</roll>
			<gx:fovy>32.42236772639829</gx:fovy>
			<altitudeMode>absolute</altitudeMode>
		</Camera>
		<styleUrl>#__managed_style_086F90F1552A02B379E7</styleUrl>
		<Point>
			<altitudeMode>relativeToGround</altitudeMode>
			<coordinates>104.1275219078048,17.63294991901866,0</coordinates>
		</Point>
	</Placemark>
	<Placemark id="059D2874E329F2965929">
		<name>LT39-SG-2177-0100-16+091</name>
		<Camera>
			<gx:ViewerOptions>
				<gx:option name="streetview"></gx:option>
				<gx:streetViewPanoId>fL0-KJYy2BxSYghcR4BwUw</gx:streetViewPanoId>
			</gx:ViewerOptions>
			<longitude>104.1271279775271</longitude>
			<latitude>17.63302978929382</latitude>
			<altitude>151.9174041748047</altitude>
			<heading>216.0720655722272</heading>
			<tilt>72.60043461212861</tilt>
			<roll>0</roll>
			<gx:fovy>15</gx:fovy>
			<altitudeMode>absolute</altitudeMode>
		</Camera>
		<styleUrl>#__managed_style_086F90F1552A02B379E7</styleUrl>
		<Point>
			<altitudeMode>relativeToGround</altitudeMode>
			<coordinates>104.1271171906779,17.63301526000349,0</coordinates>
		</Point>
	</Placemark>
	<Placemark id="0BAFA8675429F296C89B">
		<name>LT40-SG-2177-0100-16+128</name>
		<Camera>
			<gx:ViewerOptions>
				<gx:option name="streetview"></gx:option>
				<gx:streetViewPanoId>54_D6aEiEaEyZyQ_I1BtxA</gx:streetViewPanoId>
			</gx:ViewerOptions>
			<longitude>104.126752407788</longitude>
			<latitude>17.6330903478771</latitude>
			<altitude>152.0630340579349</altitude>
			<heading>253.6083008005047</heading>
			<tilt>74.61207440269874</tilt>
			<roll>0</roll>
			<gx:fovy>15</gx:fovy>
			<altitudeMode>absolute</altitudeMode>
		</Camera>
		<styleUrl>#__managed_style_086F90F1552A02B379E7</styleUrl>
		<Point>
			<altitudeMode>relativeToGround</altitudeMode>
			<coordinates>104.1266989972966,17.63307418916719,0</coordinates>
		</Point>
	</Placemark>
	<Placemark id="036D6E230429F297506F">
		<name>LT41-SG-2177-0100-16+165</name>
		<Camera>
			<gx:ViewerOptions>
				<gx:option name="streetview"></gx:option>
				<gx:streetViewPanoId>ObUH8HOW12UDElXWhhjymw</gx:streetViewPanoId>
			</gx:ViewerOptions>
			<longitude>104.126279423575</longitude>
			<latitude>17.6331633667692</latitude>
			<altitude>152.1625518798828</altitude>
			<heading>200.1373287623132</heading>
			<tilt>72.17494851186274</tilt>
			<roll>0</roll>
			<gx:fovy>35.38679823758356</gx:fovy>
			<altitudeMode>absolute</altitudeMode>
		</Camera>
		<styleUrl>#__managed_style_086F90F1552A02B379E7</styleUrl>
		<Point>
			<altitudeMode>relativeToGround</altitudeMode>
			<coordinates>104.1262722701754,17.63313807668905,0</coordinates>
		</Point>
	</Placemark>
	<Placemark id="02BA7B8DC729F297D35B">
		<name>LT42-SG-2177-0100-16+294</name>
		<Camera>
			<gx:ViewerOptions>
				<gx:option name="streetview"></gx:option>
				<gx:streetViewPanoId>2R3HNkztzVDnzFSMxg12dQ</gx:streetViewPanoId>
			</gx:ViewerOptions>
			<longitude>104.1251434169857</longitude>
			<latitude>17.63333450389555</latitude>
			<altitude>152.2803955078125</altitude>
			<heading>229.2339293653486</heading>
			<tilt>78.66275870446165</tilt>
			<roll>0</roll>
			<gx:fovy>28.18270283425239</gx:fovy>
			<altitudeMode>absolute</altitudeMode>
		</Camera>
		<styleUrl>#__managed_style_086F90F1552A02B379E7</styleUrl>
		<Point>
			<altitudeMode>relativeToGround</altitudeMode>
			<coordinates>104.1250865456255,17.63329581069365,0</coordinates>
		</Point>
	</Placemark>
	<Placemark id="05F31062B929F29BB496">
		<name>LT43-SG-2177-0100-16+331</name>
		<Camera>
			<gx:ViewerOptions>
				<gx:option name="streetview"></gx:option>
				<gx:streetViewPanoId>-cJlxpB3EPeqlwenDmVdEg</gx:streetViewPanoId>
			</gx:ViewerOptions>
			<longitude>104.1247682957172</longitude>
			<latitude>17.63339502657338</latitude>
			<altitude>152.3112182612298</altitude>
			<heading>254.7031254257612</heading>
			<tilt>77.75624511676787</tilt>
			<roll>0</roll>
			<gx:fovy>15</gx:fovy>
			<altitudeMode>absolute</altitudeMode>
		</Camera>
		<styleUrl>#__managed_style_086F90F1552A02B379E7</styleUrl>
		<Point>
			<altitudeMode>relativeToGround</altitudeMode>
			<coordinates>104.1246869029384,17.633367347031,0</coordinates>
		</Point>
	</Placemark>
	<Placemark id="0017D5B4C229F29C809C">
		<name>LT44-SG-2177-0100-16+368</name>
		<Camera>
			<gx:ViewerOptions>
				<gx:option name="streetview"></gx:option>
				<gx:streetViewPanoId>9xdcxb3E-Sie2w_mhnqf_w</gx:streetViewPanoId>
			</gx:ViewerOptions>
			<longitude>104.123919135467</longitude>
			<latitude>17.63353658181307</latitude>
			<altitude>152.4506072998047</altitude>
			<heading>246.5977053904295</heading>
			<tilt>91.36368603741965</tilt>
			<roll>0</roll>
			<gx:fovy>59.99999999999302</gx:fovy>
			<altitudeMode>absolute</altitudeMode>
		</Camera>
		<styleUrl>#__managed_style_086F90F1552A02B379E7</styleUrl>
		<Point>
			<altitudeMode>relativeToGround</altitudeMode>
			<coordinates>104.1238674635071,17.63351351953596,0</coordinates>
		</Point>
	</Placemark>
	<Placemark id="0B67A5EAB429F29D98D9">
		<name>LT45-SG-2177-0100-16+405</name>
		<Camera>
			<gx:ViewerOptions>
				<gx:option name="streetview"></gx:option>
				<gx:streetViewPanoId>-nP7iuvNrcUEdfwUY2-_Qw</gx:streetViewPanoId>
			</gx:ViewerOptions>
			<longitude>104.1234934935963</longitude>
			<latitude>17.63360147835681</latitude>
			<altitude>152.6100616455078</altitude>
			<heading>239.144218074085</heading>
			<tilt>87.29803887876446</tilt>
			<roll>0</roll>
			<gx:fovy>59.99999999999999</gx:fovy>
			<altitudeMode>absolute</altitudeMode>
		</Camera>
		<styleUrl>#__managed_style_086F90F1552A02B379E7</styleUrl>
		<Point>
			<altitudeMode>relativeToGround</altitudeMode>
			<coordinates>104.1234354502979,17.63356482333079,0</coordinates>
		</Point>
	</Placemark>
	<Placemark id="03251DD78B29F29E2FB0">
		<name>LT46-SG-2177-0100-16+442</name>
		<Camera>
			<gx:ViewerOptions>
				<gx:option name="streetview"></gx:option>
				<gx:streetViewPanoId>HD5az9J1e4-iL8uoX-PxPA</gx:streetViewPanoId>
			</gx:ViewerOptions>
			<longitude>104.123114919824</longitude>
			<latitude>17.6336601310278</latitude>
			<altitude>152.8730926513672</altitude>
			<heading>256.1522629147358</heading>
			<tilt>83.86259578021372</tilt>
			<roll>0</roll>
			<gx:fovy>30.32751810884175</gx:fovy>
			<altitudeMode>absolute</altitudeMode>
		</Camera>
		<styleUrl>#__managed_style_086F90F1552A02B379E7</styleUrl>
		<Point>
			<altitudeMode>relativeToGround</altitudeMode>
			<coordinates>104.1230115216743,17.633629100035,0</coordinates>
		</Point>
	</Placemark>
	<Placemark id="0F23D18CF829F29ED29E">
		<name>LT47-SG-2177-0100-16+479</name>
		<Camera>
			<gx:ViewerOptions>
				<gx:option name="streetview"></gx:option>
				<gx:streetViewPanoId>5ENKz7bpE6lteX67GdBMTw</gx:streetViewPanoId>
			</gx:ViewerOptions>
			<longitude>104.1226415932384</longitude>
			<latitude>17.63373316708758</latitude>
			<altitude>153.2853546142578</altitude>
			<heading>236.7895246355861</heading>
			<tilt>86.06079427134092</tilt>
			<roll>0</roll>
			<gx:fovy>59.98770987861689</gx:fovy>
			<altitudeMode>absolute</altitudeMode>
		</Camera>
		<styleUrl>#__managed_style_086F90F1552A02B379E7</styleUrl>
		<Point>
			<altitudeMode>relativeToGround</altitudeMode>
			<coordinates>104.1225941724188,17.63369288836859,0</coordinates>
		</Point>
	</Placemark>
	<Placemark id="0C59206E8329F2A379AA">
		<name>RT53-SG-2177-0100-20+988</name>
		<Camera>
			<gx:ViewerOptions>
				<gx:option name="streetview"></gx:option>
				<gx:streetViewPanoId>bAoAs_WxBtOpUKdu18a2yg</gx:streetViewPanoId>
			</gx:ViewerOptions>
			<longitude>104.0826530092703</longitude>
			<latitude>17.63210207914552</latitude>
			<altitude>151.5705261230469</altitude>
			<heading>321.2797519675514</heading>
			<tilt>80.69407129173115</tilt>
			<roll>0</roll>
			<gx:fovy>17.77934312482428</gx:fovy>
			<altitudeMode>absolute</altitudeMode>
		</Camera>
		<styleUrl>#__managed_style_086F90F1552A02B379E7</styleUrl>
		<Point>
			<altitudeMode>relativeToGround</altitudeMode>
			<coordinates>104.0825220344791,17.63227785877001,0</coordinates>
		</Point>
	</Placemark>
	<Placemark id="004A3F93A829F2A48C2D">
		<name>RT54-SG-2177-0100-21+025</name>
		<Camera>
			<gx:ViewerOptions>
				<gx:option name="streetview"></gx:option>
				<gx:streetViewPanoId>BXijD8OH_rIvdT9ME_gEZA</gx:streetViewPanoId>
			</gx:ViewerOptions>
			<longitude>104.0821768944554</longitude>
			<latitude>17.63212755445944</latitude>
			<altitude>151.5635223388672</altitude>
			<heading>354.6405562470129</heading>
			<tilt>77.27318199329331</tilt>
			<roll>0</roll>
			<gx:fovy>15</gx:fovy>
			<altitudeMode>absolute</altitudeMode>
		</Camera>
		<styleUrl>#__managed_style_086F90F1552A02B379E7</styleUrl>
		<Point>
			<altitudeMode>relativeToGround</altitudeMode>
			<coordinates>104.0821584505551,17.63231452917257,0</coordinates>
		</Point>
	</Placemark>
	<Placemark id="089FA11F3429F2A68603">
		<name>RT55-SG-2177-0100-21+062</name>
		<Camera>
			<gx:ViewerOptions>
				<gx:option name="streetview"></gx:option>
				<gx:streetViewPanoId>wYvo9TguCcNMmIKGEoFnDA</gx:streetViewPanoId>
			</gx:ViewerOptions>
			<longitude>104.0817965708831</longitude>
			<latitude>17.63213461784269</latitude>
			<altitude>151.6549987792969</altitude>
			<heading>323.7115407075873</heading>
			<tilt>81.38772529805046</tilt>
			<roll>0</roll>
			<gx:fovy>15</gx:fovy>
			<altitudeMode>absolute</altitudeMode>
		</Camera>
		<styleUrl>#__managed_style_086F90F1552A02B379E7</styleUrl>
		<Point>
			<altitudeMode>relativeToGround</altitudeMode>
			<coordinates>104.0816977577902,17.63231391712416,0</coordinates>
		</Point>
	</Placemark>
	<Placemark id="02239600CB29F2A70757">
		<name>RT56-SG-2177-0100-21+099</name>
		<Camera>
			<gx:ViewerOptions>
				<gx:option name="streetview"></gx:option>
				<gx:streetViewPanoId>XlN-SO6rRN7OZIKBexGGIA</gx:streetViewPanoId>
			</gx:ViewerOptions>
			<longitude>104.0813897534026</longitude>
			<latitude>17.63215065997635</latitude>
			<altitude>151.8301696777344</altitude>
			<heading>296.9009274700053</heading>
			<tilt>79.84058852517728</tilt>
			<roll>0</roll>
			<gx:fovy>15.83041491050233</gx:fovy>
			<altitudeMode>absolute</altitudeMode>
		</Camera>
		<styleUrl>#__managed_style_086F90F1552A02B379E7</styleUrl>
		<Point>
			<altitudeMode>relativeToGround</altitudeMode>
			<coordinates>104.0811418590022,17.6322822085253,0</coordinates>
		</Point>
	</Placemark>
	<Placemark id="06EF3AEDAF29F2A827B9">
		<name>RT57-SG-2177-0100-21+136</name>
		<Camera>
			<gx:ViewerOptions>
				<gx:option name="streetview"></gx:option>
				<gx:streetViewPanoId>KkaO3pOlo6ffL8FOFtByJA</gx:streetViewPanoId>
			</gx:ViewerOptions>
			<longitude>104.0809911779772</longitude>
			<latitude>17.63208048840486</latitude>
			<altitude>151.5832977294922</altitude>
			<heading>310.3418278536953</heading>
			<tilt>81.4610009183821</tilt>
			<roll>0</roll>
			<gx:fovy>16.85563192616529</gx:fovy>
			<altitudeMode>absolute</altitudeMode>
		</Camera>
		<styleUrl>#__managed_style_086F90F1552A02B379E7</styleUrl>
		<Point>
			<altitudeMode>relativeToGround</altitudeMode>
			<coordinates>104.0808805938573,17.6322545734576,0</coordinates>
		</Point>
	</Placemark>
	<Placemark id="003C73D3C329F2AA2461">
		<name>RT58-SG-2177-0100-21+173</name>
		<Camera>
			<gx:ViewerOptions>
				<gx:option name="streetview"></gx:option>
				<gx:streetViewPanoId>onmtG71XOtYDaTXG99aA5w</gx:streetViewPanoId>
			</gx:ViewerOptions>
			<longitude>104.080544664966</longitude>
			<latitude>17.63202896813813</latitude>
			<altitude>151.5662994384766</altitude>
			<heading>313.3640537260028</heading>
			<tilt>79.86070769392185</tilt>
			<roll>0</roll>
			<gx:fovy>16.28330401440127</gx:fovy>
			<altitudeMode>absolute</altitudeMode>
		</Camera>
		<styleUrl>#__managed_style_086F90F1552A02B379E7</styleUrl>
		<Point>
			<altitudeMode>relativeToGround</altitudeMode>
			<coordinates>104.0804114513215,17.63217226180404,0</coordinates>
		</Point>
	</Placemark>
	<Placemark id="0F783745A529F2AAA9B2">
		<name>RT59-SG-2177-0100-21+210</name>
		<Camera>
			<gx:ViewerOptions>
				<gx:option name="streetview"></gx:option>
				<gx:streetViewPanoId>SdqVzb1qjAdgKJYVk6JWIA</gx:streetViewPanoId>
			</gx:ViewerOptions>
			<longitude>104.0801044447569</longitude>
			<latitude>17.6319095571916</latitude>
			<altitude>151.4214630126953</altitude>
			<heading>330.5787765000688</heading>
			<tilt>78.21742476500556</tilt>
			<roll>0</roll>
			<gx:fovy>15</gx:fovy>
			<altitudeMode>absolute</altitudeMode>
		</Camera>
		<styleUrl>#__managed_style_086F90F1552A02B379E7</styleUrl>
		<Point>
			<altitudeMode>relativeToGround</altitudeMode>
			<coordinates>104.0800093038755,17.63209271853778,0</coordinates>
		</Point>
	</Placemark>
	<Placemark id="09934EFFA729F2ABC942">
		<name>RT60-SG-2177-0100-21+247</name>
		<Camera>
			<gx:ViewerOptions>
				<gx:option name="streetview"></gx:option>
				<gx:streetViewPanoId>MRK04nTD4ie8T63sNRWj6Q</gx:streetViewPanoId>
			</gx:ViewerOptions>
			<longitude>104.0796589092843</longitude>
			<latitude>17.63181056567362</latitude>
			<altitude>151.4770355224609</altitude>
			<heading>10.52448047880644</heading>
			<tilt>79.12826047349039</tilt>
			<roll>0</roll>
			<gx:fovy>60.00000000329194</gx:fovy>
			<altitudeMode>absolute</altitudeMode>
		</Camera>
		<styleUrl>#__managed_style_086F90F1552A02B379E7</styleUrl>
		<Point>
			<altitudeMode>relativeToGround</altitudeMode>
			<coordinates>104.0796784135112,17.63200997918438,0</coordinates>
		</Point>
	</Placemark>
	<Placemark id="039EE5E67529F2ACD24C">
		<name>RT61-SG-2177-0100-21+284</name>
		<Camera>
			<gx:ViewerOptions>
				<gx:option name="streetview"></gx:option>
				<gx:streetViewPanoId>DLuDbyGn56wBwPAkyLR76w</gx:streetViewPanoId>
			</gx:ViewerOptions>
			<longitude>104.079300124885</longitude>
			<latitude>17.63168393228639</latitude>
			<altitude>151.4480438232422</altitude>
			<heading>311.9317222101558</heading>
			<tilt>84.35132488208056</tilt>
			<roll>0</roll>
			<gx:fovy>60.00572607596776</gx:fovy>
			<altitudeMode>absolute</altitudeMode>
		</Camera>
		<styleUrl>#__managed_style_086F90F1552A02B379E7</styleUrl>
		<Point>
			<altitudeMode>relativeToGround</altitudeMode>
			<coordinates>104.0791780065454,17.63179869049956,0</coordinates>
		</Point>
	</Placemark>
	<Placemark id="018EA0973B29F2B0157B">
		<name>LT48-SG-2177-0100-24+511</name>
		<Camera>
			<gx:ViewerOptions>
				<gx:option name="streetview"></gx:option>
				<gx:streetViewPanoId>BX0bv7qa4DTAmdTkT6GE0w</gx:streetViewPanoId>
			</gx:ViewerOptions>
			<longitude>104.0532162389008</longitude>
			<latitude>17.61775848545028</latitude>
			<altitude>154.7198028564453</altitude>
			<heading>113.6082964676103</heading>
			<tilt>74.59164322850246</tilt>
			<roll>0</roll>
			<gx:fovy>15</gx:fovy>
			<altitudeMode>absolute</altitudeMode>
		</Camera>
		<styleUrl>#__managed_style_086F90F1552A02B379E7</styleUrl>
		<Point>
			<altitudeMode>relativeToGround</altitudeMode>
			<coordinates>104.0532889722879,17.61772309993418,0</coordinates>
		</Point>
	</Placemark>
	<Placemark id="06A968179329F2B113F3">
		<name>LT49-SG-2177-0100-24+548</name>
		<Camera>
			<gx:ViewerOptions>
				<gx:option name="streetview"></gx:option>
				<gx:streetViewPanoId>TFaebWMvXpISjBXNAQEM5Q</gx:streetViewPanoId>
			</gx:ViewerOptions>
			<longitude>104.0529244991296</longitude>
			<latitude>17.61751007171184</latitude>
			<altitude>154.8554382324219</altitude>
			<heading>136.3943767117864</heading>
			<tilt>78.0066799039321</tilt>
			<roll>0</roll>
			<gx:fovy>23.38465927016636</gx:fovy>
			<altitudeMode>absolute</altitudeMode>
		</Camera>
		<styleUrl>#__managed_style_086F90F1552A02B379E7</styleUrl>
		<Point>
			<altitudeMode>relativeToGround</altitudeMode>
			<coordinates>104.0529727442379,17.61745991619858,0</coordinates>
		</Point>
	</Placemark>
	<Placemark id="0A29016CA529F2B1A1DA">
		<name>LT50-SG-2177-0100-24+585</name>
		<Camera>
			<gx:ViewerOptions>
				<gx:option name="streetview"></gx:option>
				<gx:streetViewPanoId>ome7hdcLmKWc3C8SZDsBog</gx:streetViewPanoId>
			</gx:ViewerOptions>
			<longitude>104.0526500357281</longitude>
			<latitude>17.61723348839839</latitude>
			<altitude>155.0808868408203</altitude>
			<heading>167.4367984042312</heading>
			<tilt>73.72075110237277</tilt>
			<roll>0</roll>
			<gx:fovy>38.7325220610494</gx:fovy>
			<altitudeMode>absolute</altitudeMode>
		</Camera>
		<styleUrl>#__managed_style_086F90F1552A02B379E7</styleUrl>
		<Point>
			<altitudeMode>relativeToGround</altitudeMode>
			<coordinates>104.0526569958204,17.6171958837745,0</coordinates>
		</Point>
	</Placemark>
	<Placemark id="0D9D556BAD29F2B22F70">
		<name>LT51-SG-2177-0100-24+622</name>
		<Camera>
			<gx:ViewerOptions>
				<gx:option name="streetview"></gx:option>
				<gx:streetViewPanoId>_3cUokDhDih3XAMu9SdjXQ</gx:streetViewPanoId>
			</gx:ViewerOptions>
			<longitude>104.0522782086674</longitude>
			<latitude>17.61694566288952</latitude>
			<altitude>154.9822235107422</altitude>
			<heading>117.7351935776518</heading>
			<tilt>73.23972861530068</tilt>
			<roll>0</roll>
			<gx:fovy>19.26801769667576</gx:fovy>
			<altitudeMode>absolute</altitudeMode>
		</Camera>
		<styleUrl>#__managed_style_086F90F1552A02B379E7</styleUrl>
		<Point>
			<altitudeMode>relativeToGround</altitudeMode>
			<coordinates>104.0523115887214,17.61693002159694,0</coordinates>
		</Point>
	</Placemark>
	<Placemark id="0B5BAE71D729F2B2B7AF">
		<name>LT52-SG-2177-0100-24+659</name>
		<Camera>
			<gx:ViewerOptions>
				<gx:option name="streetview"></gx:option>
				<gx:streetViewPanoId>bYvcV7W6c2q9Lc5zeg009g</gx:streetViewPanoId>
			</gx:ViewerOptions>
			<longitude>104.052010833994</longitude>
			<latitude>17.6167432402392</latitude>
			<altitude>154.9276885986328</altitude>
			<heading>211.2594945331008</heading>
			<tilt>74.23024027516655</tilt>
			<roll>0</roll>
			<gx:fovy>16.20627896324513</gx:fovy>
			<altitudeMode>absolute</altitudeMode>
		</Camera>
		<styleUrl>#__managed_style_086F90F1552A02B379E7</styleUrl>
		<Point>
			<altitudeMode>relativeToGround</altitudeMode>
			<coordinates>104.0519828921766,17.61670059928212,0</coordinates>
		</Point>
	</Placemark>
	<Placemark id="082E6AC96929F2B33191">
		<name>LT53-SG-2177-0100-24+696</name>
		<Camera>
			<gx:ViewerOptions>
				<gx:option name="streetview"></gx:option>
				<gx:streetViewPanoId>UUldtVVkLX2P9yB8dMqEQA</gx:streetViewPanoId>
			</gx:ViewerOptions>
			<longitude>104.051636793808</longitude>
			<latitude>17.61654781164267</latitude>
			<altitude>154.5597686767578</altitude>
			<heading>212.2003557542151</heading>
			<tilt>79.03100799598667</tilt>
			<roll>0</roll>
			<gx:fovy>24.4268643246419</gx:fovy>
			<altitudeMode>absolute</altitudeMode>
		</Camera>
		<styleUrl>#__managed_style_086F90F1552A02B379E7</styleUrl>
		<Point>
			<altitudeMode>relativeToGround</altitudeMode>
			<coordinates>104.0516165260502,17.6164920496344,0</coordinates>
		</Point>
	</Placemark>
	<Placemark id="0E8D743BD929F2B3A91B">
		<name>LT54-SG-2177-0100-24+733</name>
		<Camera>
			<gx:ViewerOptions>
				<gx:option name="streetview"></gx:option>
				<gx:streetViewPanoId>twr1dsk8-pGeyyaQ0L7D4Q</gx:streetViewPanoId>
			</gx:ViewerOptions>
			<longitude>104.051294382246</longitude>
			<latitude>17.61631549785758</latitude>
			<altitude>154.2748413085938</altitude>
			<heading>255.7541589980939</heading>
			<tilt>76.59823236532907</tilt>
			<roll>0</roll>
			<gx:fovy>18.05248341272431</gx:fovy>
			<altitudeMode>absolute</altitudeMode>
		</Camera>
		<styleUrl>#__managed_style_086F90F1552A02B379E7</styleUrl>
		<Point>
			<altitudeMode>relativeToGround</altitudeMode>
			<coordinates>104.0512322039252,17.6163107393235,0</coordinates>
		</Point>
	</Placemark>
	<Placemark id="01E17C486629F2B457C6">
		<name>LT55-SG-2177-0100-24+770</name>
		<Camera>
			<gx:ViewerOptions>
				<gx:option name="streetview"></gx:option>
				<gx:streetViewPanoId>jOur6enY-h0zcQeO_Y9fSg</gx:streetViewPanoId>
			</gx:ViewerOptions>
			<longitude>104.0509082953897</longitude>
			<latitude>17.61622262056134</latitude>
			<altitude>154.121337890625</altitude>
			<heading>222.8516373679484</heading>
			<tilt>76.07435839501476</tilt>
			<roll>0</roll>
			<gx:fovy>15</gx:fovy>
			<altitudeMode>absolute</altitudeMode>
		</Camera>
		<styleUrl>#__managed_style_086F90F1552A02B379E7</styleUrl>
		<Point>
			<altitudeMode>relativeToGround</altitudeMode>
			<coordinates>104.0508751438219,17.61617207754719,0</coordinates>
		</Point>
	</Placemark>
	<Placemark id="01CF61867929F33FD4E3">
		<name>LT56-SG-2177-0100-24+807</name>
		<Camera>
			<gx:ViewerOptions>
				<gx:option name="streetview"></gx:option>
				<gx:streetViewPanoId>g3t1PfW-ST08i647xZvRlw</gx:streetViewPanoId>
			</gx:ViewerOptions>
			<longitude>104.0505379790306</longitude>
			<latitude>17.61611015592801</latitude>
			<altitude>153.7482147216797</altitude>
			<heading>226.1165383110434</heading>
			<tilt>80.51474129024605</tilt>
			<roll>0</roll>
			<gx:fovy>15</gx:fovy>
			<altitudeMode>absolute</altitudeMode>
		</Camera>
		<styleUrl>#__managed_style_086F90F1552A02B379E7</styleUrl>
		<Point>
			<altitudeMode>relativeToGround</altitudeMode>
			<coordinates>104.0504884639406,17.6160598457904,0</coordinates>
		</Point>
	</Placemark>
	<Placemark id="078E2C66FD29F3407ACE">
		<name>LT57-SG-2177-0100-24+844</name>
		<Camera>
			<gx:ViewerOptions>
				<gx:option name="streetview"></gx:option>
				<gx:streetViewPanoId>zG4UxLeP_T_bEvyCGhDJeA</gx:streetViewPanoId>
			</gx:ViewerOptions>
			<longitude>104.0500874878446</longitude>
			<latitude>17.61601495251092</latitude>
			<altitude>153.415283203125</altitude>
			<heading>196.4709932323141</heading>
			<tilt>80.41458002141268</tilt>
			<roll>0</roll>
			<gx:fovy>15</gx:fovy>
			<altitudeMode>absolute</altitudeMode>
		</Camera>
		<styleUrl>#__managed_style_086F90F1552A02B379E7</styleUrl>
		<Point>
			<altitudeMode>relativeToGround</altitudeMode>
			<coordinates>104.0500723418639,17.61594849642738,0</coordinates>
		</Point>
	</Placemark>
	<Placemark id="0BE3EC13E129F3413E1B">
		<name>LT58-SG-2177-0100-24+881</name>
		<Camera>
			<gx:ViewerOptions>
				<gx:option name="streetview"></gx:option>
				<gx:streetViewPanoId>dAAU-wikCFXfgGafxpqbRw</gx:streetViewPanoId>
			</gx:ViewerOptions>
			<longitude>104.0497100863168</longitude>
			<latitude>17.615890198362</latitude>
			<altitude>153.1573486328125</altitude>
			<heading>225.2443272723016</heading>
			<tilt>79.15429804303625</tilt>
			<roll>0</roll>
			<gx:fovy>15.61404944732146</gx:fovy>
			<altitudeMode>absolute</altitudeMode>
		</Camera>
		<styleUrl>#__managed_style_086F90F1552A02B379E7</styleUrl>
		<Point>
			<altitudeMode>relativeToGround</altitudeMode>
			<coordinates>104.0496481731446,17.61583691610356,0</coordinates>
		</Point>
	</Placemark>
	<Placemark id="0D10BB7CD929F3421579">
		<name>RT59-SG-2177-0100-24+918</name>
		<Camera>
			<gx:ViewerOptions>
				<gx:option name="streetview"></gx:option>
				<gx:streetViewPanoId>ZARHQu7GSha7E_vseFMw6w</gx:streetViewPanoId>
			</gx:ViewerOptions>
			<longitude>104.0492464862573</longitude>
			<latitude>17.61577237112225</latitude>
			<altitude>152.9599761962891</altitude>
			<heading>345.0148381959053</heading>
			<tilt>76.15026394448284</tilt>
			<roll>0</roll>
			<gx:fovy>17.54262239931348</gx:fovy>
			<altitudeMode>absolute</altitudeMode>
		</Camera>
		<styleUrl>#__managed_style_086F90F1552A02B379E7</styleUrl>
		<Point>
			<altitudeMode>relativeToGround</altitudeMode>
			<coordinates>104.0492167446073,17.61585872074185,0</coordinates>
		</Point>
	</Placemark>
	<Placemark id="0E5C4EEA7D29F344A2A9">
		<name>RT60-SG-2177-0100-24+955</name>
		<Camera>
			<gx:ViewerOptions>
				<gx:option name="streetview"></gx:option>
				<gx:streetViewPanoId>zGFGB94p9HGK9AfAW1bwIQ</gx:streetViewPanoId>
			</gx:ViewerOptions>
			<longitude>104.0488766172573</longitude>
			<latitude>17.61567787638994</latitude>
			<altitude>152.8497772216797</altitude>
			<heading>308.7539788833287</heading>
			<tilt>76.08520615833524</tilt>
			<roll>0</roll>
			<gx:fovy>15</gx:fovy>
			<altitudeMode>absolute</altitudeMode>
		</Camera>
		<styleUrl>#__managed_style_086F90F1552A02B379E7</styleUrl>
		<Point>
			<altitudeMode>relativeToGround</altitudeMode>
			<coordinates>104.0488090350076,17.61573944489807,0</coordinates>
		</Point>
	</Placemark>
	<Placemark id="08940F334A29F345BBBD">
		<name>RT61-SG-2177-0100-24+992</name>
		<Camera>
			<gx:ViewerOptions>
				<gx:option name="streetview"></gx:option>
				<gx:streetViewPanoId>-aWz1PnLXaZcIEdd7Xim0g</gx:streetViewPanoId>
			</gx:ViewerOptions>
			<longitude>104.0484165636013</longitude>
			<latitude>17.61555608323927</latitude>
			<altitude>152.8487854003906</altitude>
			<heading>356.5582312038185</heading>
			<tilt>77.13405618500083</tilt>
			<roll>0</roll>
			<gx:fovy>18.18827651463705</gx:fovy>
			<altitudeMode>absolute</altitudeMode>
		</Camera>
		<styleUrl>#__managed_style_086F90F1552A02B379E7</styleUrl>
		<Point>
			<altitudeMode>relativeToGround</altitudeMode>
			<coordinates>104.0484014752802,17.61562336729744,0</coordinates>
		</Point>
	</Placemark>
	<Placemark id="0DC2011B0529F34715AC">
		<name>RT62-SG-2177-0100-25+092</name>
		<Camera>
			<gx:ViewerOptions>
				<gx:option name="streetview"></gx:option>
				<gx:streetViewPanoId>AaHBC4nDqHrjb5nc4vLjuQ</gx:streetViewPanoId>
			</gx:ViewerOptions>
			<longitude>104.0472868561393</longitude>
			<latitude>17.61519256900985</latitude>
			<altitude>152.5528106689453</altitude>
			<heading>306.7945963826996</heading>
			<tilt>78.50750694286991</tilt>
			<roll>0</roll>
			<gx:fovy>15</gx:fovy>
			<altitudeMode>absolute</altitudeMode>
		</Camera>
		<styleUrl>#__managed_style_086F90F1552A02B379E7</styleUrl>
		<Point>
			<altitudeMode>relativeToGround</altitudeMode>
			<coordinates>104.0472025795122,17.61525385050264,0</coordinates>
		</Point>
	</Placemark>
	<Placemark id="0D353F472229F347C92B">
		<name>RT63-SG-2177-0100-25+066</name>
		<Camera>
			<gx:ViewerOptions>
				<gx:option name="streetview"></gx:option>
				<gx:streetViewPanoId>sfpPQe6RivKi4pW61MLZcQ</gx:streetViewPanoId>
			</gx:ViewerOptions>
			<longitude>104.0468513471386</longitude>
			<latitude>17.61499970902009</latitude>
			<altitude>152.4349365234375</altitude>
			<heading>347.5811720861817</heading>
			<tilt>83.90248355897468</tilt>
			<roll>0</roll>
			<gx:fovy>15</gx:fovy>
			<altitudeMode>absolute</altitudeMode>
		</Camera>
		<styleUrl>#__managed_style_086F90F1552A02B379E7</styleUrl>
		<Point>
			<altitudeMode>relativeToGround</altitudeMode>
			<coordinates>104.0468199065163,17.61508738866296,0</coordinates>
		</Point>
	</Placemark>
</Document>
</kml>
