<?xml version="1.0" encoding="UTF-8"?>
<kml xmlns="http://www.opengis.net/kml/2.2" xmlns:gx="http://www.google.com/kml/ext/2.2" xmlns:kml="http://www.opengis.net/kml/2.2" xmlns:atom="http://www.w3.org/2005/Atom">
<Document>
	<name>ทล.2028</name>
	<gx:CascadingStyle kml:id="__managed_style_2E0390B9632A3A4CEFB3">
		<Style>
			<IconStyle>
				<scale>1.2</scale>
				<Icon>
					<href>https://earth.google.com/earth/rpc/cc/icon?color=1976d2&amp;id=2000&amp;scale=4</href>
				</Icon>
				<hotSpot x="64" y="128" xunits="pixels" yunits="insetPixels"/>
			</IconStyle>
			<LabelStyle>
			</LabelStyle>
			<LineStyle>
				<color>ff2dc0fb</color>
				<width>6</width>
			</LineStyle>
			<PolyStyle>
				<color>40ffffff</color>
			</PolyStyle>
			<BalloonStyle>
				<displayMode>hide</displayMode>
			</BalloonStyle>
		</Style>
	</gx:CascadingStyle>
	<gx:CascadingStyle kml:id="__managed_style_15713D106F2A3A4CEFB3">
		<Style>
			<IconStyle>
				<Icon>
					<href>https://earth.google.com/earth/rpc/cc/icon?color=1976d2&amp;id=2000&amp;scale=4</href>
				</Icon>
				<hotSpot x="64" y="128" xunits="pixels" yunits="insetPixels"/>
			</IconStyle>
			<LabelStyle>
			</LabelStyle>
			<LineStyle>
				<color>ff2dc0fb</color>
				<width>4</width>
			</LineStyle>
			<PolyStyle>
				<color>40ffffff</color>
			</PolyStyle>
			<BalloonStyle>
				<displayMode>hide</displayMode>
			</BalloonStyle>
		</Style>
	</gx:CascadingStyle>
	<StyleMap id="__managed_style_00485C2B832A3A4CEFB3">
		<Pair>
			<key>normal</key>
			<styleUrl>#__managed_style_15713D106F2A3A4CEFB3</styleUrl>
		</Pair>
		<Pair>
			<key>highlight</key>
			<styleUrl>#__managed_style_2E0390B9632A3A4CEFB3</styleUrl>
		</Pair>
	</StyleMap>
	<gx:CascadingStyle kml:id="__managed_style_220EB3CAC42A3A4CEFB1">
		<Style>
			<IconStyle>
				<scale>1.2</scale>
				<Icon>
					<href>https://earth.google.com/earth/rpc/cc/icon?color=1976d2&amp;id=2000&amp;scale=4</href>
				</Icon>
				<hotSpot x="64" y="128" xunits="pixels" yunits="insetPixels"/>
			</IconStyle>
			<LabelStyle>
			</LabelStyle>
			<LineStyle>
				<color>ff2dc0fb</color>
				<width>4.8</width>
			</LineStyle>
			<PolyStyle>
				<color>40ffffff</color>
			</PolyStyle>
			<BalloonStyle>
				<displayMode>hide</displayMode>
			</BalloonStyle>
		</Style>
	</gx:CascadingStyle>
	<gx:CascadingStyle kml:id="__managed_style_1EAA749D662A3A4CEFB1">
		<Style>
			<IconStyle>
				<Icon>
					<href>https://earth.google.com/earth/rpc/cc/icon?color=1976d2&amp;id=2000&amp;scale=4</href>
				</Icon>
				<hotSpot x="64" y="128" xunits="pixels" yunits="insetPixels"/>
			</IconStyle>
			<LabelStyle>
			</LabelStyle>
			<LineStyle>
				<color>ff2dc0fb</color>
				<width>3.2</width>
			</LineStyle>
			<PolyStyle>
				<color>40ffffff</color>
			</PolyStyle>
			<BalloonStyle>
				<displayMode>hide</displayMode>
			</BalloonStyle>
		</Style>
	</gx:CascadingStyle>
	<StyleMap id="__managed_style_0FEDAEEAB82A3A4CEFB1">
		<Pair>
			<key>normal</key>
			<styleUrl>#__managed_style_1EAA749D662A3A4CEFB1</styleUrl>
		</Pair>
		<Pair>
			<key>highlight</key>
			<styleUrl>#__managed_style_220EB3CAC42A3A4CEFB1</styleUrl>
		</Pair>
	</StyleMap>
	<Placemark id="01FD3815F729FC933760">
		<name>RT1-SG-2028-0102-18+930</name>
		<LookAt>
			<longitude>104.4515071255246</longitude>
			<latitude>17.44943037290632</latitude>
			<altitude>155.7470662000354</altitude>
			<heading>17.40432215525006</heading>
			<tilt>0</tilt>
			<gx:fovy>35</gx:fovy>
			<range>198.5844197241386</range>
			<altitudeMode>absolute</altitudeMode>
		</LookAt>
		<styleUrl>#__managed_style_0FEDAEEAB82A3A4CEFB1</styleUrl>
		<Point>
			<coordinates>104.4514729969874,17.44946623218588,155.9439236863908</coordinates>
		</Point>
	</Placemark>
	<Placemark id="02F030059629FC93CBCC">
		<name>RT2-SG-2028-0102-18+990</name>
		<LookAt>
			<longitude>104.4520192451595</longitude>
			<latitude>17.44958930575114</latitude>
			<altitude>157.4532675065317</altitude>
			<heading>17.40460995540975</heading>
			<tilt>0</tilt>
			<gx:fovy>35</gx:fovy>
			<range>79.96689555348894</range>
			<altitudeMode>absolute</altitudeMode>
		</LookAt>
		<styleUrl>#__managed_style_0FEDAEEAB82A3A4CEFB1</styleUrl>
		<Point>
			<coordinates>104.4520644591704,17.44959061243182,157.842498155616</coordinates>
		</Point>
	</Placemark>
	<Placemark id="018F150FFA29FC944BE7">
		<name>RT3-SG-2028-0102-19+050</name>
		<LookAt>
			<longitude>104.4521861637447</longitude>
			<latitude>17.44985001861946</latitude>
			<altitude>157.9761053427183</altitude>
			<heading>17.40477798432242</heading>
			<tilt>0</tilt>
			<gx:fovy>35.00000008308666</gx:fovy>
			<range>188.0200699359557</range>
			<altitudeMode>absolute</altitudeMode>
		</LookAt>
		<styleUrl>#__managed_style_0FEDAEEAB82A3A4CEFB1</styleUrl>
		<Point>
			<coordinates>104.4525890457203,17.44969013587435,159.0811987841784</coordinates>
		</Point>
	</Placemark>
	<Placemark id="08EAFAB08B29FC94E75A">
		<name>RT4-SG-2028-0102-19+120</name>
		<LookAt>
			<longitude>104.453193670456</longitude>
			<latitude>17.44988192461564</latitude>
			<altitude>157.3956599567902</altitude>
			<heading>132.6344920824633</heading>
			<tilt>0</tilt>
			<gx:fovy>35</gx:fovy>
			<range>89.84190297591341</range>
			<altitudeMode>absolute</altitudeMode>
		</LookAt>
		<styleUrl>#__managed_style_0FEDAEEAB82A3A4CEFB1</styleUrl>
		<Point>
			<coordinates>104.4532377675448,17.44984098937726,157.4888060082176</coordinates>
		</Point>
	</Placemark>
	<Placemark id="0FDA9655AD29FC9586C5">
		<name>RT5-SG-2028-0102-19+180</name>
		<LookAt>
			<longitude>104.4535395045898</longitude>
			<latitude>17.44993433950139</latitude>
			<altitude>157.0488550144629</altitude>
			<heading>76.67071420039059</heading>
			<tilt>0</tilt>
			<gx:fovy>35</gx:fovy>
			<range>47.01722918165161</range>
			<altitudeMode>absolute</altitudeMode>
		</LookAt>
		<styleUrl>#__managed_style_0FEDAEEAB82A3A4CEFB1</styleUrl>
		<Point>
			<coordinates>104.4536209905874,17.44990582290188,157.262584675328</coordinates>
		</Point>
	</Placemark>
	<Placemark id="062FA91EF729FCA1F913">
		<name>RT6-SG-2028-0102-19+240</name>
		<LookAt>
			<longitude>104.4538407449654</longitude>
			<latitude>17.45010653379855</latitude>
			<altitude>157.4404851269733</altitude>
			<heading>17.37951086487489</heading>
			<tilt>0</tilt>
			<gx:fovy>35</gx:fovy>
			<range>160.4897290052213</range>
			<altitudeMode>absolute</altitudeMode>
		</LookAt>
		<styleUrl>#__managed_style_0FEDAEEAB82A3A4CEFB1</styleUrl>
		<Point>
			<coordinates>104.4540271773944,17.4499798572868,158.1072168097833</coordinates>
		</Point>
	</Placemark>
	<Placemark id="083C65DD9A2A363A9F87">
		<name>RT7-SG-2028-0102-19+240</name>
		<Camera>
			<gx:ViewerOptions>
				<gx:option name="streetview"></gx:option>
				<gx:streetViewPanoId>5D6xFzPiNuVfIYL8YeH7ew</gx:streetViewPanoId>
			</gx:ViewerOptions>
			<longitude>104.4542331010117</longitude>
			<latitude>17.45013626965128</latitude>
			<altitude>159.9695602363502</altitude>
			<heading>175.1605924869491</heading>
			<tilt>88.93550246910243</tilt>
			<roll>0</roll>
			<gx:fovy>45.25123298488364</gx:fovy>
			<altitudeMode>absolute</altitudeMode>
		</Camera>
		<styleUrl>#__managed_style_00485C2B832A3A4CEFB3</styleUrl>
		<Point>
			<altitudeMode>relativeToGround</altitudeMode>
			<coordinates>104.4542873410229,17.45002284453873,0</coordinates>
		</Point>
	</Placemark>
	<Placemark id="0A4593ADBE29FCA42DD8">
		<name>RT8-SG-2028-0102-19+300</name>
		<Camera>
			<gx:ViewerOptions>
				<gx:option name="streetview"></gx:option>
				<gx:streetViewPanoId>yeTKw0vQ5gDQY-XMC39nqg</gx:streetViewPanoId>
			</gx:ViewerOptions>
			<longitude>104.454602592109</longitude>
			<latitude>17.4502218661789</latitude>
			<altitude>160.0619631346844</altitude>
			<heading>162.3608971889807</heading>
			<tilt>95.56927185759352</tilt>
			<roll>0</roll>
			<gx:fovy>45.15124226992798</gx:fovy>
			<altitudeMode>absolute</altitudeMode>
		</Camera>
		<styleUrl>#__managed_style_0FEDAEEAB82A3A4CEFB1</styleUrl>
		<Point>
			<coordinates>104.4546766688309,17.45011826915916,157.5300884934522</coordinates>
		</Point>
	</Placemark>
	<Placemark id="05E57536D129FCD6ADA7">
		<name>RT9-SG-2028-0102-20+430</name>
		<LookAt>
			<longitude>104.4628434543698</longitude>
			<latitude>17.45265642619977</latitude>
			<altitude>159.0989395927785</altitude>
			<heading>28.3228708683487</heading>
			<tilt>0</tilt>
			<gx:fovy>35</gx:fovy>
			<range>258.7969256608995</range>
			<altitudeMode>absolute</altitudeMode>
		</LookAt>
		<styleUrl>#__managed_style_0FEDAEEAB82A3A4CEFB1</styleUrl>
		<Point>
			<coordinates>104.4629159863465,17.45265360639452,159.3012260343256</coordinates>
		</Point>
	</Placemark>
	<Placemark id="0E6C0F9F8A29FCD7608B">
		<name>RT10-SG-2028-0102-20+460</name>
		<LookAt>
			<longitude>104.4630496803808</longitude>
			<latitude>17.45287434290428</latitude>
			<altitude>158.1953906629159</altitude>
			<heading>3.26410427000732</heading>
			<tilt>0</tilt>
			<gx:fovy>35</gx:fovy>
			<range>198.7358158031566</range>
			<altitudeMode>absolute</altitudeMode>
		</LookAt>
		<styleUrl>#__managed_style_0FEDAEEAB82A3A4CEFB1</styleUrl>
		<Point>
			<coordinates>104.4632279423999,17.45279346102756,158.4933288662356</coordinates>
		</Point>
	</Placemark>
	<Placemark id="0D3E50082D29FCD7F4B2">
		<name>RT11-SG-2028-0102-20+490</name>
		<LookAt>
			<longitude>104.4635930729112</longitude>
			<latitude>17.45307124155503</latitude>
			<altitude>157.7727646377913</altitude>
			<heading>145.9496267579513</heading>
			<tilt>0</tilt>
			<gx:fovy>35</gx:fovy>
			<range>186.1287662393989</range>
			<altitudeMode>absolute</altitudeMode>
		</LookAt>
		<styleUrl>#__managed_style_0FEDAEEAB82A3A4CEFB1</styleUrl>
		<Point>
			<coordinates>104.4635666126838,17.4529779516681,158.0900593351713</coordinates>
		</Point>
	</Placemark>
	<Placemark id="06ADC4D8F829FCD891B4">
		<name>RT12-SG-2028-0102-20+520</name>
		<LookAt>
			<longitude>104.4638798170471</longitude>
			<latitude>17.45319132971789</latitude>
			<altitude>157.6182938728213</altitude>
			<heading>300.186673886249</heading>
			<tilt>0</tilt>
			<gx:fovy>35</gx:fovy>
			<range>176.6944403080015</range>
			<altitudeMode>absolute</altitudeMode>
		</LookAt>
		<styleUrl>#__managed_style_0FEDAEEAB82A3A4CEFB1</styleUrl>
		<Point>
			<coordinates>104.4638579450653,17.45312483520256,157.8917269467894</coordinates>
		</Point>
	</Placemark>
	<Placemark id="04E8DD0F9329FD0D3604">
		<name>RT13-SG-2028-0102-20+850</name>
		<LookAt>
			<longitude>104.4674762396157</longitude>
			<latitude>17.45463421350513</latitude>
			<altitude>160.6156351501202</altitude>
			<heading>317.7420716211787</heading>
			<tilt>0</tilt>
			<gx:fovy>35</gx:fovy>
			<range>248.6120395294348</range>
			<altitudeMode>absolute</altitudeMode>
		</LookAt>
		<styleUrl>#__managed_style_0FEDAEEAB82A3A4CEFB1</styleUrl>
		<Point>
			<coordinates>104.4673751336002,17.45455567756257,160.5820566971757</coordinates>
		</Point>
	</Placemark>
	<Placemark id="0B386B1F6129FD0F349E">
		<name>RT14-SG-2028-0102-20+900</name>
		<LookAt>
			<longitude>104.4675924000326</longitude>
			<latitude>17.45468527587143</latitude>
			<altitude>160.7687478342373</altitude>
			<heading>347.5747045320237</heading>
			<tilt>0</tilt>
			<gx:fovy>35</gx:fovy>
			<range>499.7324052167825</range>
			<altitudeMode>absolute</altitudeMode>
		</LookAt>
		<styleUrl>#__managed_style_0FEDAEEAB82A3A4CEFB1</styleUrl>
		<Point>
			<coordinates>104.467929580275,17.45477156796719,160.2132661701078</coordinates>
		</Point>
	</Placemark>
	<Placemark id="04B3836D0C29FD0F85FD">
		<name>RT15-SG-2028-0102-20+950</name>
		<LookAt>
			<longitude>104.4681352964651</longitude>
			<latitude>17.45490474405015</latitude>
			<altitude>159.7034450074444</altitude>
			<heading>347.5747038873427</heading>
			<tilt>0</tilt>
			<gx:fovy>35</gx:fovy>
			<range>100.1528057150972</range>
			<altitudeMode>absolute</altitudeMode>
		</LookAt>
		<styleUrl>#__managed_style_0FEDAEEAB82A3A4CEFB1</styleUrl>
		<Point>
			<coordinates>104.4684767095242,17.45502628117633,159.6171462369238</coordinates>
		</Point>
	</Placemark>
	<Placemark id="028A0A501029FD0FBF46">
		<name>RT16-SG-2028-0102-21+000</name>
		<LookAt>
			<longitude>104.4687033743081</longitude>
			<latitude>17.45512203124171</latitude>
			<altitude>158.8920613416753</altitude>
			<heading>347.5748736382879</heading>
			<tilt>0</tilt>
			<gx:fovy>35</gx:fovy>
			<range>100.9641839358846</range>
			<altitudeMode>absolute</altitudeMode>
		</LookAt>
		<styleUrl>#__managed_style_0FEDAEEAB82A3A4CEFB1</styleUrl>
		<Point>
			<coordinates>104.4690028463824,17.45521656285517,158.4528059452927</coordinates>
		</Point>
	</Placemark>
	<Placemark id="0A08EDF1CA29FD0FF38C">
		<name>RT17-SG-2028-0102-21+050</name>
		<LookAt>
			<longitude>104.4693789778179</longitude>
			<latitude>17.45538278903231</latitude>
			<altitude>159.6182876582947</altitude>
			<heading>347.5750757136721</heading>
			<tilt>0</tilt>
			<gx:fovy>35</gx:fovy>
			<range>100.237960215145</range>
			<altitudeMode>absolute</altitudeMode>
		</LookAt>
		<styleUrl>#__managed_style_0FEDAEEAB82A3A4CEFB1</styleUrl>
		<Point>
			<coordinates>104.4695579577972,17.45543789614355,160.3776296355478</coordinates>
		</Point>
	</Placemark>
	<Placemark id="0353698EBD29FD10322B">
		<name>RT18-SG-2028-0102-21+100</name>
		<LookAt>
			<longitude>104.469864505115</longitude>
			<latitude>17.45559350644089</latitude>
			<altitude>159.8235352017496</altitude>
			<heading>347.5752209187553</heading>
			<tilt>0</tilt>
			<gx:fovy>35</gx:fovy>
			<range>100.0327109840146</range>
			<altitudeMode>absolute</altitudeMode>
		</LookAt>
		<styleUrl>#__managed_style_0FEDAEEAB82A3A4CEFB1</styleUrl>
		<Point>
			<coordinates>104.4701046511032,17.45566526011654,159.8611381761059</coordinates>
		</Point>
	</Placemark>
	<Placemark id="016FF8CEA529FD10616D">
		<name>RT19-SG-2028-0102-21+0150</name>
		<LookAt>
			<longitude>104.4707151194425</longitude>
			<latitude>17.45583404702321</latitude>
			<altitude>158.2598016500777</altitude>
			<heading>347.5754751077562</heading>
			<tilt>0</tilt>
			<gx:fovy>35</gx:fovy>
			<range>101.5964456688198</range>
			<altitudeMode>absolute</altitudeMode>
		</LookAt>
		<styleUrl>#__managed_style_0FEDAEEAB82A3A4CEFB1</styleUrl>
		<Point>
			<coordinates>104.4706693078663,17.45589909575626,158.5531453685375</coordinates>
		</Point>
	</Placemark>
	<Placemark id="09B2B177EF29FD255BB2">
		<name>RT20-SG-2028-0102-24+750</name>
		<LookAt>
			<longitude>104.4948470823488</longitude>
			<latitude>17.47831899892319</latitude>
			<altitude>158.6117180919504</altitude>
			<heading>343.4185484339689</heading>
			<tilt>0</tilt>
			<gx:fovy>35</gx:fovy>
			<range>159.0636344942141</range>
			<altitudeMode>absolute</altitudeMode>
		</LookAt>
		<styleUrl>#__managed_style_0FEDAEEAB82A3A4CEFB1</styleUrl>
		<Point>
			<coordinates>104.4948462484278,17.47835516509369,158.9053304791321</coordinates>
		</Point>
	</Placemark>
	<Placemark id="04E010672B29FD257DEF">
		<name>RT21-SG-2028-0102-24+790</name>
		<LookAt>
			<longitude>104.4953384296329</longitude>
			<latitude>17.47855834947904</latitude>
			<altitude>158.8833126976333</altitude>
			<heading>343.4186956592222</heading>
			<tilt>0</tilt>
			<gx:fovy>35</gx:fovy>
			<range>158.792050973716</range>
			<altitudeMode>absolute</altitudeMode>
		</LookAt>
		<styleUrl>#__managed_style_0FEDAEEAB82A3A4CEFB1</styleUrl>
		<Point>
			<coordinates>104.4952073937999,17.478576447552,159.0171528470534</coordinates>
		</Point>
	</Placemark>
	<Placemark id="0DE18D9F0229FD2592F7">
		<name>RT22-SG-2028-0102-24+830</name>
		<LookAt>
			<longitude>104.4953384296329</longitude>
			<latitude>17.47855834945791</latitude>
			<altitude>158.8833126976333</altitude>
			<heading>343.4186956592222</heading>
			<tilt>0</tilt>
			<gx:fovy>35</gx:fovy>
			<range>158.7920625625156</range>
			<altitudeMode>absolute</altitudeMode>
		</LookAt>
		<styleUrl>#__managed_style_0FEDAEEAB82A3A4CEFB1</styleUrl>
		<Point>
			<coordinates>104.4955715900624,17.47877502251843,158.530791837603</coordinates>
		</Point>
	</Placemark>
	<Placemark id="0ACE87D71029FD25BA17">
		<name>RT23-SG-2028-0102-24+870</name>
		<LookAt>
			<longitude>104.4960136559271</longitude>
			<latitude>17.47891424206233</latitude>
			<altitude>157.9760859790111</altitude>
			<heading>343.4188978866352</heading>
			<tilt>0</tilt>
			<gx:fovy>35</gx:fovy>
			<range>159.6993033342551</range>
			<altitudeMode>absolute</altitudeMode>
		</LookAt>
		<styleUrl>#__managed_style_0FEDAEEAB82A3A4CEFB1</styleUrl>
		<Point>
			<coordinates>104.4959245577327,17.47898764034109,158.1528184650639</coordinates>
		</Point>
	</Placemark>
	<Placemark id="0ACBA6F14329FD25E4BB">
		<name>RT24-SG-2028-0102-24+810</name>
		<LookAt>
			<longitude>104.4963737145456</longitude>
			<latitude>17.47923086367187</latitude>
			<altitude>158.887346034219</altitude>
			<heading>343.4190473427952</heading>
			<tilt>0</tilt>
			<gx:fovy>35</gx:fovy>
			<range>110.082066103223</range>
			<altitudeMode>absolute</altitudeMode>
		</LookAt>
		<styleUrl>#__managed_style_0FEDAEEAB82A3A4CEFB1</styleUrl>
		<Point>
			<coordinates>104.496306955056,17.47917767869134,158.9550412533388</coordinates>
		</Point>
	</Placemark>
	<Placemark id="0BFD54EE6C29FD25FC49">
		<name>RT25-SG-2028-0102-24+850</name>
		<LookAt>
			<longitude>104.4963737145678</longitude>
			<latitude>17.47923086367187</latitude>
			<altitude>158.887346034219</altitude>
			<heading>343.4190473427952</heading>
			<tilt>0</tilt>
			<gx:fovy>35</gx:fovy>
			<range>110.0820545144234</range>
			<altitudeMode>absolute</altitudeMode>
		</LookAt>
		<styleUrl>#__managed_style_0FEDAEEAB82A3A4CEFB1</styleUrl>
		<Point>
			<coordinates>104.4966579671074,17.479351975069,159.1314176850409</coordinates>
		</Point>
	</Placemark>
	<Placemark id="0923092AB829FD264E4E">
		<name>RT26-SG-2028-0102-24+890</name>
		<LookAt>
			<longitude>104.4970512439397</longitude>
			<latitude>17.47946545576486</latitude>
			<altitude>158.1813072482013</altitude>
			<heading>0</heading>
			<tilt>0</tilt>
			<gx:fovy>35</gx:fovy>
			<range>168.2378729943958</range>
			<altitudeMode>absolute</altitudeMode>
		</LookAt>
		<styleUrl>#__managed_style_0FEDAEEAB82A3A4CEFB1</styleUrl>
		<Point>
			<coordinates>104.49699291654,17.4794700076318,158.3928899853426</coordinates>
		</Point>
	</Placemark>
	<Placemark id="0FAB8C3E6629FD2664A2">
		<name>RT27-SG-2028-0102-24+830</name>
		<LookAt>
			<longitude>104.4970512439397</longitude>
			<latitude>17.47946545576486</latitude>
			<altitude>158.1813072482013</altitude>
			<heading>0</heading>
			<tilt>0</tilt>
			<gx:fovy>35</gx:fovy>
			<range>168.2378729943958</range>
			<altitudeMode>absolute</altitudeMode>
		</LookAt>
		<styleUrl>#__managed_style_0FEDAEEAB82A3A4CEFB1</styleUrl>
		<Point>
			<coordinates>104.4974264346207,17.47966253357685,158.9685547658185</coordinates>
		</Point>
	</Placemark>
	<Placemark id="00287B1DCE29FD3FF83B">
		<name>RT28-SG-2028-0102-35+860</name>
		<LookAt>
			<longitude>104.579660694156</longitude>
			<latitude>17.53022705190526</latitude>
			<altitude>159.9644170098157</altitude>
			<heading>208.2279030914966</heading>
			<tilt>0</tilt>
			<gx:fovy>35</gx:fovy>
			<range>69.35949337449529</range>
			<altitudeMode>absolute</altitudeMode>
		</LookAt>
		<styleUrl>#__managed_style_0FEDAEEAB82A3A4CEFB1</styleUrl>
		<Point>
			<coordinates>104.5796423753541,17.53023459859084,160.163566520395</coordinates>
		</Point>
	</Placemark>
	<Placemark id="022B0633C229FD407B21">
		<name>RT29-SG-2028-0102-35+890</name>
		<LookAt>
			<longitude>104.5798423185903</longitude>
			<latitude>17.53037660802384</latitude>
			<altitude>160.6220787476713</altitude>
			<heading>173.2272307261858</heading>
			<tilt>0</tilt>
			<gx:fovy>35</gx:fovy>
			<range>292.9811961150335</range>
			<altitudeMode>absolute</altitudeMode>
		</LookAt>
		<styleUrl>#__managed_style_0FEDAEEAB82A3A4CEFB1</styleUrl>
		<Point>
			<coordinates>104.579912179975,17.53033921940073,160.4411197346137</coordinates>
		</Point>
	</Placemark>
	<Placemark id="04F58096AD29FD415564">
		<name>RT30-SG-2028-0102-35+920</name>
		<LookAt>
			<longitude>104.5802125574887</longitude>
			<latitude>17.53042645297493</latitude>
			<altitude>160.5234261606595</altitude>
			<heading>125.8988722152004</heading>
			<tilt>0</tilt>
			<gx:fovy>35</gx:fovy>
			<range>120.1988796253681</range>
			<altitudeMode>absolute</altitudeMode>
		</LookAt>
		<styleUrl>#__managed_style_0FEDAEEAB82A3A4CEFB1</styleUrl>
		<Point>
			<coordinates>104.5801953305327,17.53041424155499,160.6590030632518</coordinates>
		</Point>
	</Placemark>
	<Placemark id="009C8293A829FD416FDD">
		<name>RT31-SG-2028-0102-35+950</name>
		<LookAt>
			<longitude>104.5802125574887</longitude>
			<latitude>17.53042645297493</latitude>
			<altitude>160.523435593535</altitude>
			<heading>125.8988722152004</heading>
			<tilt>0</tilt>
			<gx:fovy>35</gx:fovy>
			<range>120.1988564477688</range>
			<altitudeMode>absolute</altitudeMode>
		</LookAt>
		<styleUrl>#__managed_style_0FEDAEEAB82A3A4CEFB1</styleUrl>
		<Point>
			<coordinates>104.5804765284039,17.53045716325343,161.2060152306911</coordinates>
		</Point>
	</Placemark>
	<Placemark id="0FEB068F8929FD41A1D3">
		<name>RT32-SG-2028-0102-35+980</name>
		<LookAt>
			<longitude>104.5805515702679</longitude>
			<latitude>17.53039903389539</latitude>
			<altitude>160.9687135516504</altitude>
			<heading>125.8989743307044</heading>
			<tilt>0</tilt>
			<gx:fovy>35</gx:fovy>
			<range>119.7535684088689</range>
			<altitudeMode>absolute</altitudeMode>
		</LookAt>
		<styleUrl>#__managed_style_0FEDAEEAB82A3A4CEFB1</styleUrl>
		<Point>
			<coordinates>104.5807667176454,17.53045093923262,161.685815989481</coordinates>
		</Point>
	</Placemark>
	<Placemark id="0A12E51C2A29FD4206F9">
		<name>RT33-SG-2028-0102-36+010</name>
		<LookAt>
			<longitude>104.5809353783408</longitude>
			<latitude>17.53051986732113</latitude>
			<altitude>161.6095407528796</altitude>
			<heading>162.9617892470814</heading>
			<tilt>0</tilt>
			<gx:fovy>34.99998803159058</gx:fovy>
			<range>185.8838137805651</range>
			<altitudeMode>absolute</altitudeMode>
		</LookAt>
		<styleUrl>#__managed_style_0FEDAEEAB82A3A4CEFB1</styleUrl>
		<Point>
			<coordinates>104.5810464954735,17.53046855303576,161.3673196954302</coordinates>
		</Point>
	</Placemark>
	<Placemark id="0495D6763D29FD42C93B">
		<name>RT34-SG-2028-0102-36+070</name>
		<LookAt>
			<longitude>104.581591972368</longitude>
			<latitude>17.53046967019229</latitude>
			<altitude>160.1886501292753</altitude>
			<heading>118.7428199902258</heading>
			<tilt>0</tilt>
			<gx:fovy>35</gx:fovy>
			<range>116.1616083592889</range>
			<altitudeMode>absolute</altitudeMode>
		</LookAt>
		<styleUrl>#__managed_style_0FEDAEEAB82A3A4CEFB1</styleUrl>
		<Point>
			<coordinates>104.5816567418267,17.53047092414312,160.1320615333311</coordinates>
		</Point>
	</Placemark>
	<Placemark id="052774265929FD4383B8">
		<name>RT35-SG-2028-0102-36+100</name>
		<LookAt>
			<longitude>104.5818817028417</longitude>
			<latitude>17.53051502407417</latitude>
			<altitude>159.2476392260454</altitude>
			<heading>155.9327212883909</heading>
			<tilt>0</tilt>
			<gx:fovy>35</gx:fovy>
			<range>244.6685100639661</range>
			<altitudeMode>absolute</altitudeMode>
		</LookAt>
		<styleUrl>#__managed_style_0FEDAEEAB82A3A4CEFB1</styleUrl>
		<Point>
			<coordinates>104.5819858063594,17.53046980153289,159.0874826573767</coordinates>
		</Point>
	</Placemark>
	<Placemark id="022CB038CB29FD441257">
		<name>RT36-SG-2028-0102-36+130</name>
		<LookAt>
			<longitude>104.5823553920297</longitude>
			<latitude>17.53051929789814</latitude>
			<altitude>158.6047394248623</altitude>
			<heading>196.5450494175197</heading>
			<tilt>0</tilt>
			<gx:fovy>35</gx:fovy>
			<range>499.9899083456694</range>
			<altitudeMode>absolute</altitudeMode>
		</LookAt>
		<styleUrl>#__managed_style_0FEDAEEAB82A3A4CEFB1</styleUrl>
		<Point>
			<coordinates>104.5822480382528,17.5304968001461,158.5833181864929</coordinates>
		</Point>
	</Placemark>
	<Placemark id="054EC3CE1129FD446AAE">
		<name>RT37-SG-2028-0102-36+160</name>
		<LookAt>
			<longitude>104.5826273907315</longitude>
			<latitude>17.5305244278799</latitude>
			<altitude>159.49548546135</altitude>
			<heading>225.9943381394172</heading>
			<tilt>0</tilt>
			<gx:fovy>35.00000833148148</gx:fovy>
			<range>500.0002919101826</range>
			<altitudeMode>absolute</altitudeMode>
		</LookAt>
		<styleUrl>#__managed_style_0FEDAEEAB82A3A4CEFB1</styleUrl>
		<Point>
			<coordinates>104.5825233945099,17.53051231650196,159.2994159340205</coordinates>
		</Point>
	</Placemark>
	<Placemark id="0F89627D9D29FD44E0E4">
		<name>RT38-SG-2028-0102-36+190</name>
		<LookAt>
			<longitude>104.582771979975</longitude>
			<latitude>17.53049708001521</latitude>
			<altitude>159.7073566701213</altitude>
			<heading>141.6225003002027</heading>
			<tilt>0</tilt>
			<gx:fovy>35.00000008308666</gx:fovy>
			<range>177.3030956559888</range>
			<altitudeMode>absolute</altitudeMode>
		</LookAt>
		<styleUrl>#__managed_style_0FEDAEEAB82A3A4CEFB1</styleUrl>
		<Point>
			<coordinates>104.5827135777274,17.53051911408881,159.8146881107037</coordinates>
		</Point>
	</Placemark>
	<Placemark id="0A3A37B9E029FD457EAE">
		<name>RT39-SG-2028-0102-36+210</name>
		<LookAt>
			<longitude>104.5830343665146</longitude>
			<latitude>17.53053294824783</latitude>
			<altitude>159.7608311279307</altitude>
			<heading>104.1922407768556</heading>
			<tilt>0</tilt>
			<gx:fovy>35.00000033315854</gx:fovy>
			<range>500.0419652338315</range>
			<altitudeMode>absolute</altitudeMode>
		</LookAt>
		<styleUrl>#__managed_style_0FEDAEEAB82A3A4CEFB1</styleUrl>
		<Point>
			<coordinates>104.5830787071134,17.53052225561469,159.8343717857857</coordinates>
		</Point>
	</Placemark>
	<Placemark id="02011566EB29FD45B4F9">
		<name>RT40-SG-2028-0102-36+240</name>
		<LookAt>
			<longitude>104.5832968708255</longitude>
			<latitude>17.53054661932314</latitude>
			<altitude>159.8985413862397</altitude>
			<heading>104.192240780737</heading>
			<tilt>0</tilt>
			<gx:fovy>35.00000033315854</gx:fovy>
			<range>101.876929387472</range>
			<altitudeMode>absolute</altitudeMode>
		</LookAt>
		<styleUrl>#__managed_style_0FEDAEEAB82A3A4CEFB1</styleUrl>
		<Point>
			<coordinates>104.5833378713739,17.53051709308624,159.8245415839979</coordinates>
		</Point>
	</Placemark>
	<Placemark id="062C1C809B29FD5CF4E8">
		<name>RT41-SG-2028-0102-40+435</name>
		<LookAt>
			<longitude>104.6127286539074</longitude>
			<latitude>17.55223213428987</latitude>
			<altitude>150.9004598587284</altitude>
			<heading>143.4028974930864</heading>
			<tilt>0</tilt>
			<gx:fovy>35</gx:fovy>
			<range>97.61634195156148</range>
			<altitudeMode>absolute</altitudeMode>
		</LookAt>
		<styleUrl>#__managed_style_0FEDAEEAB82A3A4CEFB1</styleUrl>
		<Point>
			<coordinates>104.6126968146254,17.55221132735524,150.9675096144944</coordinates>
		</Point>
	</Placemark>
	<Placemark id="023D19571A29FD5D34DD">
		<name>RT42-SG-2028-0102-40+485</name>
		<LookAt>
			<longitude>104.612910639296</longitude>
			<latitude>17.55251415804323</latitude>
			<altitude>151.0279350524105</altitude>
			<heading>143.4029523759017</heading>
			<tilt>0</tilt>
			<gx:fovy>35</gx:fovy>
			<range>97.48886515508275</range>
			<altitudeMode>absolute</altitudeMode>
		</LookAt>
		<styleUrl>#__managed_style_0FEDAEEAB82A3A4CEFB1</styleUrl>
		<Point>
			<coordinates>104.6130211819894,17.55250005552114,151.2048164410178</coordinates>
		</Point>
	</Placemark>
	<Placemark id="0FA1AF7E6529F8838018">
		<name>LT1-SG-2028-0102-14+960</name>
		<LookAt>
			<longitude>104.4188091432164</longitude>
			<latitude>17.43285623298616</latitude>
			<altitude>159.5215103391024</altitude>
			<heading>258.0942644988326</heading>
			<tilt>0</tilt>
			<gx:fovy>35</gx:fovy>
			<range>95.6363955262532</range>
			<altitudeMode>absolute</altitudeMode>
		</LookAt>
		<styleUrl>#__managed_style_0FEDAEEAB82A3A4CEFB1</styleUrl>
		<Point>
			<coordinates>104.4187723390433,17.43283113381638,159.3601021692166</coordinates>
		</Point>
	</Placemark>
	<Placemark id="0095885B2329F8846369">
		<name>LT2-SG-2028-0102-15+000</name>
		<LookAt>
			<longitude>104.4192245365402</longitude>
			<latitude>17.43294220582749</latitude>
			<altitude>161.2776077219913</altitude>
			<heading>29.17758029596887</heading>
			<tilt>0</tilt>
			<gx:fovy>35</gx:fovy>
			<range>166.9733842949245</range>
			<altitudeMode>absolute</altitudeMode>
		</LookAt>
		<styleUrl>#__managed_style_0FEDAEEAB82A3A4CEFB1</styleUrl>
		<Point>
			<coordinates>104.4190771844941,17.43306028542222,161.8579621366216</coordinates>
		</Point>
	</Placemark>
	<Placemark id="0297BF35FB29F8850E7B">
		<name>LT3-SG-2028-0102-15+040</name>
		<LookAt>
			<longitude>104.4193109255742</longitude>
			<latitude>17.43297510486594</latitude>
			<altitude>161.5563032472623</altitude>
			<heading>29.17760617749485</heading>
			<tilt>0</tilt>
			<gx:fovy>35</gx:fovy>
			<range>166.6946852514229</range>
			<altitudeMode>absolute</altitudeMode>
		</LookAt>
		<styleUrl>#__managed_style_0FEDAEEAB82A3A4CEFB1</styleUrl>
		<Point>
			<coordinates>104.419225514213,17.43318114770844,162.5350611392365</coordinates>
		</Point>
	</Placemark>
	<Placemark id="0FF5FF68BD29F8864B6F">
		<name>LT4-SG-2028-0102-15+080</name>
		<LookAt>
			<longitude>104.4194286193428</longitude>
			<latitude>17.43329307664306</latitude>
			<altitude>162.6744679905227</altitude>
			<heading>15.130812166865</heading>
			<tilt>0</tilt>
			<gx:fovy>35</gx:fovy>
			<range>178.0415455603907</range>
			<altitudeMode>absolute</altitudeMode>
		</LookAt>
		<styleUrl>#__managed_style_0FEDAEEAB82A3A4CEFB1</styleUrl>
		<Point>
			<coordinates>104.41946012461,17.43335092730629,162.8992043385617</coordinates>
		</Point>
	</Placemark>
	<Placemark id="0A60A40FAA29F8870344">
		<name>LT5-SG-2028-0102-15+120</name>
		<LookAt>
			<longitude>104.4200052003369</longitude>
			<latitude>17.43347275442391</latitude>
			<altitude>164.476159369633</altitude>
			<heading>15.13098490950563</heading>
			<tilt>0</tilt>
			<gx:fovy>35</gx:fovy>
			<range>176.239869640558</range>
			<altitudeMode>absolute</altitudeMode>
		</LookAt>
		<styleUrl>#__managed_style_0FEDAEEAB82A3A4CEFB1</styleUrl>
		<Point>
			<coordinates>104.4197344958972,17.43355422354494,163.0565703118749</coordinates>
		</Point>
	</Placemark>
	<Placemark id="0C8580AFE729F8885C46">
		<name>LT6-SG-2028-0102-15+160</name>
		<LookAt>
			<longitude>104.4199999856265</longitude>
			<latitude>17.43374412864068</latitude>
			<altitude>164.2928840404184</altitude>
			<heading>15.13098490975454</heading>
			<tilt>0</tilt>
			<gx:fovy>35.00000675085451</gx:fovy>
			<range>109.7745225373183</range>
			<altitudeMode>absolute</altitudeMode>
		</LookAt>
		<styleUrl>#__managed_style_0FEDAEEAB82A3A4CEFB1</styleUrl>
		<Point>
			<coordinates>104.4200285287726,17.43379932490605,164.5005407387657</coordinates>
		</Point>
	</Placemark>
	<Placemark id="0657C610FF29F88972C0">
		<name>LT7-SG-2028-0102-15+200</name>
		<LookAt>
			<longitude>104.4203113702915</longitude>
			<latitude>17.43394350825716</latitude>
			<altitude>164.7758566108303</altitude>
			<heading>21.75512008125677</heading>
			<tilt>0</tilt>
			<gx:fovy>35</gx:fovy>
			<range>500.0000137789903</range>
			<altitudeMode>absolute</altitudeMode>
		</LookAt>
		<styleUrl>#__managed_style_0FEDAEEAB82A3A4CEFB1</styleUrl>
		<Point>
			<coordinates>104.4203809359042,17.43406113234927,164.8087832491094</coordinates>
		</Point>
	</Placemark>
	<Placemark id="007E45049029F88A5F71">
		<name>LT8-SG-2028-0102-15+240</name>
		<LookAt>
			<longitude>104.4206844182643</longitude>
			<latitude>17.43421983794389</latitude>
			<altitude>164.3713573852535</altitude>
			<heading>21.59235126601603</heading>
			<tilt>0</tilt>
			<gx:fovy>35.00000075019499</gx:fovy>
			<range>500.0000137789903</range>
			<altitudeMode>absolute</altitudeMode>
		</LookAt>
		<styleUrl>#__managed_style_0FEDAEEAB82A3A4CEFB1</styleUrl>
		<Point>
			<coordinates>104.4207664540407,17.43433592724893,164.8007658143894</coordinates>
		</Point>
	</Placemark>
	<Placemark id="02438C745129F88B6091">
		<name>LT9-SG-2028-0102-15+280</name>
		<LookAt>
			<longitude>104.4210921075357</longitude>
			<latitude>17.43451273658264</latitude>
			<altitude>165.5908980608162</altitude>
			<heading>21.75461513387663</heading>
			<tilt>0</tilt>
			<gx:fovy>35</gx:fovy>
			<range>500.0000137789903</range>
			<altitudeMode>absolute</altitudeMode>
		</LookAt>
		<styleUrl>#__managed_style_0FEDAEEAB82A3A4CEFB1</styleUrl>
		<Point>
			<coordinates>104.4210692569569,17.43455541341379,166.0094030939808</coordinates>
		</Point>
	</Placemark>
	<Placemark id="0A87EF990229F88C7140">
		<name>LT10-SG-2028-0102-15+320</name>
		<LookAt>
			<longitude>104.4214048156917</longitude>
			<latitude>17.43472980644806</latitude>
			<altitude>165.1774474041788</altitude>
			<heading>21.59334892378069</heading>
			<tilt>0</tilt>
			<gx:fovy>35</gx:fovy>
			<range>217.0573140778652</range>
			<altitudeMode>absolute</altitudeMode>
		</LookAt>
		<styleUrl>#__managed_style_0FEDAEEAB82A3A4CEFB1</styleUrl>
		<Point>
			<coordinates>104.4213807944394,17.43477462797614,165.6491288094894</coordinates>
		</Point>
	</Placemark>
	<Placemark id="083AECBCBC29F88D719A">
		<name>LT11-SG-2028-0102-15+360</name>
		<LookAt>
			<longitude>104.4220588955508</longitude>
			<latitude>17.43517714312747</latitude>
			<altitude>164.157588939173</altitude>
			<heading>4.774202363029247</heading>
			<tilt>0</tilt>
			<gx:fovy>35</gx:fovy>
			<range>221.6069377665917</range>
			<altitudeMode>absolute</altitudeMode>
		</LookAt>
		<styleUrl>#__managed_style_0FEDAEEAB82A3A4CEFB1</styleUrl>
		<Point>
			<coordinates>104.4218466795484,17.43503479404253,165.1068047714053</coordinates>
		</Point>
	</Placemark>
	<Placemark id="01B3587F9329F890CB3C">
		<name>LT12-SG-2028-0102-15+400</name>
		<LookAt>
			<longitude>104.422205842126</longitude>
			<latitude>17.43514143389395</latitude>
			<altitude>164.1757676266096</altitude>
			<heading>323.1492034873652</heading>
			<tilt>0</tilt>
			<gx:fovy>35.00000133256165</gx:fovy>
			<range>499.9999674237916</range>
			<altitudeMode>absolute</altitudeMode>
		</LookAt>
		<styleUrl>#__managed_style_0FEDAEEAB82A3A4CEFB1</styleUrl>
		<Point>
			<coordinates>104.4220971226099,17.43518958009889,164.3413145928875</coordinates>
		</Point>
	</Placemark>
	<Placemark id="077F57F63C29F8923913">
		<name>LT13-SG-2028-0102-15+440</name>
		<LookAt>
			<longitude>104.4224088938672</longitude>
			<latitude>17.43531056007532</latitude>
			<altitude>164.6663444371924</altitude>
			<heading>359.9996123490668</heading>
			<tilt>0</tilt>
			<gx:fovy>35</gx:fovy>
			<range>156.1749175756086</range>
			<altitudeMode>absolute</altitudeMode>
		</LookAt>
		<styleUrl>#__managed_style_0FEDAEEAB82A3A4CEFB1</styleUrl>
		<Point>
			<coordinates>104.422495417479,17.43540577334238,165.0398416266183</coordinates>
		</Point>
	</Placemark>
	<Placemark id="03D0A1050E29F8930322">
		<name>LT14-SG-2028-0102-15+480</name>
		<LookAt>
			<longitude>104.4229346114577</longitude>
			<latitude>17.4356174569359</latitude>
			<altitude>165.136313974018</altitude>
			<heading>311.8155820049683</heading>
			<tilt>0</tilt>
			<gx:fovy>35</gx:fovy>
			<range>183.299650517547</range>
			<altitudeMode>absolute</altitudeMode>
		</LookAt>
		<styleUrl>#__managed_style_0FEDAEEAB82A3A4CEFB1</styleUrl>
		<Point>
			<coordinates>104.4227934360419,17.43557679857527,165.3942514419493</coordinates>
		</Point>
	</Placemark>
	<Placemark id="07BE26B45B29F8944C95">
		<name>LT15-SG-2028-0102-15+520</name>
		<LookAt>
			<longitude>104.4232663001944</longitude>
			<latitude>17.43565064504161</latitude>
			<altitude>164.2388831325247</altitude>
			<heading>27.26159417929275</heading>
			<tilt>0</tilt>
			<gx:fovy>35</gx:fovy>
			<range>253.0525430803755</range>
			<altitudeMode>absolute</altitudeMode>
		</LookAt>
		<styleUrl>#__managed_style_0FEDAEEAB82A3A4CEFB1</styleUrl>
		<Point>
			<coordinates>104.4231651424174,17.43578839353076,164.8457239116847</coordinates>
		</Point>
	</Placemark>
	<Placemark id="0A7C80FD7C29F89523A7">
		<name>LT16-SG-2028-0102-15+560</name>
		<LookAt>
			<longitude>104.4235647358793</longitude>
			<latitude>17.43590256082998</latitude>
			<altitude>163.3964327481596</altitude>
			<heading>27.26180551361109</heading>
			<tilt>0</tilt>
			<gx:fovy>35</gx:fovy>
			<range>499.9999674237915</range>
			<altitudeMode>absolute</altitudeMode>
		</LookAt>
		<styleUrl>#__managed_style_0FEDAEEAB82A3A4CEFB1</styleUrl>
		<Point>
			<coordinates>104.4235952007766,17.43602463804958,163.3623801439729</coordinates>
		</Point>
	</Placemark>
	<Placemark id="0082EC087729F895C10F">
		<name>LT17-SG-2028-0102-15+600</name>
		<LookAt>
			<longitude>104.4235647358793</longitude>
			<latitude>17.43590256082998</latitude>
			<altitude>163.3964327481596</altitude>
			<heading>27.26180551361109</heading>
			<tilt>0</tilt>
			<gx:fovy>35</gx:fovy>
			<range>499.9999674237915</range>
			<altitudeMode>absolute</altitudeMode>
		</LookAt>
		<styleUrl>#__managed_style_0FEDAEEAB82A3A4CEFB1</styleUrl>
		<Point>
			<coordinates>104.4240478444116,17.4362919923749,164.0058461904399</coordinates>
		</Point>
	</Placemark>
	<Placemark id="01D0F11F0D29F8974D9F">
		<name>LT18-SG-2028-0102-16+250</name>
		<LookAt>
			<longitude>104.4289673328935</longitude>
			<latitude>17.4389046173422</latitude>
			<altitude>168.7519088288322</altitude>
			<heading>354.2328003854679</heading>
			<tilt>0</tilt>
			<gx:fovy>35</gx:fovy>
			<range>192.4395514042772</range>
			<altitudeMode>absolute</altitudeMode>
		</LookAt>
		<styleUrl>#__managed_style_0FEDAEEAB82A3A4CEFB1</styleUrl>
		<Point>
			<coordinates>104.4289361270979,17.43896951883861,169.3279633718606</coordinates>
		</Point>
	</Placemark>
	<Placemark id="0192347D6229F8982396">
		<name>LT19-SG-2028-0102-16+290</name>
		<LookAt>
			<longitude>104.4289673329379</longitude>
			<latitude>17.4389046173422</latitude>
			<altitude>168.7519088288322</altitude>
			<heading>354.2328003854679</heading>
			<tilt>0</tilt>
			<gx:fovy>35</gx:fovy>
			<range>192.4395745818765</range>
			<altitudeMode>absolute</altitudeMode>
		</LookAt>
		<styleUrl>#__managed_style_0FEDAEEAB82A3A4CEFB1</styleUrl>
		<Point>
			<coordinates>104.4293195250496,17.43916639033034,168.5692379619091</coordinates>
		</Point>
	</Placemark>
	<Placemark id="0708095FF329F898D144">
		<name>LT20-SG-2028-0102-16+330</name>
		<LookAt>
			<longitude>104.4295902774996</longitude>
			<latitude>17.43926119564313</latitude>
			<altitude>167.8979842921374</altitude>
			<heading>354.2329867225791</heading>
			<tilt>0</tilt>
			<gx:fovy>35</gx:fovy>
			<range>193.2934952862888</range>
			<altitudeMode>absolute</altitudeMode>
		</LookAt>
		<styleUrl>#__managed_style_0FEDAEEAB82A3A4CEFB1</styleUrl>
		<Point>
			<coordinates>104.4296839685672,17.43937131311495,168.0285970859373</coordinates>
		</Point>
	</Placemark>
	<Placemark id="0ADD58A79229F899BB06">
		<name>LT21-SG-2028-0102-16+370</name>
		<LookAt>
			<longitude>104.4300697280409</longitude>
			<latitude>17.43953740245951</latitude>
			<altitude>165.2904819179371</altitude>
			<heading>25.42846307332054</heading>
			<tilt>0</tilt>
			<gx:fovy>35</gx:fovy>
			<range>500.0000137789903</range>
			<altitudeMode>absolute</altitudeMode>
		</LookAt>
		<styleUrl>#__managed_style_0FEDAEEAB82A3A4CEFB1</styleUrl>
		<Point>
			<coordinates>104.4300940907836,17.43962133949887,164.9503720687699</coordinates>
		</Point>
	</Placemark>
	<Placemark id="061AE70F2B29F89AE996">
		<name>LT22-SG-2028-0102-16+410</name>
		<LookAt>
			<longitude>104.4303285073391</longitude>
			<latitude>17.43971817113088</latitude>
			<altitude>163.2051660913621</altitude>
			<heading>25.42846307751448</heading>
			<tilt>0</tilt>
			<gx:fovy>35</gx:fovy>
			<range>192.2242083286256</range>
			<altitudeMode>absolute</altitudeMode>
		</LookAt>
		<styleUrl>#__managed_style_0FEDAEEAB82A3A4CEFB1</styleUrl>
		<Point>
			<coordinates>104.4304858693275,17.43982663410022,163.3850394306636</coordinates>
		</Point>
	</Placemark>
	<Placemark id="02764237CB29FC931235">
		<name>LT23-SG-2028-0102-18+900</name>
		<LookAt>
			<longitude>104.4511502539359</longitude>
			<latitude>17.44945271571257</latitude>
			<altitude>155.1726154305497</altitude>
			<heading>17.40432214950141</heading>
			<tilt>0</tilt>
			<gx:fovy>35</gx:fovy>
			<range>500.0000137789903</range>
			<altitudeMode>absolute</altitudeMode>
		</LookAt>
		<styleUrl>#__managed_style_0FEDAEEAB82A3A4CEFB1</styleUrl>
		<Point>
			<coordinates>104.4511592514264,17.44953033170524,155.6413548534116</coordinates>
		</Point>
	</Placemark>
	<Placemark id="0386D9599029FC939BB1">
		<name>LT24-SG-2028-0102-18+960</name>
		<LookAt>
			<longitude>104.4516567740081</longitude>
			<latitude>17.44962343173926</latitude>
			<altitude>156.0024292530693</altitude>
			<heading>17.40450126264508</heading>
			<tilt>0</tilt>
			<gx:fovy>35</gx:fovy>
			<range>81.4177263574129</range>
			<altitudeMode>absolute</altitudeMode>
		</LookAt>
		<styleUrl>#__managed_style_0FEDAEEAB82A3A4CEFB1</styleUrl>
		<Point>
			<coordinates>104.4517090247243,17.44964343599704,156.2505301469597</coordinates>
		</Point>
	</Placemark>
	<Placemark id="0D048271C829FC9430A0">
		<name>LT25-SG-2028-0102-19+020</name>
		<LookAt>
			<longitude>104.4521861637003</longitude>
			<latitude>17.44985001861946</latitude>
			<altitude>157.9761053427183</altitude>
			<heading>17.40477798432242</heading>
			<tilt>0</tilt>
			<gx:fovy>35.00000008308666</gx:fovy>
			<range>188.0200699359557</range>
			<altitudeMode>absolute</altitudeMode>
		</LookAt>
		<styleUrl>#__managed_style_0FEDAEEAB82A3A4CEFB1</styleUrl>
		<Point>
			<coordinates>104.4523291705527,17.44977238153882,158.6097267943982</coordinates>
		</Point>
	</Placemark>
	<Placemark id="00BCAC978829FC9499F4">
		<name>LT26-SG-2028-0102-19+090</name>
		<LookAt>
			<longitude>104.4528043459567</longitude>
			<latitude>17.44978177309402</latitude>
			<altitude>158.9033621500635</altitude>
			<heading>17.40503661173139</heading>
			<tilt>0</tilt>
			<gx:fovy>35</gx:fovy>
			<range>168.9139751565199</range>
			<altitudeMode>absolute</altitudeMode>
		</LookAt>
		<styleUrl>#__managed_style_0FEDAEEAB82A3A4CEFB1</styleUrl>
		<Point>
			<coordinates>104.4529169316924,17.44990326979228,158.7815831098829</coordinates>
		</Point>
	</Placemark>
	<Placemark id="061EC830BD29FC955F10">
		<name>LT27-SG-2028-0102-19+150</name>
		<LookAt>
			<longitude>104.4535231369651</longitude>
			<latitude>17.45003611342811</latitude>
			<altitude>157.0488395014285</altitude>
			<heading>76.67071420033001</heading>
			<tilt>0</tilt>
			<gx:fovy>35</gx:fovy>
			<range>117.539018322841</range>
			<altitudeMode>absolute</altitudeMode>
		</LookAt>
		<styleUrl>#__managed_style_0FEDAEEAB82A3A4CEFB1</styleUrl>
		<Point>
			<coordinates>104.4534952057062,17.45005813050859,157.2245342966984</coordinates>
		</Point>
	</Placemark>
	<Placemark id="0425A413D229FCA1B20E">
		<name>LT28-SG-2028-0102-19+210</name>
		<LookAt>
			<longitude>104.4538407449654</longitude>
			<latitude>17.45010653379855</latitude>
			<altitude>157.4405039913096</altitude>
			<heading>17.37951086487489</heading>
			<tilt>0</tilt>
			<gx:fovy>35</gx:fovy>
			<range>160.4897058276219</range>
			<altitudeMode>absolute</altitudeMode>
		</LookAt>
		<styleUrl>#__managed_style_0FEDAEEAB82A3A4CEFB1</styleUrl>
		<Point>
			<coordinates>104.4538038133176,17.45013629029589,157.44441386087</coordinates>
		</Point>
	</Placemark>
	<Placemark id="058F40775B29FCA39B71">
		<name>LT29-SG-2028-0102-19+270</name>
		<Camera>
			<gx:ViewerOptions>
				<gx:option name="streetview"></gx:option>
				<gx:streetViewPanoId>L3PQwILsWg4i-eOziGzDMQ</gx:streetViewPanoId>
			</gx:ViewerOptions>
			<longitude>104.4541408838545</longitude>
			<latitude>17.45011532136984</latitude>
			<altitude>159.9340667724609</altitude>
			<heading>14.99516504245117</heading>
			<tilt>85.18426293072008</tilt>
			<roll>0</roll>
			<gx:fovy>59.99999326027979</gx:fovy>
			<altitudeMode>absolute</altitudeMode>
		</Camera>
		<styleUrl>#__managed_style_0FEDAEEAB82A3A4CEFB1</styleUrl>
		<Point>
			<coordinates>104.4541747916474,17.4502197356213,157.4749180173768</coordinates>
		</Point>
	</Placemark>
	<Placemark id="055532553A29FCA4A65B">
		<name>LT30-SG-2028-0102-19+300</name>
		<Camera>
			<gx:ViewerOptions>
				<gx:option name="streetview"></gx:option>
				<gx:streetViewPanoId>S7NFCoNKcfuhw_HIOx5MmA</gx:streetViewPanoId>
			</gx:ViewerOptions>
			<longitude>104.4545101081972</longitude>
			<latitude>17.45020032117406</latitude>
			<altitude>160.0310334752628</altitude>
			<heading>26.72838338626932</heading>
			<tilt>80.47095263934499</tilt>
			<roll>0</roll>
			<gx:fovy>18.21995311331191</gx:fovy>
			<altitudeMode>absolute</altitudeMode>
		</Camera>
		<styleUrl>#__managed_style_0FEDAEEAB82A3A4CEFB1</styleUrl>
		<Point>
			<altitudeMode>relativeToGround</altitudeMode>
			<coordinates>104.4545875880768,17.45027087647017,0</coordinates>
		</Point>
	</Placemark>
	<Placemark id="0CFE8FC3A129FCD6935B">
		<name>LT31-SB-2028-0102-20+430</name>
		<LookAt>
			<longitude>104.4628434543532</longitude>
			<latitude>17.45265642619977</latitude>
			<altitude>159.0989395913638</altitude>
			<heading>28.3228708683487</heading>
			<tilt>0</tilt>
			<gx:fovy>35</gx:fovy>
			<range>258.7969024833001</range>
			<altitudeMode>absolute</altitudeMode>
		</LookAt>
		<styleUrl>#__managed_style_0FEDAEEAB82A3A4CEFB1</styleUrl>
		<Point>
			<coordinates>104.4628023104056,17.45277782209916,158.3671908439768</coordinates>
		</Point>
	</Placemark>
	<Placemark id="0DD8C8E6EC29FCD732E8">
		<name>LT32-SG-2028-0102-20+460</name>
		<LookAt>
			<longitude>104.4630496803586</longitude>
			<latitude>17.45287434290428</latitude>
			<altitude>158.1953906629159</altitude>
			<heading>3.26410427000732</heading>
			<tilt>0</tilt>
			<gx:fovy>35</gx:fovy>
			<range>198.7358158031566</range>
			<altitudeMode>absolute</altitudeMode>
		</LookAt>
		<styleUrl>#__managed_style_0FEDAEEAB82A3A4CEFB1</styleUrl>
		<Point>
			<coordinates>104.4631365239701,17.45292854368709,157.8445454278629</coordinates>
		</Point>
	</Placemark>
	<Placemark id="03D400488329FCD7D48B">
		<name>LT33-SG-2028-0102-20+490</name>
		<LookAt>
			<longitude>104.4635429759222</longitude>
			<latitude>17.45299022199174</latitude>
			<altitude>157.8544186639388</altitude>
			<heading>145.9496267571604</heading>
			<tilt>0</tilt>
			<gx:fovy>35</gx:fovy>
			<range>499.9999674237915</range>
			<altitudeMode>absolute</altitudeMode>
		</LookAt>
		<styleUrl>#__managed_style_0FEDAEEAB82A3A4CEFB1</styleUrl>
		<Point>
			<coordinates>104.4635098206215,17.45308881002995,157.7017068141649</coordinates>
		</Point>
	</Placemark>
	<Placemark id="0CB3249C7E29FCD87704">
		<name>LT34-SG-2028-0102-20+520</name>
		<LookAt>
			<longitude>104.4638798170471</longitude>
			<latitude>17.45319132972054</latitude>
			<altitude>157.6182938714066</altitude>
			<heading>300.186673886249</heading>
			<tilt>0</tilt>
			<gx:fovy>35</gx:fovy>
			<range>176.6944403080015</range>
			<altitudeMode>absolute</altitudeMode>
		</LookAt>
		<styleUrl>#__managed_style_0FEDAEEAB82A3A4CEFB1</styleUrl>
		<Point>
			<coordinates>104.4638256693894,17.45322566420793,157.5429272342173</coordinates>
		</Point>
	</Placemark>
	<Placemark id="0BAE52DB1229FCD9386B">
		<name>LT35-SG-2028-0102-20+550</name>
		<LookAt>
			<longitude>104.4641830321537</longitude>
			<latitude>17.45324591962472</latitude>
			<altitude>158.5324751798012</altitude>
			<heading>26.34716971025897</heading>
			<tilt>0</tilt>
			<gx:fovy>35.00000299813047</gx:fovy>
			<range>181.9142442822158</range>
			<altitudeMode>absolute</altitudeMode>
		</LookAt>
		<styleUrl>#__managed_style_0FEDAEEAB82A3A4CEFB1</styleUrl>
		<Point>
			<coordinates>104.4641842335842,17.45334401965665,158.1529229914024</coordinates>
		</Point>
	</Placemark>
	<Placemark id="098187421C29FCD954CC">
		<name>LT36-SG-2028-0102-20+580</name>
		<LookAt>
			<longitude>104.4645091283615</longitude>
			<latitude>17.45343080754947</latitude>
			<altitude>158.6942519105714</altitude>
			<heading>26.34734206773459</heading>
			<tilt>0</tilt>
			<gx:fovy>35.00000299813047</gx:fovy>
			<range>93.33695748257014</range>
			<altitudeMode>absolute</altitudeMode>
		</LookAt>
		<styleUrl>#__managed_style_0FEDAEEAB82A3A4CEFB1</styleUrl>
		<Point>
			<coordinates>104.4645030033867,17.45347981069291,158.7274650633216</coordinates>
		</Point>
	</Placemark>
	<Placemark id="050ACDB35C29FCD9B1F3">
		<name>LT37-SG-2028-0102-20+610</name>
		<LookAt>
			<longitude>104.464761692453</longitude>
			<latitude>17.45352887273394</latitude>
			<altitude>159.1582980585013</altitude>
			<heading>26.34746881466922</heading>
			<tilt>0</tilt>
			<gx:fovy>35</gx:fovy>
			<range>499.9154155413272</range>
			<altitudeMode>absolute</altitudeMode>
		</LookAt>
		<styleUrl>#__managed_style_0FEDAEEAB82A3A4CEFB1</styleUrl>
		<Point>
			<coordinates>104.4648128890694,17.45359360887575,159.2197743332341</coordinates>
		</Point>
	</Placemark>
	<Placemark id="0B7D11975F29FCD9E5F6">
		<name>LT38-SG-2028-0102-20+640</name>
		<LookAt>
			<longitude>104.4651673666339</longitude>
			<latitude>17.45377186195355</latitude>
			<altitude>159.2212949489776</altitude>
			<heading>26.3476177327133</heading>
			<tilt>0</tilt>
			<gx:fovy>35</gx:fovy>
			<range>178.5199196223766</range>
			<altitudeMode>absolute</altitudeMode>
		</LookAt>
		<styleUrl>#__managed_style_0FEDAEEAB82A3A4CEFB1</styleUrl>
		<Point>
			<coordinates>104.465102736873,17.4537312284613,159.3374908771753</coordinates>
		</Point>
	</Placemark>
	<Placemark id="0BC070946E29FCDA8BB2">
		<name>LT39-SG-2028-0102-20+670</name>
		<LookAt>
			<longitude>104.4656413492771</longitude>
			<latitude>17.45400181758039</latitude>
			<altitude>159.6881537758297</altitude>
			<heading>32.31130418060309</heading>
			<tilt>0</tilt>
			<gx:fovy>35</gx:fovy>
			<range>185.9474362908077</range>
			<altitudeMode>absolute</altitudeMode>
		</LookAt>
		<styleUrl>#__managed_style_0FEDAEEAB82A3A4CEFB1</styleUrl>
		<Point>
			<coordinates>104.465517046688,17.45390423642905,159.9634264506305</coordinates>
		</Point>
	</Placemark>
	<Placemark id="04F40C225D29FCDAEF9E">
		<name>LT40-SG-2028-0102-20+700</name>
		<LookAt>
			<longitude>104.4658168671485</longitude>
			<latitude>17.45396492820582</latitude>
			<altitude>159.8406165153012</altitude>
			<heading>27.57423397364042</heading>
			<tilt>0</tilt>
			<gx:fovy>35</gx:fovy>
			<range>206.8581041899961</range>
			<altitudeMode>absolute</altitudeMode>
		</LookAt>
		<styleUrl>#__managed_style_0FEDAEEAB82A3A4CEFB1</styleUrl>
		<Point>
			<coordinates>104.4657769487266,17.4539995576039,159.9140554118082</coordinates>
		</Point>
	</Placemark>
	<Placemark id="0AA1BC30EC29FCDB1659">
		<name>LT41-SG-2028-0102-20+730</name>
		<LookAt>
			<longitude>104.4658168671263</longitude>
			<latitude>17.45396492820582</latitude>
			<altitude>159.8406165153012</altitude>
			<heading>27.57423397364042</heading>
			<tilt>0</tilt>
			<gx:fovy>35</gx:fovy>
			<range>206.8581041899961</range>
			<altitudeMode>absolute</altitudeMode>
		</LookAt>
		<styleUrl>#__managed_style_0FEDAEEAB82A3A4CEFB1</styleUrl>
		<Point>
			<coordinates>104.4660687098132,17.4541268651409,159.9690602455164</coordinates>
		</Point>
	</Placemark>
	<Placemark id="0E58E6B48129FCDBA7A5">
		<name>LT42-SG-2028-0102-20+760</name>
		<LookAt>
			<longitude>104.4663150547765</longitude>
			<latitude>17.45420770832866</latitude>
			<altitude>160.4653693737579</altitude>
			<heading>27.78320813663428</heading>
			<tilt>0</tilt>
			<gx:fovy>35.00005205439817</gx:fovy>
			<range>234.0923628777091</range>
			<altitudeMode>absolute</altitudeMode>
		</LookAt>
		<styleUrl>#__managed_style_0FEDAEEAB82A3A4CEFB1</styleUrl>
		<Point>
			<coordinates>104.4662973871812,17.45423012403906,160.4612500676814</coordinates>
		</Point>
	</Placemark>
	<Placemark id="0906830E5B29FCDBC92C">
		<name>LT43-SG-2028-0102-20+790</name>
		<LookAt>
			<longitude>104.4667384743898</longitude>
			<latitude>17.45433796766918</latitude>
			<altitude>159.9334686039239</altitude>
			<heading>27.78336691573994</heading>
			<tilt>0</tilt>
			<gx:fovy>35.00005205439817</gx:fovy>
			<range>96.41575968792495</range>
			<altitudeMode>absolute</altitudeMode>
		</LookAt>
		<styleUrl>#__managed_style_0FEDAEEAB82A3A4CEFB1</styleUrl>
		<Point>
			<coordinates>104.4667278427708,17.45439364236502,159.736844422139</coordinates>
		</Point>
	</Placemark>
	<Placemark id="0FF5BEDE5929FCDC2940">
		<name>LT44-SG-2028-0102-20+820</name>
		<LookAt>
			<longitude>104.4671005331587</longitude>
			<latitude>17.45448833332325</latitude>
			<altitude>159.8675564979803</altitude>
			<heading>322.3629468239515</heading>
			<tilt>0</tilt>
			<gx:fovy>35</gx:fovy>
			<range>499.9353482767766</range>
			<altitudeMode>absolute</altitudeMode>
		</LookAt>
		<styleUrl>#__managed_style_0FEDAEEAB82A3A4CEFB1</styleUrl>
		<Point>
			<coordinates>104.467053914779,17.45455093144369,159.6353959753767</coordinates>
		</Point>
	</Placemark>
	<Placemark id="06DDEBAE8E29FCDCB598">
		<name>LT45-SG-2028-0102-20+875</name>
		<LookAt>
			<longitude>104.4675924015871</longitude>
			<latitude>17.45468527661107</latitude>
			<altitude>160.7687478342373</altitude>
			<heading>347.5750343663384</heading>
			<tilt>0</tilt>
			<gx:fovy>35</gx:fovy>
			<range>499.7324052167824</range>
			<altitudeMode>absolute</altitudeMode>
		</LookAt>
		<styleUrl>#__managed_style_0FEDAEEAB82A3A4CEFB1</styleUrl>
		<Point>
			<coordinates>104.4675523116382,17.45472612910563,161.0701345962776</coordinates>
		</Point>
	</Placemark>
	<Placemark id="064EAB1CCF29FD0F6C25">
		<name>LT46-SG-2028-0102-20+925</name>
		<LookAt>
			<longitude>104.4681352964651</longitude>
			<latitude>17.45490474405279</latitude>
			<altitude>159.703445008859</altitude>
			<heading>347.5747038873427</heading>
			<tilt>0</tilt>
			<gx:fovy>35</gx:fovy>
			<range>100.1527941262975</range>
			<altitudeMode>absolute</altitudeMode>
		</LookAt>
		<styleUrl>#__managed_style_0FEDAEEAB82A3A4CEFB1</styleUrl>
		<Point>
			<coordinates>104.4681723482946,17.45499695169205,159.6018141522457</coordinates>
		</Point>
	</Placemark>
	<Placemark id="01EC078C5329FD0FA740">
		<name>LT47-SG-2028-0102-20+975</name>
		<LookAt>
			<longitude>104.4687033743136</longitude>
			<latitude>17.45512203124171</latitude>
			<altitude>158.8920613416753</altitude>
			<heading>347.5748736440174</heading>
			<tilt>0</tilt>
			<gx:fovy>35</gx:fovy>
			<range>100.9641839358846</range>
			<altitudeMode>absolute</altitudeMode>
		</LookAt>
		<styleUrl>#__managed_style_0FEDAEEAB82A3A4CEFB1</styleUrl>
		<Point>
			<coordinates>104.4687384556973,17.45523315057151,158.8478952926294</coordinates>
		</Point>
	</Placemark>
	<Placemark id="039951C3EA29FD0FE0ED">
		<name>LT48-SG-2028-0102-21+025</name>
		<LookAt>
			<longitude>104.4693789778179</longitude>
			<latitude>17.45538278903231</latitude>
			<altitude>159.6182876582947</altitude>
			<heading>347.5750757136721</heading>
			<tilt>0</tilt>
			<gx:fovy>35</gx:fovy>
			<range>100.237960215145</range>
			<altitudeMode>absolute</altitudeMode>
		</LookAt>
		<styleUrl>#__managed_style_0FEDAEEAB82A3A4CEFB1</styleUrl>
		<Point>
			<coordinates>104.4692351111745,17.45544170872644,159.1399271169629</coordinates>
		</Point>
	</Placemark>
	<Placemark id="0134B000A729FD101875">
		<name>LT49-SG-2028-0102-21+075</name>
		<LookAt>
			<longitude>104.469864505115</longitude>
			<latitude>17.45559350644617</latitude>
			<altitude>159.8235352017496</altitude>
			<heading>347.5752209187553</heading>
			<tilt>0</tilt>
			<gx:fovy>35</gx:fovy>
			<range>100.0327109840146</range>
			<altitudeMode>absolute</altitudeMode>
		</LookAt>
		<styleUrl>#__managed_style_0FEDAEEAB82A3A4CEFB1</styleUrl>
		<Point>
			<coordinates>104.469796517293,17.45566898276779,159.9368463484918</coordinates>
		</Point>
	</Placemark>
	<Placemark id="00459EF6EA29FD10499A">
		<name>LT50-SG-2028-0102-21+125</name>
		<LookAt>
			<longitude>104.4702889018201</longitude>
			<latitude>17.45576468168616</latitude>
			<altitude>159.1898719002552</altitude>
			<heading>347.5753477482339</heading>
			<tilt>0</tilt>
			<gx:fovy>35</gx:fovy>
			<range>100.666374961711</range>
			<altitudeMode>absolute</altitudeMode>
		</LookAt>
		<styleUrl>#__managed_style_0FEDAEEAB82A3A4CEFB1</styleUrl>
		<Point>
			<coordinates>104.4703237579695,17.45588946298372,159.381040936456</coordinates>
		</Point>
	</Placemark>
	<Placemark id="0681E3756129FD2DAC63">
		<name>LT51-SG-2028-0102-30+400</name>
		<LookAt>
			<longitude>104.5392758619585</longitude>
			<latitude>17.50266330987219</latitude>
			<altitude>160.1396577415967</altitude>
			<heading>8.583105249602006</heading>
			<tilt>0</tilt>
			<gx:fovy>35</gx:fovy>
			<range>500.0000137789903</range>
			<altitudeMode>absolute</altitudeMode>
		</LookAt>
		<styleUrl>#__managed_style_0FEDAEEAB82A3A4CEFB1</styleUrl>
		<Point>
			<coordinates>104.5393185592131,17.50279044785932,160.3187319541196</coordinates>
		</Point>
	</Placemark>
	<Placemark id="0971CA6AD729FD2ED0DD">
		<name>LT52-SG-2028-0102-30+445</name>
		<LookAt>
			<longitude>104.5396155181847</longitude>
			<latitude>17.50299962513727</latitude>
			<altitude>159.3099374796782</altitude>
			<heading>326.7269625057642</heading>
			<tilt>0</tilt>
			<gx:fovy>35</gx:fovy>
			<range>500.0000137789903</range>
			<altitudeMode>absolute</altitudeMode>
		</LookAt>
		<styleUrl>#__managed_style_0FEDAEEAB82A3A4CEFB1</styleUrl>
		<Point>
			<coordinates>104.5396181749317,17.50305976026771,159.6386973781601</coordinates>
		</Point>
	</Placemark>
	<Placemark id="016F88DC3029FD309228">
		<name>LT53-SG-2028-0102-30+490</name>
		<LookAt>
			<longitude>104.5397679265921</longitude>
			<latitude>17.50321266322285</latitude>
			<altitude>159.5336149181737</altitude>
			<heading>8.583331628150143</heading>
			<tilt>0</tilt>
			<gx:fovy>35</gx:fovy>
			<range>161.4463380635971</range>
			<altitudeMode>absolute</altitudeMode>
		</LookAt>
		<styleUrl>#__managed_style_0FEDAEEAB82A3A4CEFB1</styleUrl>
		<Point>
			<coordinates>104.5397929938864,17.50329299653173,159.7314743308649</coordinates>
		</Point>
	</Placemark>
	<Placemark id="0B041DF97E29FD310C25">
		<name>LT54-SG-2028-0102-30+535</name>
		<LookAt>
			<longitude>104.5400627248041</longitude>
			<latitude>17.50350530472635</latitude>
			<altitude>158.655284188278</altitude>
			<heading>324.8063260980973</heading>
			<tilt>0</tilt>
			<gx:fovy>35</gx:fovy>
			<range>179.4589600604377</range>
			<altitudeMode>absolute</altitudeMode>
		</LookAt>
		<styleUrl>#__managed_style_0FEDAEEAB82A3A4CEFB1</styleUrl>
		<Point>
			<coordinates>104.5400640547153,17.50355972332192,158.701218727154</coordinates>
		</Point>
	</Placemark>
	<Placemark id="00B71229AC29FD3177B1">
		<name>LT55-SG-2028-0102-30+580</name>
		<LookAt>
			<longitude>104.540369960678</longitude>
			<latitude>17.50380955763833</latitude>
			<altitude>159.3812980968551</altitude>
			<heading>278.6697498319394</heading>
			<tilt>0</tilt>
			<gx:fovy>35</gx:fovy>
			<range>125.6965598383067</range>
			<altitudeMode>absolute</altitudeMode>
		</LookAt>
		<styleUrl>#__managed_style_0FEDAEEAB82A3A4CEFB1</styleUrl>
		<Point>
			<coordinates>104.5403196038561,17.50382836000423,159.4522287306219</coordinates>
		</Point>
	</Placemark>
	<Placemark id="0E1F46800629FD320075">
		<name>LT56-SG-2028-0102-30+625</name>
		<LookAt>
			<longitude>104.5407167174036</longitude>
			<latitude>17.50408612655525</latitude>
			<altitude>161.2203268782241</altitude>
			<heading>226.4416026836389</heading>
			<tilt>0</tilt>
			<gx:fovy>35</gx:fovy>
			<range>499.9999674237915</range>
			<altitudeMode>absolute</altitudeMode>
		</LookAt>
		<styleUrl>#__managed_style_0FEDAEEAB82A3A4CEFB1</styleUrl>
		<Point>
			<coordinates>104.5405452522447,17.50404348466233,161.8403043642782</coordinates>
		</Point>
	</Placemark>
	<Placemark id="0DAC49FD4C29FD327DC1">
		<name>LT57-SG-2028-0102-30+470</name>
		<LookAt>
			<longitude>104.540877702223</longitude>
			<latitude>17.50419667311222</latitude>
			<altitude>160.8716907598386</altitude>
			<heading>359.8656156580336</heading>
			<tilt>0</tilt>
			<gx:fovy>35</gx:fovy>
			<range>500.0000137789903</range>
			<altitudeMode>absolute</altitudeMode>
		</LookAt>
		<styleUrl>#__managed_style_0FEDAEEAB82A3A4CEFB1</styleUrl>
		<Point>
			<coordinates>104.5407675258844,17.50426087998923,162.5575548685337</coordinates>
		</Point>
	</Placemark>
	<Placemark id="08A4EB1FE429FD33159F">
		<name>LT58-SG-2028-0102-30+715</name>
		<LookAt>
			<longitude>104.5411344249691</longitude>
			<latitude>17.50441469256198</latitude>
			<altitude>159.5713961819285</altitude>
			<heading>359.8656154314238</heading>
			<tilt>0</tilt>
			<gx:fovy>35</gx:fovy>
			<range>499.9999674237915</range>
			<altitudeMode>absolute</altitudeMode>
		</LookAt>
		<styleUrl>#__managed_style_0FEDAEEAB82A3A4CEFB1</styleUrl>
		<Point>
			<coordinates>104.541033694371,17.50446094666736,161.11430465171</coordinates>
		</Point>
	</Placemark>
	<Placemark id="05FD7702E229FD345DE6">
		<name>LT59-SG-2028-0102-30+760</name>
		<LookAt>
			<longitude>104.541665917104</longitude>
			<latitude>17.50469568159382</latitude>
			<altitude>156.1354082551759</altitude>
			<heading>255.8132286005332</heading>
			<tilt>0</tilt>
			<gx:fovy>35</gx:fovy>
			<range>500.000060134189</range>
			<altitudeMode>absolute</altitudeMode>
		</LookAt>
		<styleUrl>#__managed_style_0FEDAEEAB82A3A4CEFB1</styleUrl>
		<Point>
			<coordinates>104.5414065338574,17.50468590925617,155.9594780428453</coordinates>
		</Point>
	</Placemark>
	<Placemark id="0900590E2C29FD34956E">
		<name>LT60-SG-2028-0102-30+815</name>
		<LookAt>
			<longitude>104.541665917104</longitude>
			<latitude>17.50469568159382</latitude>
			<altitude>156.1354082551759</altitude>
			<heading>255.8132286005332</heading>
			<tilt>0</tilt>
			<gx:fovy>35</gx:fovy>
			<range>500.0001528445864</range>
			<altitudeMode>absolute</altitudeMode>
		</LookAt>
		<styleUrl>#__managed_style_0FEDAEEAB82A3A4CEFB1</styleUrl>
		<Point>
			<coordinates>104.5417620537981,17.50484316498632,155.3102561762048</coordinates>
		</Point>
	</Placemark>
	<Placemark id="00AAB1ED0B29FD35014C">
		<name>LT61-SG-2028-0102-30+860</name>
		<LookAt>
			<longitude>104.5420672767183</longitude>
			<latitude>17.50486127533111</latitude>
			<altitude>155.8654203420701</altitude>
			<heading>33.93538859689552</heading>
			<tilt>0</tilt>
			<gx:fovy>35</gx:fovy>
			<range>500.0000137789903</range>
			<altitudeMode>absolute</altitudeMode>
		</LookAt>
		<styleUrl>#__managed_style_0FEDAEEAB82A3A4CEFB1</styleUrl>
		<Point>
			<coordinates>104.5421841539224,17.50500803152118,154.9621593517796</coordinates>
		</Point>
	</Placemark>
	<Placemark id="04663DBF0E29FD35AEF7">
		<name>LT62-SG-2028-0102-30+915</name>
		<LookAt>
			<longitude>104.5428812712265</longitude>
			<latitude>17.5051901169112</latitude>
			<altitude>154.7983210730811</altitude>
			<heading>336.7599734954833</heading>
			<tilt>0</tilt>
			<gx:fovy>35</gx:fovy>
			<range>500.000060134189</range>
			<altitudeMode>absolute</altitudeMode>
		</LookAt>
		<styleUrl>#__managed_style_0FEDAEEAB82A3A4CEFB1</styleUrl>
		<Point>
			<coordinates>104.5427819917141,17.50526571064096,154.6145067395092</coordinates>
		</Point>
	</Placemark>
	<Placemark id="06B000383C29FD4EA74C">
		<name>LT63-SG-2028-0102-39+900</name>
		<LookAt>
			<longitude>104.609990306806</longitude>
			<latitude>17.54739441645545</latitude>
			<altitude>160.3824703565796</altitude>
			<heading>348.4196763512612</heading>
			<tilt>0</tilt>
			<gx:fovy>35</gx:fovy>
			<range>209.1631396239245</range>
			<altitudeMode>absolute</altitudeMode>
		</LookAt>
		<styleUrl>#__managed_style_0FEDAEEAB82A3A4CEFB1</styleUrl>
		<Point>
			<coordinates>104.6100236877467,17.5473295843231,160.6882190756042</coordinates>
		</Point>
	</Placemark>
	<Placemark id="087610DC4729FD4F1695">
		<name>LT64-SG-2028-0102-39+945</name>
		<Camera>
			<gx:ViewerOptions>
				<gx:option name="streetview"></gx:option>
				<gx:streetViewPanoId>dIJcJrDU-HyX3ajOc5s9pQ</gx:streetViewPanoId>
			</gx:ViewerOptions>
			<longitude>104.6101805344664</longitude>
			<latitude>17.54761165808129</latitude>
			<altitude>161.4498596191406</altitude>
			<heading>19.18503626632404</heading>
			<tilt>76.62945768000203</tilt>
			<roll>0</roll>
			<gx:fovy>59.99999999999999</gx:fovy>
			<altitudeMode>absolute</altitudeMode>
		</Camera>
		<styleUrl>#__managed_style_0FEDAEEAB82A3A4CEFB1</styleUrl>
		<Point>
			<altitudeMode>relativeToGround</altitudeMode>
			<coordinates>104.6101784193956,17.54764489002646,0</coordinates>
		</Point>
	</Placemark>
	<Placemark id="0C2CD869A629FD519F4B">
		<name>LT65-SG-2028-0102-39+990</name>
		<LookAt>
			<longitude>104.6104329214239</longitude>
			<latitude>17.54789180056855</latitude>
			<altitude>158.0271168693731</altitude>
			<heading>348.4198361543766</heading>
			<tilt>0</tilt>
			<gx:fovy>35</gx:fovy>
			<range>434.9264467509056</range>
			<altitudeMode>absolute</altitudeMode>
		</LookAt>
		<styleUrl>#__managed_style_0FEDAEEAB82A3A4CEFB1</styleUrl>
		<Point>
			<altitudeMode>relativeToGround</altitudeMode>
			<coordinates>104.6103233468347,17.54795303845594,0</coordinates>
		</Point>
	</Placemark>
	<Placemark id="073ECDDFA029FD5688E0">
		<name>LT66-SG-2028-0102-40+035</name>
		<LookAt>
			<longitude>104.6106577531713</longitude>
			<latitude>17.54856016808624</latitude>
			<altitude>156.9264364687491</altitude>
			<heading>341.5359272100578</heading>
			<tilt>0</tilt>
			<gx:fovy>35</gx:fovy>
			<range>500.1805209228042</range>
			<altitudeMode>absolute</altitudeMode>
		</LookAt>
		<styleUrl>#__managed_style_0FEDAEEAB82A3A4CEFB1</styleUrl>
		<Point>
			<coordinates>104.6104583422602,17.54833376875602,158.3340686642527</coordinates>
		</Point>
	</Placemark>
	<Placemark id="0F34F46FD029FD56EFBB">
		<name>LT67-SG-2028-0102-40+080</name>
		<LookAt>
			<longitude>104.6106577531269</longitude>
			<latitude>17.54856016804397</latitude>
			<altitude>156.9264741974219</altitude>
			<heading>341.5359272100578</heading>
			<tilt>0</tilt>
			<gx:fovy>35</gx:fovy>
			<range>500.1805209228042</range>
			<altitudeMode>absolute</altitudeMode>
		</LookAt>
		<styleUrl>#__managed_style_0FEDAEEAB82A3A4CEFB1</styleUrl>
		<Point>
			<coordinates>104.6106252941481,17.54867183725852,157.464498527572</coordinates>
		</Point>
	</Placemark>
	<Placemark id="0999BF6A2629FD58BC36">
		<name>LT68-SG-2028-0102-40+125</name>
		<LookAt>
			<longitude>104.6107158710841</longitude>
			<latitude>17.548676971696</latitude>
			<altitude>156.6357420895695</altitude>
			<heading>341.5359270221348</heading>
			<tilt>0</tilt>
			<gx:fovy>35</gx:fovy>
			<range>325.2771411941285</range>
			<altitudeMode>absolute</altitudeMode>
		</LookAt>
		<styleUrl>#__managed_style_0FEDAEEAB82A3A4CEFB1</styleUrl>
		<Point>
			<coordinates>104.6107960568565,17.54899308437026,155.8751565990707</coordinates>
		</Point>
	</Placemark>
	<Placemark id="0DB364482729FD5962BA">
		<name>LT69-SG-2028-0102-40+170</name>
		<LookAt>
			<longitude>104.6107931405418</longitude>
			<latitude>17.5489844480837</latitude>
			<altitude>155.8884191355309</altitude>
			<heading>341.5359269027612</heading>
			<tilt>0</tilt>
			<gx:fovy>35</gx:fovy>
			<range>160.4697267369738</range>
			<altitudeMode>absolute</altitudeMode>
		</LookAt>
		<styleUrl>#__managed_style_0FEDAEEAB82A3A4CEFB1</styleUrl>
		<Point>
			<coordinates>104.6109099932383,17.54926669788521,155.1513402429614</coordinates>
		</Point>
	</Placemark>
	<Placemark id="0A80F40FC429FD5A11B4">
		<name>LT70-SG-2028-0102-40+215</name>
		<LookAt>
			<longitude>104.6110638598335</longitude>
			<latitude>17.54955428695009</latitude>
			<altitude>154.7105271432713</altitude>
			<heading>281.9265290674586</heading>
			<tilt>0</tilt>
			<gx:fovy>35</gx:fovy>
			<range>246.9798729825198</range>
			<altitudeMode>absolute</altitudeMode>
		</LookAt>
		<styleUrl>#__managed_style_0FEDAEEAB82A3A4CEFB1</styleUrl>
		<Point>
			<coordinates>104.6110314803798,17.5495911237143,155.2485412843467</coordinates>
		</Point>
	</Placemark>
	<Placemark id="0104FC435C29FD5ACBF4">
		<name>LT71-SG-2028-0102-40+170</name>
		<LookAt>
			<longitude>104.6112145976879</longitude>
			<latitude>17.54988091600521</latitude>
			<altitude>155.0189328949354</altitude>
			<heading>281.926528603661</heading>
			<tilt>0</tilt>
			<gx:fovy>35</gx:fovy>
			<range>226.5524580299825</range>
			<altitudeMode>absolute</altitudeMode>
		</LookAt>
		<styleUrl>#__managed_style_0FEDAEEAB82A3A4CEFB1</styleUrl>
		<Point>
			<coordinates>104.6111775043076,17.54988143011012,155.4027751525356</coordinates>
		</Point>
	</Placemark>
	<Placemark id="013DE4097229FD5AE6B1">
		<name>LT72-SG-2028-0102-40+210</name>
		<LookAt>
			<longitude>104.6112145976768</longitude>
			<latitude>17.54988091602635</latitude>
			<altitude>155.0189328949354</altitude>
			<heading>281.926528603661</heading>
			<tilt>0</tilt>
			<gx:fovy>35</gx:fovy>
			<range>226.5524580299826</range>
			<altitudeMode>absolute</altitudeMode>
		</LookAt>
		<styleUrl>#__managed_style_0FEDAEEAB82A3A4CEFB1</styleUrl>
		<Point>
			<coordinates>104.6113031896118,17.55017245159643,156.03065915665</coordinates>
		</Point>
	</Placemark>
	<Placemark id="0211FCA8E029FD5B1D83">
		<name>LT73-SG-2028-0102-40+250</name>
		<LookAt>
			<longitude>104.611398487794</longitude>
			<latitude>17.55039596022469</latitude>
			<altitude>156.1598156989259</altitude>
			<heading>281.9265573642746</heading>
			<tilt>0</tilt>
			<gx:fovy>35</gx:fovy>
			<range>104.8749286870589</range>
			<altitudeMode>absolute</altitudeMode>
		</LookAt>
		<styleUrl>#__managed_style_0FEDAEEAB82A3A4CEFB1</styleUrl>
		<Point>
			<coordinates>104.611435654482,17.55046139092834,156.2261598932953</coordinates>
		</Point>
	</Placemark>
	<Placemark id="004CF2521E29FD5B6EBF">
		<name>LT74-SG-2028-0102-40+290</name>
		<LookAt>
			<longitude>104.611527062487</longitude>
			<latitude>17.55057158393938</latitude>
			<altitude>155.2067158470749</altitude>
			<heading>281.9265570549634</heading>
			<tilt>0</tilt>
			<gx:fovy>35</gx:fovy>
			<range>157.3337859547973</range>
			<altitudeMode>absolute</altitudeMode>
		</LookAt>
		<styleUrl>#__managed_style_0FEDAEEAB82A3A4CEFB1</styleUrl>
		<Point>
			<coordinates>104.611571393834,17.55075110915895,155.4803765735596</coordinates>
		</Point>
	</Placemark>
	<Placemark id="0D16D815D329FD5B91CD">
		<name>LT75-SG-2028-0102-40+330</name>
		<LookAt>
			<longitude>104.6116501359011</longitude>
			<latitude>17.551127145307</latitude>
			<altitude>156.0705060313578</altitude>
			<heading>281.9265938917683</heading>
			<tilt>0</tilt>
			<gx:fovy>35</gx:fovy>
			<range>156.4699915930578</range>
			<altitudeMode>absolute</altitudeMode>
		</LookAt>
		<styleUrl>#__managed_style_0FEDAEEAB82A3A4CEFB1</styleUrl>
		<Point>
			<coordinates>104.6117397220092,17.55105569416502,154.7210599778417</coordinates>
		</Point>
	</Placemark>
	<Placemark id="01AC81346A29FD5BBB7F">
		<name>LT76-SG-2028-0102-40+380</name>
		<LookAt>
			<longitude>104.6118030383552</longitude>
			<latitude>17.5512266603643</latitude>
			<altitude>154.0000493221416</altitude>
			<heading>281.9265937952123</heading>
			<tilt>0</tilt>
			<gx:fovy>35</gx:fovy>
			<range>72.66063249610852</range>
			<altitudeMode>absolute</altitudeMode>
		</LookAt>
		<styleUrl>#__managed_style_0FEDAEEAB82A3A4CEFB1</styleUrl>
		<Point>
			<coordinates>104.6118953966414,17.55134248975551,153.19180523444</coordinates>
		</Point>
	</Placemark>
	<Placemark id="0E9AA7130C29FD5BD6E1">
		<name>LT77-SG-2028-0102-40+330</name>
		<LookAt>
			<longitude>104.6119956741759</longitude>
			<latitude>17.55163342911585</latitude>
			<altitude>152.5313692486365</altitude>
			<heading>281.9266515654284</heading>
			<tilt>0</tilt>
			<gx:fovy>35</gx:fovy>
			<range>74.12931584593935</range>
			<altitudeMode>absolute</altitudeMode>
		</LookAt>
		<styleUrl>#__managed_style_0FEDAEEAB82A3A4CEFB1</styleUrl>
		<Point>
			<coordinates>104.6120748369769,17.55161247359909,152.108852757724</coordinates>
		</Point>
	</Placemark>
	<Placemark id="0B126F00F929FD5C1A57">
		<name>LT78-SG-2028-0102-40+370</name>
		<LookAt>
			<longitude>104.6123367463036</longitude>
			<latitude>17.55180667190511</latitude>
			<altitude>150.7245526337448</altitude>
			<heading>349.9610080578205</heading>
			<tilt>0</tilt>
			<gx:fovy>35</gx:fovy>
			<range>500</range>
			<altitudeMode>absolute</altitudeMode>
		</LookAt>
		<styleUrl>#__managed_style_0FEDAEEAB82A3A4CEFB1</styleUrl>
		<Point>
			<coordinates>104.6122645739788,17.55188122137951,151.5302243115472</coordinates>
		</Point>
	</Placemark>
	<Placemark id="0F57A7EDEB29FD5C86BB">
		<name>LT79-SG-2028-0102-40+410</name>
		<LookAt>
			<longitude>104.6123451823141</longitude>
			<latitude>17.55196580172485</latitude>
			<altitude>151.1863010644774</altitude>
			<heading>349.9610076798114</heading>
			<tilt>0</tilt>
			<gx:fovy>35</gx:fovy>
			<range>199.2593745950945</range>
			<altitudeMode>absolute</altitudeMode>
		</LookAt>
		<styleUrl>#__managed_style_0FEDAEEAB82A3A4CEFB1</styleUrl>
		<Point>
			<coordinates>104.6124111061474,17.55209192445502,151.3621188779636</coordinates>
		</Point>
	</Placemark>
	<Placemark id="02E922C34F29FD5D1C08">
		<name>LT80-SG-2028-0102-40+460</name>
		<LookAt>
			<longitude>104.612910639296</longitude>
			<latitude>17.55251415804323</latitude>
			<altitude>151.0279350524105</altitude>
			<heading>143.4029523759017</heading>
			<tilt>0</tilt>
			<gx:fovy>35</gx:fovy>
			<range>97.48886515508275</range>
			<altitudeMode>absolute</altitudeMode>
		</LookAt>
		<styleUrl>#__managed_style_0FEDAEEAB82A3A4CEFB1</styleUrl>
		<Point>
			<coordinates>104.6127804381567,17.5524871523051,151.4632287846404</coordinates>
		</Point>
	</Placemark>
	<Placemark id="010F361BE229FD5DA6F7">
		<name>LT81-SG-2028-0102-40+500</name>
		<LookAt>
			<longitude>104.6130606100195</longitude>
			<latitude>17.55273638809102</latitude>
			<altitude>151.1339284140609</altitude>
			<heading>244.8584719054103</heading>
			<tilt>0</tilt>
			<gx:fovy>35.00000075018016</gx:fovy>
			<range>82.27470071054086</range>
			<altitudeMode>absolute</altitudeMode>
		</LookAt>
		<styleUrl>#__managed_style_0FEDAEEAB82A3A4CEFB1</styleUrl>
		<Point>
			<coordinates>104.6130294427246,17.55278918986108,151.2433610474131</coordinates>
		</Point>
	</Placemark>
	<Placemark id="006A04716D29FCA60BE8">
		<name>MD1-DB-2028-0102-19+330</name>
		<LookAt>
			<longitude>104.4549505406368</longitude>
			<latitude>17.45025921940328</latitude>
			<altitude>157.0488749723225</altitude>
			<heading>227.2471884134697</heading>
			<tilt>0</tilt>
			<gx:fovy>35</gx:fovy>
			<range>75.75052518275697</range>
			<altitudeMode>absolute</altitudeMode>
		</LookAt>
		<styleUrl>#__managed_style_0FEDAEEAB82A3A4CEFB1</styleUrl>
		<Point>
			<coordinates>104.4548646879416,17.45022161766929,157.6020245999551</coordinates>
		</Point>
	</Placemark>
	<Placemark id="04B375116129FCA7768E">
		<name>MD2-DB-2028-0102-19+370</name>
		<LookAt>
			<longitude>104.4551799078234</longitude>
			<latitude>17.45031823885498</latitude>
			<altitude>157.0489504791807</altitude>
			<heading>89.73469369845979</heading>
			<tilt>0</tilt>
			<gx:fovy>35</gx:fovy>
			<range>77.22207676050857</range>
			<altitudeMode>absolute</altitudeMode>
		</LookAt>
		<styleUrl>#__managed_style_0FEDAEEAB82A3A4CEFB1</styleUrl>
		<Point>
			<coordinates>104.455260494284,17.45031395080093,157.2246853207302</coordinates>
		</Point>
	</Placemark>
	<Placemark id="086DF79DCE29FCA7FB7B">
		<name>MD3-DB-2028-0102-19+410</name>
		<LookAt>
			<longitude>104.4554383513732</longitude>
			<latitude>17.4503944511343</latitude>
			<altitude>157.8247086384257</altitude>
			<heading>82.18333662805766</heading>
			<tilt>0</tilt>
			<gx:fovy>35</gx:fovy>
			<range>97.93805861947476</range>
			<altitudeMode>absolute</altitudeMode>
		</LookAt>
		<styleUrl>#__managed_style_0FEDAEEAB82A3A4CEFB1</styleUrl>
		<Point>
			<coordinates>104.4555081224442,17.45041247701344,158.3189224754601</coordinates>
		</Point>
	</Placemark>
	<Placemark id="00281DA61629FCA87363">
		<name>MD4-DB-2028-0102-19+450</name>
		<LookAt>
			<longitude>104.4558339642093</longitude>
			<latitude>17.45048156894001</latitude>
			<altitude>159.6175551194025</altitude>
			<heading>133.2354603828942</heading>
			<tilt>0</tilt>
			<gx:fovy>35.0000040821383</gx:fovy>
			<range>152.4028675790032</range>
			<altitudeMode>absolute</altitudeMode>
		</LookAt>
		<styleUrl>#__managed_style_0FEDAEEAB82A3A4CEFB1</styleUrl>
		<Point>
			<coordinates>104.455821722264,17.45047115565961,159.7407510356234</coordinates>
		</Point>
	</Placemark>
	<Placemark id="07F4983BDF29FCA92CC8">
		<name>MD5-DB-2028-0102-19+490</name>
		<LookAt>
			<longitude>104.4559929321429</longitude>
			<latitude>17.45057437149877</latitude>
			<altitude>160.0905994723277</altitude>
			<heading>167.7775908396032</heading>
			<tilt>0</tilt>
			<gx:fovy>35</gx:fovy>
			<range>141.3242532162258</range>
			<altitudeMode>absolute</altitudeMode>
		</LookAt>
		<styleUrl>#__managed_style_0FEDAEEAB82A3A4CEFB1</styleUrl>
		<Point>
			<coordinates>104.4561399622877,17.45054378013027,160.0977248506276</coordinates>
		</Point>
	</Placemark>
	<Placemark id="0CAB6E1DC629FCAA3E60">
		<name>MD6-DB-2028-0102-19+530</name>
		<LookAt>
			<longitude>104.4564703509639</longitude>
			<latitude>17.4506366033557</latitude>
			<altitude>158.9594048313078</altitude>
			<heading>157.5658298805859</heading>
			<tilt>0</tilt>
			<gx:fovy>35</gx:fovy>
			<range>244.6308696426058</range>
			<altitudeMode>absolute</altitudeMode>
		</LookAt>
		<styleUrl>#__managed_style_0FEDAEEAB82A3A4CEFB1</styleUrl>
		<Point>
			<coordinates>104.4564777404275,17.45059252089888,158.9246846794227</coordinates>
		</Point>
	</Placemark>
	<Placemark id="03ABC49FE229FCAA6784">
		<name>MD7-DB-2028-0102-19+570</name>
		<LookAt>
			<longitude>104.4564703509639</longitude>
			<latitude>17.45063660333458</latitude>
			<altitude>158.9594048313078</altitude>
			<heading>157.5658298805859</heading>
			<tilt>0</tilt>
			<gx:fovy>35</gx:fovy>
			<range>244.6308696426058</range>
			<altitudeMode>absolute</altitudeMode>
		</LookAt>
		<styleUrl>#__managed_style_0FEDAEEAB82A3A4CEFB1</styleUrl>
		<Point>
			<coordinates>104.4567983995473,17.45064047046368,158.3546684127206</coordinates>
		</Point>
	</Placemark>
	<Placemark id="0B63C228EC29FCBC15D2">
		<name>MD8-DB-2028-0102-19+610</name>
		<LookAt>
			<longitude>104.4572094894277</longitude>
			<latitude>17.45079422463915</latitude>
			<altitude>158.7238909094177</altitude>
			<heading>216.8833845989225</heading>
			<tilt>0</tilt>
			<gx:fovy>35.00000299814046</gx:fovy>
			<range>500.000060134189</range>
			<altitudeMode>absolute</altitudeMode>
		</LookAt>
		<styleUrl>#__managed_style_0FEDAEEAB82A3A4CEFB1</styleUrl>
		<Point>
			<coordinates>104.4570337951932,17.45071122204908,158.5851104861917</coordinates>
		</Point>
	</Placemark>
	<Placemark id="0ACE8E5AE129FCBCE93F">
		<name>MD9-DB-2028-0102-19+650</name>
		<LookAt>
			<longitude>104.4573322855002</longitude>
			<latitude>17.45087508121542</latitude>
			<altitude>158.7703983044998</altitude>
			<heading>118.1998765157465</heading>
			<tilt>0</tilt>
			<gx:fovy>35.00000074897542</gx:fovy>
			<range>160.4218186390972</range>
			<altitudeMode>absolute</altitudeMode>
		</LookAt>
		<styleUrl>#__managed_style_0FEDAEEAB82A3A4CEFB1</styleUrl>
		<Point>
			<coordinates>104.4573413501462,17.45075583147591,159.4047526271686</coordinates>
		</Point>
	</Placemark>
	<Placemark id="0E4C217F2B29FCBE6075">
		<name>MD10-DB-2028-0102-19+690</name>
		<LookAt>
			<longitude>104.4576144421132</longitude>
			<latitude>17.45089985142558</latitude>
			<altitude>159.3357312944198</altitude>
			<heading>111.9722843703962</heading>
			<tilt>0</tilt>
			<gx:fovy>35</gx:fovy>
			<range>245.0623206546879</range>
			<altitudeMode>absolute</altitudeMode>
		</LookAt>
		<styleUrl>#__managed_style_0FEDAEEAB82A3A4CEFB1</styleUrl>
		<Point>
			<coordinates>104.4576013963647,17.45080798790324,159.6519532060095</coordinates>
		</Point>
	</Placemark>
	<Placemark id="06A741EE6429FCBE85A1">
		<name>MD11-DB-2028-0102-19+730</name>
		<LookAt>
			<longitude>104.457614442091</longitude>
			<latitude>17.45089985138332</latitude>
			<altitude>159.3357124286688</altitude>
			<heading>111.9722843703962</heading>
			<tilt>0</tilt>
			<gx:fovy>35</gx:fovy>
			<range>245.0623438322873</range>
			<altitudeMode>absolute</altitudeMode>
		</LookAt>
		<styleUrl>#__managed_style_0FEDAEEAB82A3A4CEFB1</styleUrl>
		<Point>
			<coordinates>104.4578681536554,17.45087111688182,160.4755841740915</coordinates>
		</Point>
	</Placemark>
	<Placemark id="00E7BC7B0229FCBF2146">
		<name>MD12-DB-2028-0102-19+810</name>
		<LookAt>
			<longitude>104.4580874386593</longitude>
			<latitude>17.450993029246</latitude>
			<altitude>160.6972475856049</altitude>
			<heading>211.2032340021725</heading>
			<tilt>0</tilt>
			<gx:fovy>35</gx:fovy>
			<range>500.0000137789903</range>
			<altitudeMode>absolute</altitudeMode>
		</LookAt>
		<styleUrl>#__managed_style_0FEDAEEAB82A3A4CEFB1</styleUrl>
		<Point>
			<coordinates>104.4580657281589,17.45092107053097,160.5303596888582</coordinates>
		</Point>
	</Placemark>
	<Placemark id="0112D543E929FCBF55E0">
		<name>MD13-DB-2028-0102-19+850</name>
		<LookAt>
			<longitude>104.4580874386926</longitude>
			<latitude>17.45099302920375</latitude>
			<altitude>160.6972475856049</altitude>
			<heading>211.2032340021725</heading>
			<tilt>0</tilt>
			<gx:fovy>35</gx:fovy>
			<range>500.0000137789903</range>
			<altitudeMode>absolute</altitudeMode>
		</LookAt>
		<styleUrl>#__managed_style_0FEDAEEAB82A3A4CEFB1</styleUrl>
		<Point>
			<coordinates>104.4582481808348,17.45099372333839,160.750902282774</coordinates>
		</Point>
	</Placemark>
	<Placemark id="055FAF298629FCC06D85">
		<name>MD14-DB-2028-0102-19+890</name>
		<LookAt>
			<longitude>104.4584412850021</longitude>
			<latitude>17.45098296629795</latitude>
			<altitude>160.3035836500678</altitude>
			<heading>101.2263162765735</heading>
			<tilt>0</tilt>
			<gx:fovy>35</gx:fovy>
			<range>146.1810728068668</range>
			<altitudeMode>absolute</altitudeMode>
		</LookAt>
		<styleUrl>#__managed_style_0FEDAEEAB82A3A4CEFB1</styleUrl>
		<Point>
			<coordinates>104.4584260815699,17.4510499076592,160.4349944410391</coordinates>
		</Point>
	</Placemark>
	<Placemark id="00749A61E829FCC0E6CB">
		<name>MD15-DB-2028-0102-19+930</name>
		<LookAt>
			<longitude>104.4586843843476</longitude>
			<latitude>17.45115691079596</latitude>
			<altitude>158.4655392517869</altitude>
			<heading>200.0327986497846</heading>
			<tilt>0</tilt>
			<gx:fovy>35</gx:fovy>
			<range>248.6811087755268</range>
			<altitudeMode>absolute</altitudeMode>
		</LookAt>
		<styleUrl>#__managed_style_0FEDAEEAB82A3A4CEFB1</styleUrl>
		<Point>
			<coordinates>104.4586360970624,17.45110462116967,159.2112283328137</coordinates>
		</Point>
	</Placemark>
	<Placemark id="02CBC3906A29FCC615A3">
		<name>MD16-DB-2028-0102-20+040</name>
		<LookAt>
			<longitude>104.4589123512502</longitude>
			<latitude>17.45126667734514</latitude>
			<altitude>156.9629718460008</altitude>
			<heading>143.901912236396</heading>
			<tilt>0</tilt>
			<gx:fovy>35</gx:fovy>
			<range>197.1110892656362</range>
			<altitudeMode>absolute</altitudeMode>
		</LookAt>
		<styleUrl>#__managed_style_0FEDAEEAB82A3A4CEFB1</styleUrl>
		<Point>
			<coordinates>104.4589137577929,17.45116459432357,157.833344063881</coordinates>
		</Point>
	</Placemark>
	<Placemark id="0F837A4B1729FCC6AC02">
		<name>MD17-DB-2028-0102-20+070</name>
		<LookAt>
			<longitude>104.4591441555327</longitude>
			<latitude>17.45138645576434</latitude>
			<altitude>156.1458691288094</altitude>
			<heading>143.9020574030171</heading>
			<tilt>0</tilt>
			<gx:fovy>35</gx:fovy>
			<range>166.8565344277522</range>
			<altitudeMode>absolute</altitudeMode>
		</LookAt>
		<styleUrl>#__managed_style_0FEDAEEAB82A3A4CEFB1</styleUrl>
		<Point>
			<coordinates>104.4592122608345,17.45126002918934,156.9715520330588</coordinates>
		</Point>
	</Placemark>
	<Placemark id="09F5F1A5FC29FCC70595">
		<name>MD18-DB-2028-0102-20+100</name>
		<LookAt>
			<longitude>104.4594679220513</longitude>
			<latitude>17.45139080807828</latitude>
			<altitude>156.0395971351811</altitude>
			<heading>143.9020574026064</heading>
			<tilt>0</tilt>
			<gx:fovy>35</gx:fovy>
			<range>152.6837684944439</range>
			<altitudeMode>absolute</altitudeMode>
		</LookAt>
		<styleUrl>#__managed_style_0FEDAEEAB82A3A4CEFB1</styleUrl>
		<Point>
			<coordinates>104.4595348330546,17.45138149174292,156.1474904387251</coordinates>
		</Point>
	</Placemark>
	<Placemark id="0F5AC764ED29FCC787E7">
		<name>MD19-DB-2028-0102-20+130</name>
		<LookAt>
			<longitude>104.4597080747826</longitude>
			<latitude>17.45129366517414</latitude>
			<altitude>156.233511428116</altitude>
			<heading>77.75510261791548</heading>
			<tilt>0</tilt>
			<gx:fovy>35</gx:fovy>
			<range>109.04281731433</range>
			<altitudeMode>absolute</altitudeMode>
		</LookAt>
		<styleUrl>#__managed_style_0FEDAEEAB82A3A4CEFB1</styleUrl>
		<Point>
			<coordinates>104.4598104015136,17.45147454513666,155.9532554584559</coordinates>
		</Point>
	</Placemark>
	<Placemark id="04A1FEB2BE29FCC891B1">
		<name>MD20-DB-2028-0102-20+160</name>
		<LookAt>
			<longitude>104.4599176196834</longitude>
			<latitude>17.45163040508132</latitude>
			<altitude>155.3499798127013</altitude>
			<heading>34.64435948882336</heading>
			<tilt>0</tilt>
			<gx:fovy>35</gx:fovy>
			<range>226.4070881267981</range>
			<altitudeMode>absolute</altitudeMode>
		</LookAt>
		<styleUrl>#__managed_style_0FEDAEEAB82A3A4CEFB1</styleUrl>
		<Point>
			<coordinates>104.4600402837383,17.45158980852956,155.1659440790457</coordinates>
		</Point>
	</Placemark>
	<Placemark id="0DF87F84F629FCC93A9C">
		<name>MD21-DB-2028-0102-20+190</name>
		<LookAt>
			<longitude>104.4602607380973</longitude>
			<latitude>17.45174082529979</latitude>
			<altitude>154.6536417870983</altitude>
			<heading>89.02911671510043</heading>
			<tilt>0</tilt>
			<gx:fovy>35</gx:fovy>
			<range>192.4982486746558</range>
			<altitudeMode>absolute</altitudeMode>
		</LookAt>
		<styleUrl>#__managed_style_0FEDAEEAB82A3A4CEFB1</styleUrl>
		<Point>
			<coordinates>104.4603159370506,17.45170987539957,154.8656317650142</coordinates>
		</Point>
	</Placemark>
	<Placemark id="017B38077429FCC9ED2B">
		<name>MD22-DB-2028-0102-20+220</name>
		<LookAt>
			<longitude>104.4604845340423</longitude>
			<latitude>17.45186379110147</latitude>
			<altitude>155.6398148212718</altitude>
			<heading>59.69440911003735</heading>
			<tilt>0</tilt>
			<gx:fovy>35</gx:fovy>
			<range>188.3171256381502</range>
			<altitudeMode>absolute</altitudeMode>
		</LookAt>
		<styleUrl>#__managed_style_0FEDAEEAB82A3A4CEFB1</styleUrl>
		<Point>
			<coordinates>104.4606453046401,17.45185786123577,156.17840276431</coordinates>
		</Point>
	</Placemark>
	<Placemark id="0BEE56A25A29FCD1C9BB">
		<name>MD23-DB-2028-1-0102-20+340</name>
		<LookAt>
			<longitude>104.4620175423758</longitude>
			<latitude>17.45231943860607</latitude>
			<altitude>159.1485624043693</altitude>
			<heading>29.97315535257033</heading>
			<tilt>0</tilt>
			<gx:fovy>35</gx:fovy>
			<range>208.4377502967618</range>
			<altitudeMode>absolute</altitudeMode>
		</LookAt>
		<styleUrl>#__managed_style_0FEDAEEAB82A3A4CEFB1</styleUrl>
		<Point>
			<coordinates>104.462036168742,17.45240548677128,159.1756537948992</coordinates>
		</Point>
	</Placemark>
	<Placemark id="0B15BCC58529FCD24A1A">
		<name>MD24-DB-2028-0102-20+370</name>
		<LookAt>
			<longitude>104.4625088680229</longitude>
			<latitude>17.45246782809618</latitude>
			<altitude>159.2103575184942</altitude>
			<heading>312.7769201737682</heading>
			<tilt>0</tilt>
			<gx:fovy>35.00000133256165</gx:fovy>
			<range>198.2414376088127</range>
			<altitudeMode>absolute</altitudeMode>
		</LookAt>
		<styleUrl>#__managed_style_0FEDAEEAB82A3A4CEFB1</styleUrl>
		<Point>
			<coordinates>104.462315623211,17.45252448734075,159.0088288734015</coordinates>
		</Point>
	</Placemark>
	<Placemark id="022F7E924329FCD26571">
		<name>MD25-DB-2028-0102-20+400</name>
		<LookAt>
			<longitude>104.4625710528853</longitude>
			<latitude>17.452540384196</latitude>
			<altitude>158.9200748515112</altitude>
			<heading>312.7769198647907</heading>
			<tilt>0</tilt>
			<gx:fovy>35.00000133256165</gx:fovy>
			<range>98.17547835851659</range>
			<altitudeMode>absolute</altitudeMode>
		</LookAt>
		<styleUrl>#__managed_style_0FEDAEEAB82A3A4CEFB1</styleUrl>
		<Point>
			<coordinates>104.4625899479049,17.45263378358197,158.4825737665271</coordinates>
		</Point>
	</Placemark>
	<Placemark id="0E9C141A4C29FCCAF2CB">
		<name>MD/LT1-2028-0102-20+250</name>
		<LookAt>
			<longitude>104.4612059563985</longitude>
			<latitude>17.45206699250651</latitude>
			<altitude>157.9995201545655</altitude>
			<heading>48.61599783243435</heading>
			<tilt>0</tilt>
			<gx:fovy>35</gx:fovy>
			<range>117.8463764679509</range>
			<altitudeMode>absolute</altitudeMode>
		</LookAt>
		<styleUrl>#__managed_style_0FEDAEEAB82A3A4CEFB1</styleUrl>
		<Point>
			<coordinates>104.460996802648,17.45203906898081,157.6651830729749</coordinates>
		</Point>
	</Placemark>
	<Placemark id="04284D6FD929FCCB11D7">
		<name>MD/RT1-2028-0102-20+250</name>
		<LookAt>
			<longitude>104.4611105285267</longitude>
			<latitude>17.45204314244527</latitude>
			<altitude>157.5660099732014</altitude>
			<heading>48.61599783202101</heading>
			<tilt>0</tilt>
			<gx:fovy>35</gx:fovy>
			<range>62.0233370083406</range>
			<altitudeMode>absolute</altitudeMode>
		</LookAt>
		<styleUrl>#__managed_style_0FEDAEEAB82A3A4CEFB1</styleUrl>
		<Point>
			<coordinates>104.4610032568513,17.45202858617453,157.7018918773067</coordinates>
		</Point>
	</Placemark>
	<Placemark id="0015358B6929FCD0952F">
		<name>MD/LT2-2028-0102-20+280</name>
		<LookAt>
			<longitude>104.4614529951766</longitude>
			<latitude>17.45227345343163</latitude>
			<altitude>158.3113670342149</altitude>
			<heading>0.4550093666704021</heading>
			<tilt>0</tilt>
			<gx:fovy>35</gx:fovy>
			<range>155.705907263764</range>
			<altitudeMode>absolute</altitudeMode>
		</LookAt>
		<styleUrl>#__managed_style_0FEDAEEAB82A3A4CEFB1</styleUrl>
		<Point>
			<coordinates>104.4613306500013,17.45214511700423,158.3155509111812</coordinates>
		</Point>
	</Placemark>
	<Placemark id="0BACECC88C29FCD0C29E">
		<name>MD/RT2-2028-0102-20+280</name>
		<LookAt>
			<longitude>104.46145299516</longitude>
			<latitude>17.45227345338937</latitude>
			<altitude>158.3113670342149</altitude>
			<heading>0.4550093666704021</heading>
			<tilt>0</tilt>
			<gx:fovy>35</gx:fovy>
			<range>155.7059072637639</range>
			<altitudeMode>absolute</altitudeMode>
		</LookAt>
		<styleUrl>#__managed_style_0FEDAEEAB82A3A4CEFB1</styleUrl>
		<Point>
			<coordinates>104.4613445229351,17.45213211299972,158.5994747540714</coordinates>
		</Point>
	</Placemark>
	<Placemark id="0CDE80637C29FCD12AE7">
		<name>MD/LT3-2028-0102-20+310</name>
		<LookAt>
			<longitude>104.4617792089904</longitude>
			<latitude>17.45228633291184</latitude>
			<altitude>158.9427304781489</altitude>
			<heading>282.2937614726077</heading>
			<tilt>0</tilt>
			<gx:fovy>35</gx:fovy>
			<range>205.6363202173452</range>
			<altitudeMode>absolute</altitudeMode>
		</LookAt>
		<styleUrl>#__managed_style_0FEDAEEAB82A3A4CEFB1</styleUrl>
		<Point>
			<coordinates>104.4616646687714,17.45228736029137,159.0989603520852</coordinates>
		</Point>
	</Placemark>
	<Placemark id="0FBF2C853529FCD143D5">
		<name>MD/RT3-2028-0102-20+310</name>
		<LookAt>
			<longitude>104.4617792090126</longitude>
			<latitude>17.45228633295411</latitude>
			<altitude>158.9427304781489</altitude>
			<heading>282.2937614726077</heading>
			<tilt>0</tilt>
			<gx:fovy>35</gx:fovy>
			<range>205.6363202173452</range>
			<altitudeMode>absolute</altitudeMode>
		</LookAt>
		<styleUrl>#__managed_style_0FEDAEEAB82A3A4CEFB1</styleUrl>
		<Point>
			<coordinates>104.461672664851,17.45226418845812,159.1407077689329</coordinates>
		</Point>
	</Placemark>
</Document>
</kml>
